ssa_office_code, ssa_office_name,skip,address2, address1, city,state,zipcode,tel_public, x,Monday-Open,Monday-Close,Tuesday-Open,Tuesday-Close,Wednesday-Open,Wednesday-Close,Thursday-Open,Thursday-Close,Friday-Open,Friday-Close
001,PORTLAND ME,SOCIAL SECURITY,FLOOR 2,1355 CONGRESS ST,PORTLAND,ME,04102,(877) 319-3076,0,0,0,0,0,0,0,0,0,0
002,BANGOR ME,SOCIAL SECURITY,ROOM 10307,202 HARLOW ST,BANGOR,ME,04401,(877) 405-1448,0,0,0,0,0,0,0,0,0,0
003,AUGUSTA ME,SOCIAL SECURITY,SUITE 4,330 CIVIC CENTER DR,AUGUSTA,ME,04330,(866) 882-5422,0,0,0,0,0,0,0,0,0,0
004,AUBURN ME,SOCIAL SECURITY,SUITE 5,600 TURNER STREET,AUBURN,ME,04210,(833) 388-6432,0,0,0,0,0,0,0,0,0,0
005,PRESQUE ISLE ME,SOCIAL SECURITY,,365 MAIN ST,PRESQUE ISLE,ME,04769,(866) 837-2719,0,0,0,0,0,0,0,0,0,0
006,ROCKLAND ME,SOCIAL SECURITY,,169 CAMDEN ST,ROCKLAND,ME,04841,(855) 269-9179,0,0,0,0,0,0,0,0,0,0
007,MEADVILLE PA,SOCIAL SECURITY,,19063 PARK AVE PLAZA,MEADVILLE,PA,16335,(888) 347-9276,0,0,0,0,0,0,0,0,0,0
009,PHILA SOUTH PA,SOCIAL SECURITY,STADIUM PLAZA,3336 S BROAD STREET,PHILADELPHIA,PA,19145,(877) 575-5191,0,0,0,0,0,0,0,0,0,0
010,CONCORD NH,SOCIAL SECURITY,STE 100,70 COMMERCIAL ST,CONCORD,NH,03301,(888) 397-9798,0,0,0,0,0,0,0,0,0,0
011,PORTSMOUTH NH,SOCIAL SECURITY,ROOM 210A,80 DANIEL ST,PORTSMOUTH,NH,03801,(888) 397-9796,0,0,0,0,0,0,0,0,0,0
012,MANCHESTER NH,SOCIAL SECURITY,SUITE 201,1100 ELM ST,MANCHESTER,NH,03101,(866) 814-5408,0,0,0,0,0,0,0,0,0,0
013,LITTLETON NH,SOCIAL SECURITY,,177 MAIN ST,LITTLETON,NH,03561,(877) 405-7658,0,0,0,0,0,0,0,0,0,0
014,NASHUA NH,SOCIAL SECURITY,SUITE 2,175 AMHERST ST,NASHUA,NH,03064,(877) 444-0134,0,0,0,0,0,0,0,0,0,0
015,KEENE NH,SOCIAL SECURITY,,9 ELM STREET,KEENE,NH,03431,(877) 405-3651,0,0,0,0,0,0,0,0,0,0
019,BALTO NE MD,SOCIAL SECURITY,STE 106,2401 BELAIR RD,BALTIMORE,MD,21213,(866) 336-9653,0,0,0,0,0,0,0,0,0,0
020,BALTO WEST MD,SOCIAL SECURITY,SUITE S,1531 S EDGEWOOD STREET,BALTIMORE,MD,21227,(877) 870-6381,0,0,0,0,0,0,0,0,0,0
022,BURLINGTON VT,SOCIAL SECURITY,SUITE 107,128 LAKESIDE AVE,BURLINGTON,VT,05401,(877) 840-5776,0,0,0,0,0,0,0,0,0,0
023,RUTLAND VT,SOCIAL SECURITY,,246 WEST ST,RUTLAND,VT,05701,(866) 690-1944,0,0,0,0,0,0,0,0,0,0
024,MONTPELIER VT,SOCIAL SECURITY,,33 SCHOOL ST,MONTPELIER,VT,05602,(877) 505-4542,0,0,0,0,0,0,0,0,0,0
025,PAGO PAGO AM SAMOA,SOCIAL SECURITY,CENTENNIAL BUILDING,3RD FLR SUITE 302,PAGO PAGO,AS,96799,(855) 602-5033,0,0,0,0,0,0,0,0,0,0
026,CRENSHAW CA,SOCIAL SECURITY,,3840 CRENSHAW BLVD,LOS ANGELES,CA,90008,(877) 531-4693,0,0,0,0,0,0,0,0,0,0
027,SAN FERNANDO CA,SOCIAL SECURITY,,456 S F MISSION BLVD,SAN FERNANDO,CA,91340,(888) 383-1599,0,0,0,0,0,0,0,0,0,0
028,EAST OAKLAND CA,SOCIAL SECURITY,EASTMONT TOWN CENTER,7200 BANCROFT AVENUE,OAKLAND,CA,94605,(888) 527-9329,0,0,0,0,0,0,0,0,0,0
030,BOSTON MA,SOCIAL SECURITY,ROOM 148,10 CAUSEWAY STREET,BOSTON,MA,02222,(866) 964-7311,0,0,0,0,0,0,0,0,0,0
031,SPRINGFIELD MA,SOCIAL SECURITY,,70 BOND STREET,SPRINGFIELD,MA,01104,(866) 964-5061,0,0,0,0,0,0,0,0,0,0
032,CAMBRIDGE MA,SOCIAL SECURITY,FIRST FLR,10 FAWCETT ST,CAMBRIDGE,MA,02138,(888) 527-9340,0,0,0,0,0,0,0,0,0,0
033,ROXBURY MA,SOCIAL SECURITY,,10 MALCOLM X BLVD,ROXBURY,MA,02119,(855) 278-4195,0,0,0,0,0,0,0,0,0,0
034,LYNN MA,SOCIAL SECURITY,,140 UNION STREET,LYNN,MA,01901,(866) 366-7792,0,0,0,0,0,0,0,0,0,0
035,LOWELL MA,SOCIAL SECURITY,STE 300,151 WARREN ST,LOWELL,MA,01852,(877) 746-9850,0,0,0,0,0,0,0,0,0,0
036,WORCESTER MA,SOCIAL SECURITY,MADISON PLACE,51 MYRTLE ST,WORCESTER,MA,01608,(866) 331-9069,0,0,0,0,0,0,0,0,0,0
037,PITTSFIELD MA,SOCIAL SECURITY,FEDERAL BLDG SUITE 101,78 CENTER ST,PITTSFIELD,MA,01201,(866) 446-7111,0,0,0,0,0,0,0,0,0,0
038,NEW BEDFORD MA,SOCIAL SECURITY,HASTINGS KEITH FED BLD,53 NORTH 6TH STREET,NEW BEDFORD,MA,02740,(866) 964-7413,0,0,0,0,0,0,0,0,0,0
039,BROCKTON MA,SOCIAL SECURITY,,30 CHRISTY DR,BROCKTON,MA,02301,(888) 717-1524,0,0,0,0,0,0,0,0,0,0
040,FITCHBURG MA,SOCIAL SECURITY,PHILBIN FED BLDG,881 MAIN ST 1ST FLOOR,FITCHBURG,MA,01420,(877) 319-0728,0,0,0,0,0,0,0,0,0,0
041,LAWRENCE MA,SOCIAL SECURITY,SUITE 106A,439 S UNION ST,LAWRENCE,MA,01843,(877) 669-3127,0,0,0,0,0,0,0,0,0,0
042,FALL RIVER MA,SOCIAL SECURITY,,400 NORTH MAIN STREET,FALL RIVER,MA,02720,(866) 964-3967,0,0,0,0,0,0,0,0,0,0
044,HOLYOKE MA,SOCIAL SECURITY,2ND FLOOR,200 HIGH STREET,HOLYOKE,MA,01040,(877) 480-4989,0,0,0,0,0,0,0,0,0,0
045,MALDEN MA,SOCIAL SECURITY,,192 COMMERCIAL ST,MALDEN,MA,02148,(866) 596-8598,0,0,0,0,0,0,0,0,0,0
046,SALEM MA,SOCIAL SECURITY,SUITE 101,35 CONGRESS ST,SALEM,MA,01970,(866) 248-2394,0,0,0,0,0,0,0,0,0,0
047,QUINCY MA,SOCIAL SECURITY,SUITE 305,1515 HANCOCK ST,QUINCY,MA,02169,(866) 593-4392,0,0,0,0,0,0,0,0,0,0
048,DORCHESTER MA,SOCIAL SECURITY,,115 FREEPORT ST,DORCHESTER,MA,02122,(866) 931-2550,0,0,0,0,0,0,0,0,0,0
049,ATTLEBORO MA,SOCIAL SECURITY,,106 PLEASANT ST,ATTLEBORO,MA,02703,(888) 655-6469,0,0,0,0,0,0,0,0,0,0
050,HAVERHILL MA,SOCIAL SECURITY,,367 MAIN ST,HAVERHILL,MA,01830,(866) 964-4324,0,0,0,0,0,0,0,0,0,0
051,WALTHAM MA,SOCIAL SECURITY,SUITE 120,135 BEAVER STREET,WALTHAM,MA,02452,(877) 457-1737,0,0,0,0,0,0,0,0,0,0
052,NORWOOD MA,SOCIAL SECURITY,SUITE 102,ONE EDGEWATER DRIVE,NORWOOD,MA,02062,(866) 563-9533,0,0,0,0,0,0,0,0,0,0
053,FRAMINGHAM MA,SOCIAL SECURITY,SUITE 101,ONE CLARKS HILL,FRAMINGHAM,MA,01702,(844) 587-1390,0,0,0,0,0,0,0,0,0,0
054,HYANNIS MA,SOCIAL SECURITY,100 INDEPENDENCE DRIVE,SUITE 4,HYANNIS,MA,02601,(866) 467-0440,0,0,0,0,0,0,0,0,0,0
056,ROSLINDALE MA,SOCIAL SECURITY,,4238 WASHINGTON ST,ROSLINDALE,MA,02131,(866) 331-9173,0,0,0,0,0,0,0,0,0,0
057,TAUNTON MA,SOCIAL SECURITY,,104 DEAN ST,TAUNTON,MA,02780,(877) 505-4546,0,0,0,0,0,0,0,0,0,0
059,LANCASTER CA,SOCIAL SECURITY,42225 10TH ST W,STE A,LANCASTER,CA,93534,(866) 964-1725,0,0,0,0,0,0,0,0,0,0
060,MERCED CA,SOCIAL SECURITY,,600 WEST OLIVE AVE,MERCED,CA,95348,(888) 632-7069,0,0,0,0,0,0,0,0,0,0
061,SANTA CRUZ CA,SOCIAL SECURITY,,169 WALNUT AVENUE,SANTA CRUZ,CA,95060,(800) 593-8523,0,0,0,0,0,0,0,0,0,0
062,CHATSWORTH CA,SOCIAL SECURITY,,20439 NORDHOFF ST,CHATSWORTH,CA,91311,(855) 727-3598,0,0,0,0,0,0,0,0,0,0
063,MONTEBELLO CA,SOCIAL SECURITY,,2216 W BEVERLY BLVD,MONTEBELLO,CA,90640,(866) 964-7435,0,0,0,0,0,0,0,0,0,0
064,WATTS CA,SOCIAL SECURITY,,12429 AVALON BLVD,LOS ANGELES,CA,90061,(877) 836-1558,0,0,0,0,0,0,0,0,0,0
066,HAYWARD CA,SOCIAL SECURITY,SUITE 500,24301 SOUTHLAND DR,HAYWARD,CA,94545,(866) 964-5054,0,0,0,0,0,0,0,0,0,0
068,SANTA MARIA CA,SOCIAL SECURITY,,2436 PROFESSIONAL PARKWAY,SANTA MARIA,CA,93455,(866) 331-2316,0,0,0,0,0,0,0,0,0,0
070,PALM SPRINGS CA,SOCIAL SECURITY,,4201 E RAMON RD,PALM SPRINGS,CA,92264,(877) 873-9105,0,0,0,0,0,0,0,0,0,0
072,PROVIDENCE RI,SOCIAL SECURITY,6TH FLOOR,ONE EMPIRE PLAZA,PROVIDENCE,RI,02903,(877) 402-0808,0,0,0,0,0,0,0,0,0,0
073,WOONSOCKET RI,SOCIAL SECURITY,PAVILION PLAZA,2168 DIAMOND HILL ROAD,WOONSOCKET,RI,02895,(877) 229-3542,0,0,0,0,0,0,0,0,0,0
074,PAWTUCKET RI,SOCIAL SECURITY,,4 PLEASANT ST,PAWTUCKET,RI,02860,(866) 931-7079,0,0,0,0,0,0,0,0,0,0
075,WARWICK RI,SOCIAL SECURITY,FIRST FLOOR,30 QUAKER LANE,WARWICK,RI,02886,(866) 964-2038,0,0,0,0,0,0,0,0,0,0
080,HARTFORD CT,SOCIAL SECURITY,2ND FLOOR,960 MAIN ST,HARTFORD,CT,06103,(877) 619-2851,0,0,0,0,0,0,0,0,0,0
081,BRIDGEPORT CT,SOCIAL SECURITY,35 COURTLAND ST,2ND FLOOR,BRIDGEPORT,CT,06604,(866) 331-6399,0,0,0,0,0,0,0,0,0,0
082,WATERBURY CT,SOCIAL SECURITY,SUITE 1,51 NORTH ELM ST,WATERBURY,CT,06702,(877) 405-4874,0,0,0,0,0,0,0,0,0,0
083,WILLIMANTIC CT,SOCIAL SECURITY,STE 19,1320 MAIN ST,WILLIMANTIC,CT,06226,(877) 405-0488,0,0,0,0,0,0,0,0,0,0
084,NEW LONDON CT,SOCIAL SECURITY,RM 101,2 SHAWS COVE,NEW LONDON,CT,06320,(866) 643-3401,0,0,0,0,0,0,0,0,0,0
085,NEW HAVEN CT,SOCIAL SECURITY,GIAIMO FED BLDG 4TH FL,150 COURT ST,NEW HAVEN,CT,06510,(866) 331-5281,0,0,0,0,0,0,0,0,0,0
086,NEW BRITAIN CT,SOCIAL SECURITY,2ND FL,233 MAIN STREET,NEW BRITAIN,CT,06051,(866) 858-6086,0,0,0,0,0,0,0,0,0,0
087,STAMFORD CT,SOCIAL SECURITY,SUITE 105,2 LANDMARK SQUARE,STAMFORD,CT,06901,(866) 770-1881,0,0,0,0,0,0,0,0,0,0
088,MERIDEN CT,SOCIAL SECURITY,321 RESEARCH PARKWAY,SUITE 212,MERIDEN,CT,06450,(877) 409-8429,0,0,0,0,0,0,0,0,0,0
089,TORRINGTON CT,SOCIAL SECURITY,,147 LITCHFIELD STREET,TORRINGTON,CT,06790,(877) 405-0486,0,0,0,0,0,0,0,0,0,0
090,DANBURY CT,SOCIAL SECURITY,,131 WEST ST,DANBURY,CT,06810,(866) 275-7821,0,0,0,0,0,0,0,0,0,0
092,LITTLETON CO,SOCIAL SECURITY,,8000 SOUTHPARK LN,LITTLETON,CO,80120,(888) 824-4384,0,0,0,0,0,0,0,0,0,0
093,LAKEWOOD CO,SOCIAL SECURITY,,13151 W ALAMEDA PKWY,LAKEWOOD,CO,80228,(866) 563-9469,0,0,0,0,0,0,0,0,0,0
094,ABINGDON MD,SOCIAL SECURITY,3435A BOX HILL,CORPORATE CENTER DR,ABINGDON,MD,21009,(877) 701-2142,0,0,0,0,0,0,0,0,0,0
095,CAMBRIDGE MD,SOCIAL SECURITY,SUITE 500,828 AIRPAX ROAD,CAMBRIDGE,MD,21613,(888) 347-9277,0,0,0,0,0,0,0,0,0,0
096,ELKTON MD,SOCIAL SECURITY,,300 BIG ELK MALL,ELKTON,MD,21921,(866) 331-2218,0,0,0,0,0,0,0,0,0,0
097,CHILLICOTHE MO,SOCIAL SECURITY,INDUSTRIAL PK,1105 S MITCHELL AVE,CHILLICOTHE,MO,64601,(877) 405-7668,0,0,0,0,0,0,0,0,0,0
098,KANSAS CITY (GATEWAY),SOCIAL SECURITY,,2021 INDEPENDENCE AVE,KANSAS CITY,MO,64124,(888) 221-3612,0,0,0,0,0,0,0,0,0,0
099,ST LOUIS CEN WEST MO,SOCIAL SECURITY,,5669 DELMAR BLVD,ST LOUIS,MO,63112,(888) 810-7291,0,0,0,0,0,0,0,0,0,0
100,NY MIDTOWN NY,SOCIAL SECURITY,5TH FLOOR,237 W 48TH STREET,NEW YORK,NY,10036,(866) 964-0783,0,0,0,0,0,0,0,0,0,0
101,SYRACUSE NY,SOCIAL SECURITY,FED BLDG 4TH FLOOR,100 S CLINTON ST,SYRACUSE,NY,13261,(866) 755-4884,0,0,0,0,0,0,0,0,0,0
102,ALBANY NY,SOCIAL SECURITY,RM 430 FEDERAL BLDG,11 A CLINTON AVE,ALBANY,NY,12207,(866) 253-9183,0,0,0,0,0,0,0,0,0,0
103,BUFFALO NY,SOCIAL SECURITY,SUITE 100,186 EXCHANGE STREET,BUFFALO,NY,14204,(855) 881-0213,0,0,0,0,0,0,0,0,0,0
104,BINGHAMTON NY,SOCIAL SECURITY,SUITE 300,2 COURT STREET,BINGHAMTON,NY,13901,(866) 964-3971,0,0,0,0,0,0,0,0,0,0
105,SCHENECTADY NY,SOCIAL SECURITY,8TH FLOOR,ONE BROADWAY CENTER,SCHENECTADY,NY,12305,(866) 964-1296,0,0,0,0,0,0,0,0,0,0
106,BORO HALL NY,SOCIAL SECURITY,7TH FLOOR,195 MONTAGUE ST,BROOKLYN,NY,11201,(877) 531-4725,0,0,0,0,0,0,0,0,0,0
108,ROCHESTER NY,SOCIAL SECURITY,200 E. MAIN ST,2ND FLOOR,ROCHESTER,NY,14604,(866) 964-2045,0,0,0,0,0,0,0,0,0,0
109,NY DOWNTOWN NY,SOCIAL SECURITY,4TH FLOOR,123 WILLIAM ST,NEW YORK,NY,10038,(866) 335-1089,0,0,0,0,0,0,0,0,0,0
110,UTICA NY,SOCIAL SECURITY,FEDERAL BUILDING,10 BROAD STREET,UTICA,NY,13501,(877) 405-6750,0,0,0,0,0,0,0,0,0,0
111,JAMESTOWN NY,SOCIAL SECURITY,,321 HAZELTINE AVE,JAMESTOWN,NY,14701,(877) 319-3079,0,0,0,0,0,0,0,0,0,0
112,SOUTH BRONX NY,SOCIAL SECURITY,820 CONCOURSE VILLAGE,"WEST, 3RD FL",BRONX,NY,10451,(855) 531-1684,0,0,0,0,0,0,0,0,0,0
113,YONKERS NY,SOCIAL SECURITY,STE 1000,20 SOUTH BROADWAY,YONKERS,NY,10701,(866) 331-6404,0,0,0,0,0,0,0,0,0,0
114,HORSEHEADS NY,SOCIAL SECURITY,3345 CHAMBERS RD,SUITE 19,HORSEHEADS,NY,14845,(866) 964-1715,0,0,0,0,0,0,0,0,0,0
115,NIAGARA FALLS NY,SOCIAL SECURITY,,6540 NIAGARA FALLS BVD,NIAGARA FALLS,NY,14304,(877) 480-4992,0,0,0,0,0,0,0,0,0,0
116,OGDENSBURG NY,SOCIAL SECURITY,,101 FORD STREET,OGDENSBURG,NY,13669,(866) 572-8369,0,0,0,0,0,0,0,0,0,0
117,NY UPTOWN NY,SOCIAL SECURITY,302 WEST 126TH STREET,4TH FLOOR,NEW YORK,NY,10027,(866) 964-1301,0,0,0,0,0,0,0,0,0,0
118,NEWBURGH NY,SOCIAL SECURITY,SUITE 301,3 WASHINGTON CENTER,NEWBURGH,NY,12550,(866) 504-4801,0,0,0,0,0,0,0,0,0,0
119,REGO PARK NY,SOCIAL SECURITY,,6344 AUSTIN STREET,REGO PARK,NY,11374,(877) 255-1506,0,0,0,0,0,0,0,0,0,0
120,JAMAICA NY,SOCIAL SECURITY,3RD FL DISTRICT OFFICE,155-10 JAMAICA AVE,JAMAICA,NY,11432,(866) 592-0802,0,0,0,0,0,0,0,0,0,0
121,STATEN ISLAND NY,SOCIAL SECURITY,,2391 RICHMOND AVENUE,STATEN ISLAND,NY,10314,(866) 331-5288,0,0,0,0,0,0,0,0,0,0
122,GLOVERSVILLE NY,SOCIAL SECURITY,,13 N ARLINGTON AVE,GLOVERSVILLE,NY,12078,(888) 528-9446,0,0,0,0,0,0,0,0,0,0
123,OSWEGO NY,SOCIAL SECURITY,,17 FOURTH AVE,OSWEGO,NY,13126,(866) 964-7593,0,0,0,0,0,0,0,0,0,0
125,PLATTSBURGH NY,SOCIAL SECURITY,SUITE 230,14 DURKEE ST,PLATTSBURGH,NY,12901,(866) 964-7430,0,0,0,0,0,0,0,0,0,0
126,QUEENSBURY NY,SOCIAL SECURITY,SUITE 1,17 CRONIN RD,QUEENSBURY,NY,12804,(877) 405-4875,0,0,0,0,0,0,0,0,0,0
127,BROOKLYN FLATBUSH NY,SOCIAL SECURITY,,2250 NOSTRAND AVE,BROOKLYN,NY,11210,(866) 563-9461,0,0,0,0,0,0,0,0,0,0
128,NEW ROCHELLE NY,SOCIAL SECURITY,STREET LEVEL,85 HARRISON ST,NEW ROCHELLE,NY,10801,(855) 210-1026,0,0,0,0,0,0,0,0,0,0
129,WATERTOWN NY,SOCIAL SECURITY,,156 BELLEW AVE SOUTH,WATERTOWN,NY,13601,(866) 627-6995,0,0,0,0,0,0,0,0,0,0
130,TROY NY,SOCIAL SECURITY,SUITE 101,500 FEDERAL ST,TROY,NY,12180,(866) 770-2662,0,0,0,0,0,0,0,0,0,0
132,NORTH BRONX NY,SOCIAL SECURITY,2ND FLOOR,2501 GRAND CONCOURSE,BRONX,NY,10468,(877) 619-2852,0,0,0,0,0,0,0,0,0,0
133,POUGHKEEPSIE NY,SOCIAL SECURITY,,332 MAIN ST,POUGHKEEPSIE,NY,12601,(877) 405-6747,0,0,0,0,0,0,0,0,0,0
134,INWOOD HILL NY,SOCIAL SECURITY,,4941 BROADWAY,NEW YORK,NY,10034,(877) 445-0838,0,0,0,0,0,0,0,0,0,0
135,BROOKLYN BUSHWICK NY,SOCIAL SECURITY,THIRD FLOOR,785 FLUSHING AVE,BROOKLYN,NY,11206,(888) 327-1276,0,0,0,0,0,0,0,0,0,0
136,PATCHOGUE NY,SOCIAL SECURITY,,75 OAK STREET,PATCHOGUE,NY,11772,(866) 771-1991,0,0,0,0,0,0,0,0,0,0
137,BROOKLYN NEW UTRECHT,SOCIAL SECURITY,,7714 17 AVENUE,BROOKLYN,NY,11214,(866) 585-9320,0,0,0,0,0,0,0,0,0,0
138,MINEOLA NY,SOCIAL SECURITY,5TH FLOOR,211 STATION RD,MINEOLA,NY,11501,(866) 758-1318,0,0,0,0,0,0,0,0,0,0
139,CYPRESS HILLS,SOCIAL SECURITY,,3386 FULTON STREET,BROOKLYN,NY,11208,(866) 613-2767,0,0,0,0,0,0,0,0,0,0
140,CORNING NY,SOCIAL SECURITY,,200 NASSER CIVIC CTR,CORNING,NY,14830,(866) 591-3665,0,0,0,0,0,0,0,0,0,0
141,GENEVA NY,SOCIAL SECURITY,,15 LEWIS ST,GENEVA,NY,14456,(866) 331-7759,0,0,0,0,0,0,0,0,0,0
142,OLEAN NY,SOCIAL SECURITY,,1618 W STATE ST,OLEAN,NY,14760,(877) 319-5773,0,0,0,0,0,0,0,0,0,0
143,BATAVIA NY,SOCIAL SECURITY,,571 EAST MAIN STREET,BATAVIA,NY,14020,(866) 931-7103,0,0,0,0,0,0,0,0,0,0
144,MELVILLE NY,SOCIAL SECURITY,SUITE 201,1121 WALT WHITMAN RD,MELVILLE,NY,11747,(866) 964-0165,0,0,0,0,0,0,0,0,0,0
146,ONEONTA NY,SOCIAL SECURITY,SUITE 1,31 MAIN ST,ONEONTA,NY,13820,(877) 628-6581,0,0,0,0,0,0,0,0,0,0
147,EAST BRONX NY,SOCIAL SECURITY,2ND FLOOR,1380 PARKER STREET,BRONX,NY,10462,(866) 931-2526,0,0,0,0,0,0,0,0,0,0
148,WHITE PLAINS NY,SOCIAL SECURITY,SUITE 4A,297 KNOLLWOOD RD,WHITE PLAINS,NY,10607,(866) 331-8134,0,0,0,0,0,0,0,0,0,0
149,WEST NYACK NY,SOCIAL SECURITY,,240 WEST NYACK ROAD,WEST NYACK,NY,10994,(866) 755-4334,0,0,0,0,0,0,0,0,0,0
150,FLUSHING NY,SOCIAL SECURITY,,138-50 BARCLAY AVE,FLUSHING,NY,11355,(877) 457-1735,0,0,0,0,0,0,0,0,0,0
151,FREEPORT NY,SOCIAL SECURITY,,84 N. MAIN STREET,FREEPORT,NY,11520,(866) 964-0028,0,0,0,0,0,0,0,0,0,0
152,ITHACA NY,SOCIAL SECURITY,2ND FL,127 W STATE STREET,ITHACA,NY,14850,(866) 706-8289,0,0,0,0,0,0,0,0,0,0
153,HUDSON NY,SOCIAL SECURITY,,747 WARREN STREET,HUDSON,NY,12534,(877) 828-1691,0,0,0,0,0,0,0,0,0,0
154,MONTICELLO NY,SOCIAL SECURITY,SUITE 4,60 JEFFERSON ST,MONTICELLO,NY,12701,(855) 794-4728,0,0,0,0,0,0,0,0,0,0
156,NY EAST HARLEM NY,SOCIAL SECURITY,345 E 102 STREET,4TH FLOOR,NEW YORK,NY,10029,(877) 445-0836,0,0,0,0,0,0,0,0,0,0
158,BRONX HUNTS POINT NY,SOCIAL SECURITY,3RD FLOOR,1029 E 163RD STREET,BRONX,NY,10459,(866) 220-9777,0,0,0,0,0,0,0,0,0,0
160,BEDFORD HEIGHTS NY,SOCIAL SECURITY,,1540 FULTON STREET,BROOKLYN,NY,11216,(866) 592-4845,0,0,0,0,0,0,0,0,0,0
162,ROCKAWAY PARK NY,SOCIAL SECURITY,,11306 ROCKAWAY BCH BLVD,ROCKAWAY PARK,NY,11694,(866) 331-2310,0,0,0,0,0,0,0,0,0,0
163,RIVERHEAD NY,SOCIAL SECURITY,,526 EAST MAIN STREET,RIVERHEAD,NY,11901,(888) 397-9819,0,0,0,0,0,0,0,0,0,0
166,WAILUKU HI,SOCIAL SECURITY,SUITE 125,2200 MAIN STREET,WAILUKU,HI,96793,(855) 572-4863,0,0,0,0,0,0,0,0,0,0
167,KAPOLEI HI,SOCIAL SECURITY,,970 MANAWAI STREET,KAPOLEI,HI,96707,(855) 572-4866,0,0,0,0,0,0,0,0,0,0
168,GUAM,SOCIAL SECURITY,SUITE 155,770 EAST SUNSET BLVD,BARRIGADA,GU,96913,(855) 616-6393,0,0,0,0,0,0,0,0,0,0
170,NEWARK NJ,SOCIAL SECURITY,ROOM 1035,970 BROAD STREET,NEWARK,NJ,07102,(877) 255-1507,0,0,0,0,0,0,0,0,0,0
171,TRENTON NJ,SOCIAL SECURITY,ROEBLING MARKET,635 S CLINTON AVE,TRENTON,NJ,08611,(866) 964-0026,0,0,0,0,0,0,0,0,0,0
172,CHERRY HILL NJ,SOCIAL SECURITY,6 EXECUTIVE CAMPUS,SUITE 200,CHERRY HILL,NJ,08002,(866) 931-2879,0,0,0,0,0,0,0,0,0,0
173,PATERSON NJ,SOCIAL SECURITY,FIRST FLOOR,200 FEDERAL PLZ,PATERSON,NJ,07505,(888) 397-9806,0,0,0,0,0,0,0,0,0,0
174,UNION TOWNSHIP NJ,SOCIAL SECURITY,,855 LEHIGH AVE,UNION,NJ,07083,(877) 803-6306,0,0,0,0,0,0,0,0,0,0
175,WOODBRIDGE NJ,SOCIAL SECURITY,3RD FLOOR,190 MIDDLESEX TRNPIKE,ISELIN,NJ,08830,(877) 600-2852,0,0,0,0,0,0,0,0,0,0
176,JERSEY CITY NJ,SOCIAL SECURITY,,325 WEST SIDE AVENUE,JERSEY CITY,NJ,07305,(877) 405-2884,0,0,0,0,0,0,0,0,0,0
177,CLIFTON NJ,SOCIAL SECURITY,,935 ALLWOOD RD,CLIFTON,NJ,07012,(866) 964-0170,0,0,0,0,0,0,0,0,0,0
178,EGG HARBOR TWP NJ,SOCIAL SECURITY,,1350 DOUGHTY RD,EGG HARBOR TWP,NJ,08234,(877) 714-0394,0,0,0,0,0,0,0,0,0,0
179,LACONIA AVENUE,SOCIAL SECURITY,,3247 LACONIA AVE,BRONX,NY,10469,(866) 347-0054,0,0,0,0,0,0,0,0,0,0
180,BRIDGETON NJ,SOCIAL SECURITY,,149 WEST BROAD STREET,BRIDGETON,NJ,08302,(866) 837-1235,0,0,0,0,0,0,0,0,0,0
181,NEPTUNE,SOCIAL SECURITY,,3310 STATE ROUTE 66,NEPTUNE,NJ,07753,(877) 405-0475,0,0,0,0,0,0,0,0,0,0
182,HACKENSACK NJ,SOCIAL SECURITY,CONTINENTAL PLZ 2FL,401 HACKENSACK AVE,HACKENSACK,NJ,07601,(866) 964-4680,0,0,0,0,0,0,0,0,0,0
184,EAST ORANGE NJ,SOCIAL SECURITY,,7 GLENWOOD AVE STE 100,EAST ORANGE,NJ,07017,(866) 964-0030,0,0,0,0,0,0,0,0,0,0
186,PARSIPPANY NJ,SOCIAL SECURITY,2ND FLOOR,2200 STATE RT 10,PARSIPPANY,NJ,07054,(866) 331-7131,0,0,0,0,0,0,0,0,0,0
187,NEW BRUNSWICK NJ,SOCIAL SECURITY,SUITE 200,550 JERSEY AVENUE,NEW BRUNSWICK,NJ,08901,(877) 803-6313,0,0,0,0,0,0,0,0,0,0
188,SPRINGFIELD AVE NJ,SOCIAL SECURITY,,274 SPRINGFIELD AVE,NEWARK,NJ,07103,(877) 402-0821,0,0,0,0,0,0,0,0,0,0
190,BELLEVUE WA,SOCIAL SECURITY,SUITE 100,636 120TH AVE NE,BELLEVUE,WA,98005,(866) 574-2323,0,0,0,0,0,0,0,0,0,0
191,KENT WA,SOCIAL SECURITY,SUITE 401,321 RAMSAY WAY,KENT,WA,98032,(866) 931-7671,0,0,0,0,0,0,0,0,0,0
192,BLOOMSBURG PA,SOCIAL SECURITY,,700 MARKET ST,BLOOMSBURG,PA,17815,(866) 526-9847,0,0,0,0,0,0,0,0,0,0
194,PHILA ARAMINGO PA,SOCIAL SECURITY,IMPERIAL PLAZA,3400 ARAMINGO AVE,PHILADELPHIA,PA,19134,(855) 248-0233,0,0,0,0,0,0,0,0,0,0
195,COLUMBIA MD,SOCIAL SECURITY,OFFICE IS TEMPORARILY CLOSED,"LAKESIDE BLDG, STE 110",COLUMBIA,MD,21045,(877) 445-0504,0,0,0,0,0,0,0,0,0,0
196,BALTO ROSSVILLE MD,SOCIAL SECURITY,SUITE 100,6820 HOSPITAL DR,BALTIMORE,MD,21237,(866) 348-5818,0,0,0,0,0,0,0,0,0,0
197,OWINGS MILLS MD,SOCIAL SECURITY,SUITE 100,5 PARK CENTER COURT,OWINGS MILLS,MD,21117,(866) 681-1412,0,0,0,0,0,0,0,0,0,0
198,TOA ALTA PR,SOCIAL SECURITY,PLAZA LOS PALACIOS,PR #167 KM 14.6 BO ORTIZ,TOA ALTA,PR,00953,(866) 401-2598,0,0,0,0,0,0,0,0,0,0
199,BALTIMORE WABASH MD,SOCIAL SECURITY,BALTIMORE WABASH,6100A WABASH AVENUE,BALTIMORE,MD,21215,(866) 708-3210,0,0,0,0,0,0,0,0,0,0
200,PHILA-DOWNTOWN,SOCIAL SECURITY,2 PENN CTR STE 2000A,1500 JFK BLVD 20TH FL,PHILADELPHIA,PA,19102,(866) 613-3969,0,0,0,0,0,0,0,0,0,0
201,PITTS DT PA,SOCIAL SECURITY,,921 PENN AVE,PITTSBURGH,PA,15222,(866) 770-2965,0,0,0,0,0,0,0,0,0,0
202,SCRANTON PA,SOCIAL SECURITY,OPPENHEIM BLDG 1ST FLR,409 LACKAWANNA AVENUE,SCRANTON,PA,18503,(866) 635-0767,0,0,0,0,0,0,0,0,0,0
203,READING PA,SOCIAL SECURITY,STE 200,201 PENN ST,READING,PA,19601,(866) 274-5960,0,0,0,0,0,0,0,0,0,0
204,HARRISBURG PA,SOCIAL SECURITY,SUITE 810,555 WALNUT STREET,HARRISBURG,PA,17101,(888) 327-1176,0,0,0,0,0,0,0,0,0,0
205,ERIE PA,SOCIAL SECURITY,HIGHMARK BLDG STE 500,717 STATE ST,ERIE,PA,16501,(877) 405-2887,0,0,0,0,0,0,0,0,0,0
206,HAZLETON PA,SOCIAL SECURITY,,88 S LAUREL ST,HAZLETON,PA,18201,(866) 388-9878,0,0,0,0,0,0,0,0,0,0
207,ALTOONA PA,SOCIAL SECURITY,,303 CAYUGA AVE,ALTOONA,PA,16602,(888) 245-5368,0,0,0,0,0,0,0,0,0,0
208,LANCASTER PA,SOCIAL SECURITY,1808 COLONIAL VILLAGE LN,SUITE 101,LANCASTER,PA,17601,(888) 384-9919,0,0,0,0,0,0,0,0,0,0
209,ALLENTOWN PA,SOCIAL SECURITY,,41 N 4TH ST,ALLENTOWN,PA,18102,(877) 405-6746,0,0,0,0,0,0,0,0,0,0
210,NEW CASTLE PA,SOCIAL SECURITY,,1708 WILMINGTON RD,NEW CASTLE,PA,16105,(866) 331-5286,0,0,0,0,0,0,0,0,0,0
211,CRANBERRY PA,SOCIAL SECURITY,,80 REGINA DR,CRANBERRY,PA,16319,(888) 848-6464,0,0,0,0,0,0,0,0,0,0
212,UNIONTOWN PA,SOCIAL SECURITY,627 PITTSBURGH ROAD,FAYETTE PLAZA,UNIONTOWN,PA,15401,(866) 320-7459,0,0,0,0,0,0,0,0,0,0
213,WILKES-BARRE PA,SOCIAL SECURITY,"STEGMAIER BLDG, ST 102",7 N WILKES BARRE BLVD,WILKES BARRE,PA,18702,(866) 686-9505,0,0,0,0,0,0,0,0,0,0
214,JOHNSTOWN PA,SOCIAL SECURITY,SUITE 225,334 WASHINGTON ST,JOHNSTOWN,PA,15901,(866) 331-7128,0,0,0,0,0,0,0,0,0,0
215,WILLIAMSPORT PA,SOCIAL SECURITY,SUITE 100,240 WEST 3RD ST,WILLIAMSPORT,PA,17701,(866) 558-2572,0,0,0,0,0,0,0,0,0,0
216,YORK PA,SOCIAL SECURITY,SUITE 2,2670 INDUSTRIAL HWY,YORK,PA,17402,(888) 329-5732,0,0,0,0,0,0,0,0,0,0
217,CHESTER PA,SOCIAL SECURITY,,807 CROSBY STREET,CHESTER,PA,19013,(866) 398-1456,0,0,0,0,0,0,0,0,0,0
218,PHILA GERMANTOWN PA,SOCIAL SECURITY,,701 EAST CHELTEN AVE,PHILADELPHIA,PA,19144,(866) 495-0255,0,0,0,0,0,0,0,0,0,0
219,PHILA NORTHEAST PA,SOCIAL SECURITY,,9300 ASHTON RD,PHILADELPHIA,PA,19114,(866) 331-7840,0,0,0,0,0,0,0,0,0,0
220,POTTSVILLE PA,SOCIAL SECURITY,SUITE 200,2221 W MARKET STREET,POTTSVILLE,PA,17901,(866) 269-0880,0,0,0,0,0,0,0,0,0,0
221,MCKEESPORT PA,SOCIAL SECURITY,,540 5TH AVE,MCKEESPORT,PA,15132,(866) 964-2037,0,0,0,0,0,0,0,0,0,0
222,AMBRIDGE PA,SOCIAL SECURITY,,350 LOGAN LN,BADEN,PA,15005,(866) 331-6401,0,0,0,0,0,0,0,0,0,0
223,GREENSBURG PA,SOCIAL SECURITY,,122 W 3RD STREET,GREENSBURG,PA,15601,(877) 748-9768,0,0,0,0,0,0,0,0,0,0
225,NEW KENSINGTON,SOCIAL SECURITY,,707 5TH AVE,NEW KENSINGTON,PA,15068,(888) 377-4710,0,0,0,0,0,0,0,0,0,0
226,WASHINGTON PA,SOCIAL SECURITY,SUITE 515,95 W BEAU ST,WASHINGTON,PA,15301,(855) 829-8917,0,0,0,0,0,0,0,0,0,0
227,NORRISTOWN PA,SOCIAL SECURITY,1700 MARKLEY STREET,SUITE 120,NORRISTOWN,PA,19401,(866) 964-6305,0,0,0,0,0,0,0,0,0,0
228,DU BOIS PA,SOCIAL SECURITY,,302 LIBERTY BLVD,DUBOIS,PA,15801,(888) 491-1884,0,0,0,0,0,0,0,0,0,0
229,EASTON PA,SOCIAL SECURITY,,134 S FOURTH ST,EASTON,PA,18042,(866) 964-5056,0,0,0,0,0,0,0,0,0,0
230,PHILA UNIVERSITY CITY,SOCIAL SECURITY,,4240 MARKET STREET,PHILADELPHIA,PA,19104,(877) 445-9977,0,0,0,0,0,0,0,0,0,0
231,PITTS EAST LIBERTY PA,SOCIAL SECURITY,,6117 STATION ST,PITTSBURGH,PA,15206,(877) 405-3575,0,0,0,0,0,0,0,0,0,0
232,SHARON PA,SOCIAL SECURITY,,2380 GARDEN WAY,HERMITAGE,PA,16148,(877) 467-1702,0,0,0,0,0,0,0,0,0,0
233,SELINSGROVE PA,SOCIAL SECURITY,,150 SUSQ VLY MALL DR,SELINSGROVE,PA,17870,(866) 593-3796,0,0,0,0,0,0,0,0,0,0
234,FAIRLESS HILLS PA,SOCIAL SECURITY,,444 LINCOLN HWY,FAIRLESS HILLS,PA,19030,(866) 964-7318,0,0,0,0,0,0,0,0,0,0
235,CHAMBERSBURG PA,SOCIAL SECURITY,,50 N THIRD STREET,CHAMBERSBURG,PA,17201,(866) 656-5367,0,0,0,0,0,0,0,0,0,0
236,STATE COLLEGE PA,SOCIAL SECURITY,SUITE 2,901 UNIVERSITY DR,STATE COLLEGE,PA,16801,(866) 864-1516,0,0,0,0,0,0,0,0,0,0
237,WEST CHESTER PA,SOCIAL SECURITY,,1101 WEST CHESTER PIKE,WEST CHESTER,PA,19382,(888) 306-3216,0,0,0,0,0,0,0,0,0,0
238,INDIANA PA,SOCIAL SECURITY,SUITE 310 PROF CENTER,1265 WAYNE AVE,INDIANA,PA,15701,(877) 405-7679,0,0,0,0,0,0,0,0,0,0
239,BUTLER PA,SOCIAL SECURITY,,102 WOODY DR,BUTLER,PA,16001,(877) 583-4102,0,0,0,0,0,0,0,0,0,0
240,LEBANON PA,SOCIAL SECURITY,,924 RUSSELL DRIVE,LEBANON,PA,17042,(866) 716-9635,0,0,0,0,0,0,0,0,0,0
241,ROSTRAVER PA,SOCIAL SECURITY,SUITE 320,800 PLAZA DR,ROSTRAVER TWP,PA,15012,(866) 931-4826,0,0,0,0,0,0,0,0,0,0
243,UPPER DARBY PA,SOCIAL SECURITY,,8645 WEST CHESTER PIKE,UPPER DARBY,PA,19082,(866) 964-0780,0,0,0,0,0,0,0,0,0,0
244,LUDINGTON MI,SOCIAL SECURITY,,150 N JEBAVY DR,LUDINGTON,MI,49431,(866) 495-0075,0,0,0,0,0,0,0,0,0,0
245,PHILA-NICETOWN,SOCIAL SECURITY,,2929 NORTH BROAD ST,PHILADELPHIA,PA,19132,(877) 319-0727,0,0,0,0,0,0,0,0,0,0
246,WEST BRANCH MI,SOCIAL SECURITY,,2938 HANSEN RD,WEST BRANCH,MI,48661,(877) 897-0602,0,0,0,0,0,0,0,0,0,0
248,WALNUT CREEK CA,SOCIAL SECURITY,SUITE 180,1111 CIVIC DRIVE,WALNUT CREEK,CA,94596,(877) 319-6042,0,0,0,0,0,0,0,0,0,0
249,ANAHEIM CA,SOCIAL SECURITY,,900 S HARBOR BLVD,ANAHEIM,CA,92805,(866) 657-3133,0,0,0,0,0,0,0,0,0,0
250,EL CAJON CA,SOCIAL SECURITY,,846 ARNELE AVE,EL CAJON,CA,92020,(866) 964-0012,0,0,0,0,0,0,0,0,0,0
251,RIVERSIDE CA,SOCIAL SECURITY,7880 MISSION GROVE,PARKWAY SOUTH,RIVERSIDE,CA,92508,(866) 931-4495,0,0,0,0,0,0,0,0,0,0
252,SF CHINATOWN CA,SOCIAL SECURITY,,560 KEARNY STREET,SAN FRANCISCO,CA,94108,(877) 319-3070,0,0,0,0,0,0,0,0,0,0
253,UNIVERSITY VILLAGE CA,SOCIAL SECURITY,STE 200,1122 W WASHINGTON BLVD,LOS ANGELES,CA,90015,(866) 964-7401,0,0,0,0,0,0,0,0,0,0
255,LAKE CITY FL,SOCIAL SECURITY,,1348 SW BASCOM NORRIS,LAKE CITY,FL,32025,(877) 600-2859,0,0,0,0,0,0,0,0,0,0
256,PORT ST LUCIE FL,SOCIAL SECURITY,,6810 S US HWY 1,PORT ST LUCIE,FL,34952,(866) 366-1627,0,0,0,0,0,0,0,0,0,0
257,CLEARWATER FL,SOCIAL SECURITY,,2340 DREW STREET,CLEARWATER,FL,33765,(888) 397-5325,0,0,0,0,0,0,0,0,0,0
258,LEESBURG FL,SOCIAL SECURITY,SUITE 100,900 N 14TH STREET,LEESBURG,FL,34748,(866) 836-3623,0,0,0,0,0,0,0,0,0,0
259,DELAND FL,SOCIAL SECURITY,,1629 S ADELLE AVE,DELAND,FL,32720,(866) 964-7396,0,0,0,0,0,0,0,0,0,0
260,SOUTH BROWARD FL,SOCIAL SECURITY,,12249 PEMBROKE RD,PEMBROKE PINES,FL,33025,(866) 613-3962,0,0,0,0,0,0,0,0,0,0
261,PERRINE FL,SOCIAL SECURITY,,11100 SW 211 STREET,MIAMI,FL,33189,(866) 964-6593,0,0,0,0,0,0,0,0,0,0
262,HIALEAH FL,SOCIAL SECURITY,,6500 W 21 COURT,HIALEAH,FL,33016,(866) 269-4250,0,0,0,0,0,0,0,0,0,0
263,JACKSONVILLE NORTH FL,SOCIAL SECURITY,,1685 DUNN AVE,JACKSONVILLE,FL,32218,(866) 635-0789,0,0,0,0,0,0,0,0,0,0
264,ALLAPATTAH FL,SOCIAL SECURITY,GROUND FLOOR,1251 NW 36TH STREET,MIAMI,FL,33142,(877) 405-0469,0,0,0,0,0,0,0,0,0,0
265,BRADENTON FL,SOCIAL SECURITY,SUITE 100,5540 SR 64 EAST,BRADENTON,FL,34208,(877) 803-6316,0,0,0,0,0,0,0,0,0,0
266,EAST HILLSBOROUGH FL,SOCIAL SECURITY,,2027 S PARSONS AVE,SEFFNER,FL,33584,(866) 593-8721,0,0,0,0,0,0,0,0,0,0
267,WILMINGTON DE,SOCIAL SECURITY,SUITE 200,920 W BASIN ROAD,NEW CASTLE,DE,19720,(866) 667-7221,0,0,0,0,0,0,0,0,0,0
268,DOVER DE,SOCIAL SECURITY,655 S BAY RD,SUITE 3J,DOVER,DE,19901,(877) 701-2141,0,0,0,0,0,0,0,0,0,0
269,LAKE MARY FL,SOCIAL SECURITY,101 COMMERCE ST,SUITE 2001,LAKE MARY,FL,32746,(866) 964-7379,0,0,0,0,0,0,0,0,0,0
270,DC DOWNTOWN,SOCIAL SECURITY,,1300 D ST SW,WASHINGTON,DC,20024,(866) 708-3255,0,0,0,0,0,0,0,0,0,0
271,SAN JUAN PR,SOCIAL SECURITY,URB CARIBE,MONACILLOS BLDG 4TH FLOOR,SAN JUAN,PR,00926,(866) 270-0406,0,0,0,0,0,0,0,0,0,0
272,PONCE PR,SOCIAL SECURITY,,2190 PONCE BY-PASS,PONCE,PR,00716,(866) 328-1254,0,0,0,0,0,0,0,0,0,0
273,BALTIMORE DTN MD,SOCIAL SECURITY,SUITE 200,1010 PARK AVE,BALTIMORE,MD,21201,(866) 931-9942,0,0,0,0,0,0,0,0,0,0
274,SALISBURY MD,SOCIAL SECURITY,SUITE 1,2414 NORTHGATE DR,SALISBURY,MD,21801,(866) 273-5083,0,0,0,0,0,0,0,0,0,0
275,CUMBERLAND MD,SOCIAL SECURITY,SUITE 100,217 GLENN ST,CUMBERLAND,MD,21502,(866) 964-7409,0,0,0,0,0,0,0,0,0,0
276,HAGERSTOWN MD,SOCIAL SECURITY,SUITE 100,1710 UNDERPASS WAY,HAGERSTOWN,MD,21740,(866) 331-7125,0,0,0,0,0,0,0,0,0,0
277,ANNAPOLIS MD,SOCIAL SECURITY,SUITE 114,185 HARRY S TRUMAN PARKWAY,ANNAPOLIS,MD,21401,(888) 840-0684,0,0,0,0,0,0,0,0,0,0
278,TOWSON MD,SOCIAL SECURITY,4TH FLOOR,28 ALLEGHENY AVENUE,TOWSON,MD,21204,(866) 614-4758,0,0,0,0,0,0,0,0,0,0
279,MAYAGUEZ PR,SOCIAL SECURITY,OFFICE PK II BLDG,357 HOSTOS AVE,MAYAGUEZ,PR,00680,(855) 620-5726,0,0,0,0,0,0,0,0,0,0
280,ARECIBO PR,SOCIAL SECURITY,,880 ISAAC CRUZ STGO ST,ARECIBO,PR,00612,(866) 754-3541,0,0,0,0,0,0,0,0,0,0
281,CAGUAS PR,SOCIAL SECURITY,GATSBY BLDG SUITE 328,30 PADIAL ST,CAGUAS,PR,00725,(833) 882-1200,0,0,0,0,0,0,0,0,0,0
282,SILVER SPRING MD,SOCIAL SECURITY,SUITE 304,10230 NEW HAMPSHIRE AV,SILVER SPRING,MD,20903,(877) 512-3848,0,0,0,0,0,0,0,0,0,0
283,GLEN BURNIE MD,SOCIAL SECURITY,SUITE 1A,337 HOSPITAL DR,GLEN BURNIE,MD,21061,(866) 528-9873,0,0,0,0,0,0,0,0,0,0
284,ST THOMAS VI,SOCIAL SECURITY,1ST FL SUITE 14,8000 NISKY SHOPPING CT,ST THOMAS,VI,00802,(866) 876-1799,0,0,0,0,0,0,0,0,0,0
285,RICHMOND DTN VA,SOCIAL SECURITY,,1834 WEST CARY STREET,RICHMOND,VA,23220,(866) 679-6684,0,0,0,0,0,0,0,0,0,0
286,ROANOKE VA,SOCIAL SECURITY,SUITE 100,612 S JEFFERSON STREET,ROANOKE,VA,24011,(866) 701-8179,0,0,0,0,0,0,0,0,0,0
287,NORFOLK VA,SOCIAL SECURITY,FIRST FLOOR,5850 LAKE HERBERT DR,NORFOLK,VA,23502,(866) 858-6089,0,0,0,0,0,0,0,0,0,0
288,BRISTOL VA,SOCIAL SECURITY,,2484 LEE HIGHWAY,BRISTOL,VA,24202,(866) 504-5013,0,0,0,0,0,0,0,0,0,0
289,LYNCHBURG VA,SOCIAL SECURITY,,7618 TIMBERLAKE RD,LYNCHBURG,VA,24502,(866) 964-6142,0,0,0,0,0,0,0,0,0,0
290,STAUNTON VA,SOCIAL SECURITY,GRNBRIER OFF PK BLDG 2,1600 N COALTER ST,STAUNTON,VA,24401,(888) 632-6896,0,0,0,0,0,0,0,0,0,0
291,PETERSBURG VA,SOCIAL SECURITY,,100 POPLAR DRIVE,PETERSBURG,VA,23805,(877) 803-6322,0,0,0,0,0,0,0,0,0,0
292,DANVILLE VA,SOCIAL SECURITY,,3295 US HWY 29,DANVILLE,VA,24540,(866) 331-5398,0,0,0,0,0,0,0,0,0,0
293,NEWPORT NEWS VA,SOCIAL SECURITY,,11706 JEFFERSON AVENUE,NEWPORT NEWS,VA,23606,(866) 331-9169,0,0,0,0,0,0,0,0,0,0
294,ALEXANDRIA VA,SOCIAL SECURITY,PLAZA 500 SUITE 190,6295 EDSALL ROAD,ALEXANDRIA,VA,22312,(888) 472-2402,0,0,0,0,0,0,0,0,0,0
295,WINCHESTER VA,SOCIAL SECURITY,,323 HOPE DRIVE,WINCHESTER,VA,22601,(866) 331-2320,0,0,0,0,0,0,0,0,0,0
296,COVINGTON VA,SOCIAL SECURITY,,1010 S CRAIG AVENUE,COVINGTON,VA,24426,(888) 527-9334,0,0,0,0,0,0,0,0,0,0
297,CHARLOTTESVILLE,SOCIAL SECURITY,DISTRICT OFFICE,1470 PANTOPS MTN PL,CHARLOTTESVILLE,VA,22911,(866) 613-3959,0,0,0,0,0,0,0,0,0,0
298,WYTHEVILLE VA,SOCIAL SECURITY,,130 WITHERS LANE,WYTHEVILLE,VA,24382,(888) 632-6893,0,0,0,0,0,0,0,0,0,0
299,WISE VA,SOCIAL SECURITY,,253 RIDGEVIEW ROAD SW,WISE,VA,24293,(877) 405-7843,0,0,0,0,0,0,0,0,0,0
300,RICHMOND EAST VA,SOCIAL SECURITY,,245 E. WILLIAMSBURG RD,SANDSTON,VA,23150,(866) 218-2307,0,0,0,0,0,0,0,0,0,0
301,FARMVILLE VA,SOCIAL SECURITY,,324 COMMERCE ROAD,FARMVILLE,VA,23901,(866) 269-4346,0,0,0,0,0,0,0,0,0,0
302,PORTSMOUTH VA,SOCIAL SECURITY,,3305 AIRLINE BLVD,PORTSMOUTH,VA,23701,(866) 593-8851,0,0,0,0,0,0,0,0,0,0
303,SUFFOLK VA,SOCIAL SECURITY,,502 HILLPOINT BLVD,SUFFOLK,VA,23434,(866) 835-7769,0,0,0,0,0,0,0,0,0,0
304,SOUTH BOSTON VA,SOCIAL SECURITY,,2049 HAMILTON BLVD,SOUTH BOSTON,VA,24592,(888) 327-1407,0,0,0,0,0,0,0,0,0,0
305,CHARLESTON WV,SOCIAL SECURITY,SUITE 300,500 QUARRIER STREET,CHARLESTON,WV,25301,(888) 527-9305,0,0,0,0,0,0,0,0,0,0
306,WHEELING WV,SOCIAL SECURITY,,123 16TH STREET,WHEELING,WV,26003,(877) 480-5001,0,0,0,0,0,0,0,0,0,0
307,PARKERSBURG WV,SOCIAL SECURITY,SUITE 4301,425 JULIANA STREET,PARKERSBURG,WV,26101,(866) 574-2533,0,0,0,0,0,0,0,0,0,0
308,HUNTINGTON WV,SOCIAL SECURITY,301 9TH STREET,3RD FLOOR,HUNTINGTON,WV,25701,(866) 931-7078,0,0,0,0,0,0,0,0,0,0
309,CLARKSBURG WV,SOCIAL SECURITY,CLARKSBURG FEDERAL CTR,320 W PIKE ST,CLARKSBURG,WV,26301,(866) 783-7305,0,0,0,0,0,0,0,0,0,0
310,ELKINS WV,SOCIAL SECURITY,SUITE 325,300 THIRD STREET,ELKINS,WV,26241,(877) 828-1693,0,0,0,0,0,0,0,0,0,0
311,BLUEFIELD WV,SOCIAL SECURITY,,3014 E CUMBERLAND ROAD,BLUEFIELD,WV,24701,(888) 475-0295,0,0,0,0,0,0,0,0,0,0
312,MORGANTOWN WV,SOCIAL SECURITY,SUITE 100,3596 COLLINS FERRY RD,MORGANTOWN,WV,26505,(866) 770-2055,0,0,0,0,0,0,0,0,0,0
313,BECKLEY WV,SOCIAL SECURITY,SUITE A-8,5475 ROBERT C. BYRD DR,MOUNT HOPE,WV,25880,(866) 964-2042,0,0,0,0,0,0,0,0,0,0
314,LOGAN WV,SOCIAL SECURITY,,1103 GEORGE KOSTAS DR,LOGAN,WV,25601,(877) 405-1455,0,0,0,0,0,0,0,0,0,0
315,WELCH WV,SOCIAL SECURITY,,50 MCDOWELL STREET,WELCH,WV,24801,(866) 273-0399,0,0,0,0,0,0,0,0,0,0
316,MARTINSBURG WV,SOCIAL SECURITY,,14 COMPASS PT,MARTINSBURG,WV,25404,(866) 416-1919,0,0,0,0,0,0,0,0,0,0
317,FAIRMONT WV,SOCIAL SECURITY,MIDDLETOWN MALL,9039 MIDDLETOWN MALL,FAIRMONT,WV,26554,(877) 405-7674,0,0,0,0,0,0,0,0,0,0
318,FAIRFAX VA,SOCIAL SECURITY,SUITE 105,11212 WAPLES MILL RD,FAIRFAX,VA,22030,(866) 829-3158,0,0,0,0,0,0,0,0,0,0
320,CHARLOTTE NC,SOCIAL SECURITY,SUITE 100,2201 CORONATION BLVD.,CHARLOTTE,NC,28227,(888) 383-1598,0,0,0,0,0,0,0,0,0,0
321,SALISBURY NC,SOCIAL SECURITY,,1840 JAKE ALEXNDR BL W,SALISBURY,NC,28147,(877) 405-3157,0,0,0,0,0,0,0,0,0,0
322,RALEIGH NC,SOCIAL SECURITY,,4701 OLD WAKE FOREST RD,RALEIGH,NC,27609,(877) 803-6311,0,0,0,0,0,0,0,0,0,0
323,ASHEVILLE NC,SOCIAL SECURITY,,800 CENTRE PARK DRIVE,ASHEVILLE,NC,28805,(866) 572-8361,0,0,0,0,0,0,0,0,0,0
324,WINSTON SALEM NC,SOCIAL SECURITY,,1370 LOCKLAND AVE,WINSTON SALEM,NC,27103,(877) 402-0828,0,0,0,0,0,0,0,0,0,0
325,GREENSBORO NC,SOCIAL SECURITY,,6005 LANDMARK CTR BLVD,GREENSBORO,NC,27407,(877) 319-3075,0,0,0,0,0,0,0,0,0,0
326,ROCKY MOUNT NC,SOCIAL SECURITY,,1071 HUNTER HILL RD,ROCKY MOUNT,NC,27804,(866) 964-0784,0,0,0,0,0,0,0,0,0,0
327,WILMINGTON NC,SOCIAL SECURITY,,1528 S 16TH ST,WILMINGTON,NC,28401,(866) 964-6227,0,0,0,0,0,0,0,0,0,0
328,DURHAM NC,SOCIAL SECURITY,SUITE 200,3511 SHANNON RD,DURHAM,NC,27707,(888) 759-3908,0,0,0,0,0,0,0,0,0,0
329,GOLDSBORO NC,SOCIAL SECURITY,,915 W NEW HOPE ROAD,GOLDSBORO,NC,27534,(866) 964-7372,0,0,0,0,0,0,0,0,0,0
330,FAYETTEVILLE NC,SOCIAL SECURITY,,145 ROWAN ST,FAYETTEVILLE,NC,28301,(866) 964-6485,0,0,0,0,0,0,0,0,0,0
331,HICKORY NC,SOCIAL SECURITY,,1501 US HIGHWAY 321 NW,HICKORY,NC,28601,(888) 877-1615,0,0,0,0,0,0,0,0,0,0
332,GASTONIA NC,SOCIAL SECURITY,,609 COTTON BLOSSOM CIR,GASTONIA,NC,28054,(866) 331-2193,0,0,0,0,0,0,0,0,0,0
334,NEW BERN NC,SOCIAL SECURITY,,1420 MCCARTHY BLVD,NEW BERN,NC,28562,(888) 491-1885,0,0,0,0,0,0,0,0,0,0
335,GREENVILLE NC,SOCIAL SECURITY,,2805 CHARLES BLVD,GREENVILLE,NC,27858,(866) 494-4001,0,0,0,0,0,0,0,0,0,0
336,ELIZABETH CITY NC,SOCIAL SECURITY,,1865 W CITY DR,ELIZABETH CITY,NC,27909,(866) 572-2819,0,0,0,0,0,0,0,0,0,0
338,LUMBERTON NC,SOCIAL SECURITY,,4430 KAHN DR,LUMBERTON,NC,28358,(866) 931-7099,0,0,0,0,0,0,0,0,0,0
339,WILKESBORO NC,SOCIAL SECURITY,,1517 RIVER ST,WILKESBORO,NC,28697,(866) 331-2298,0,0,0,0,0,0,0,0,0,0
340,ROANOKE RAPIDS NC,SOCIAL SECURITY,,833 GREGORY DRIVE,ROANOKE RAPIDS,NC,27870,(866) 269-2010,0,0,0,0,0,0,0,0,0,0
341,STATESVILLE NC,SOCIAL SECURITY,,2038 DAVIE AVE,STATESVILLE,NC,28625,(855) 722-3497,0,0,0,0,0,0,0,0,0,0
342,ROCKINGHAM NC,SOCIAL SECURITY,,220 E GREENE ST,ROCKINGHAM,NC,28379,(877) 405-7673,0,0,0,0,0,0,0,0,0,0
343,KINSTON NC,SOCIAL SECURITY,,2559 N QUEEN STREET,KINSTON,NC,28501,(866) 593-5671,0,0,0,0,0,0,0,0,0,0
344,CONCORD NC,SOCIAL SECURITY,,830 FLORENCE ST NW,CONCORD,NC,28027,(888) 366-6149,0,0,0,0,0,0,0,0,0,0
345,DETROIT-D/T MI,SOCIAL SECURITY,MCNAMARA BLDG/RM 450,477 MICHIGAN AVE,DETROIT,MI,48226,(888) 748-7691,0,0,0,0,0,0,0,0,0,0
346,MARQUETTE MI,SOCIAL SECURITY,"1ST FLOOR, STE 1",300 S FRONT ST,MARQUETTE,MI,49855,(855) 782-9154,0,0,0,0,0,0,0,0,0,0
347,GRAND RAPIDS MI,SOCIAL SECURITY,,3045 KNAPP ST NE,GRAND RAPIDS,MI,49525,(877) 319-5710,0,0,0,0,0,0,0,0,0,0
348,SAGINAW MI,SOCIAL SECURITY,,611 E. GENESEE AVE.,SAGINAW,MI,48607,(877) 405-5868,0,0,0,0,0,0,0,0,0,0
349,FLINT-DOWNTOWN,SOCIAL SECURITY,,1149 ROBERT T LONGWAY,FLINT,MI,48503,(888) 318-7282,0,0,0,0,0,0,0,0,0,0
350,PONTIAC MI,SOCIAL SECURITY,,1280 PONTIAC RD,PONTIAC,MI,48340,(866) 299-3777,0,0,0,0,0,0,0,0,0,0
351,JACKSON MI,SOCIAL SECURITY,STE 200,234 W LOUIS GLICK HWY,JACKSON,MI,49201,(877) 405-0473,0,0,0,0,0,0,0,0,0,0
352,TRAVERSE CITY MI,SOCIAL SECURITY,,1329 S DIVISION ST,TRAVERSE CITY,MI,49684,(866) 739-4802,0,0,0,0,0,0,0,0,0,0
353,KALAMAZOO MI,SOCIAL SECURITY,,317 SOUTH DRAKE ROAD,KALAMAZOO,MI,49009,(866) 331-9088,0,0,0,0,0,0,0,0,0,0
354,LANSING MI,SOCIAL SECURITY,,5210 PERRY ROBINSON,LANSING,MI,48911,(877) 512-5944,0,0,0,0,0,0,0,0,0,0
355,ESCANABA MI,SOCIAL SECURITY,,1013 1ST AVE NORTH,ESCANABA,MI,49829,(877) 545-5503,0,0,0,0,0,0,0,0,0,0
356,BAY CITY MI,SOCIAL SECURITY,,1115 WASHINGTON AVE,BAY CITY,MI,48708,(866) 366-4924,0,0,0,0,0,0,0,0,0,0
357,DETROIT-EAST MI,SOCIAL SECURITY,SUITE 200,19251 MACK AVE,DETROIT,MI,48236,(877) 845-0540,0,0,0,0,0,0,0,0,0,0
358,DETROIT-HIGH PK,SOCIAL SECURITY,,60 EAST GRAND AVENUE,HIGHLAND PARK,MI,48203,(877) 512-5945,0,0,0,0,0,0,0,0,0,0
359,BATTLE CREEK MI,SOCIAL SECURITY,STE D1,5700 BECKLEY RD,BATTLE CREEK,MI,49015,(877) 445-0829,0,0,0,0,0,0,0,0,0,0
360,MUSKEGON MI,SOCIAL SECURITY,,340 MORRIS AVENUE,MUSKEGON,MI,49440,(866) 763-2632,0,0,0,0,0,0,0,0,0,0
361,DEARBORN,SOCIAL SECURITY,SUITE 200,19853 OUTER DRIVE,DEARBORN,MI,48124,(877) 714-0392,0,0,0,0,0,0,0,0,0,0
362,FORT GRATIOT,SOCIAL SECURITY,,2620 KRAFFT RD,FORT GRATIOT,MI,48059,(877) 895-0042,0,0,0,0,0,0,0,0,0,0
363,DETROIT-NW MI,SOCIAL SECURITY,,26840 W SEVEN MILE RD,REDFORD,MI,48240,(888) 329-5729,0,0,0,0,0,0,0,0,0,0
364,ROSEVILLE MI,SOCIAL SECURITY,,15250 E 12 MILE RD,ROSEVILLE,MI,48066,(877) 833-2541,0,0,0,0,0,0,0,0,0,0
365,BENT HAR-ST JOE,SOCIAL SECURITY,,455 BOND ST,BENTON HARBOR,MI,49022,(877) 405-5457,0,0,0,0,0,0,0,0,0,0
366,ANN ARBOR MI,SOCIAL SECURITY,SUITE A,3971 RESEARCH PARK DR,ANN ARBOR,MI,48108,(877) 402-0825,0,0,0,0,0,0,0,0,0,0
367,MOUNT PLEASANT,SOCIAL SECURITY,,1940 SWEENEY ST,MT PLEASANT,MI,48858,(877) 405-7667,0,0,0,0,0,0,0,0,0,0
368,PETOSKEY MI,SOCIAL SECURITY,SUITE 8,308 STATE ST,PETOSKEY,MI,49770,(866) 574-2588,0,0,0,0,0,0,0,0,0,0
369,MONROE MI,SOCIAL SECURITY,,1300 S TELEGRAPH RD,MONROE,MI,48161,(877) 274-5416,0,0,0,0,0,0,0,0,0,0
370,ALPENA MI,SOCIAL SECURITY,,111 N 4TH AVE,ALPENA,MI,49707,(877) 452-4195,0,0,0,0,0,0,0,0,0,0
372,GRAND RIVER MI,SOCIAL SECURITY,,9222 GRAND RIVER AVE,DETROIT,MI,48204,(866) 405-0043,0,0,0,0,0,0,0,0,0,0
373,DETROIT 7 MILE WYOMING,SOCIAL SECURITY,,10201 W SEVEN MILE RD,DETROIT,MI,48221,(866) 365-6741,0,0,0,0,0,0,0,0,0,0
374,DET CONNER,SOCIAL SECURITY,,3400 CONNER ST,DETROIT,MI,48215,(877) 405-7824,0,0,0,0,0,0,0,0,0,0
375,CLAWSON MI,SOCIAL SECURITY,,140 NORTH CROOKS,CLAWSON,MI,48017,(888) 456-9559,0,0,0,0,0,0,0,0,0,0
376,TOLEDO-WEST OH,SOCIAL SECURITY,SUITE A,4906 MONROE ST,TOLEDO,OH,43623,(877) 274-5429,0,0,0,0,0,0,0,0,0,0
378,PAINESVILLE OH,SOCIAL SECURITY,,55 W JACKSON ST,PAINESVILLE,OH,44077,(877) 692-3143,0,0,0,0,0,0,0,0,0,0
380,SAN PATRICIO PR,SOCIAL SECURITY,EBANO OFFICE CENTER,"F5 EBANO ST, 2ND FL",GUAYNABO,PR,00968,(866) 783-0627,0,0,0,0,0,0,0,0,0,0
383,RICHMOND CA,SOCIAL SECURITY,,3164 GARRITY WAY,RICHMOND,CA,94806,(877) 877-3116,0,0,0,0,0,0,0,0,0,0
384,EL MONTE CA,SOCIAL SECURITY,,9351 TELSTAR AVE.,EL MONTE,CA,91731,(866) 931-0340,0,0,0,0,0,0,0,0,0,0
385,SAN JOSE EAST CA,SOCIAL SECURITY,,2500 FONTAINE RD,SAN JOSE,CA,95121,(866) 931-4496,0,0,0,0,0,0,0,0,0,0
386,WEST FRESNO CA,SOCIAL SECURITY,,865 FULTON STREET,FRESNO,CA,93721,(877) 311-2640,0,0,0,0,0,0,0,0,0,0
387,CINCINNATI-D/T,SOCIAL SECURITY,ROOM 2-960,550 MAIN ST,CINCINNATI,OH,45202,(866) 593-1519,0,0,0,0,0,0,0,0,0,0
388,CLEVELAND DT OH,SOCIAL SECURITY,RM 793 AJC FED BLDG,1240 E 9TH ST,CLEVELAND,OH,44199,(877) 378-9078,0,0,0,0,0,0,0,0,0,0
389,COLUMBUS OH-DT,SOCIAL SECURITY,ROOM 225  FED BLDG,200 NORTH HIGH STREET,COLUMBUS,OH,43215,(866) 964-1723,0,0,0,0,0,0,0,0,0,0
390,AKRON OH,SOCIAL SECURITY,2ND FLOOR,2 S MAIN ST,AKRON,OH,44308,(877) 600-2858,0,0,0,0,0,0,0,0,0,0
391,LORAIN OH,SOCIAL SECURITY,,221 W 5TH ST,LORAIN,OH,44052,(866) 530-7818,0,0,0,0,0,0,0,0,0,0
392,ASHTABULA OH,SOCIAL SECURITY,,4815 STATE RD,ASHTABULA,OH,44004,(877) 223-6059,0,0,0,0,0,0,0,0,0,0
393,MANSFIELD OH,SOCIAL SECURITY,,1287 SOUTH TRIMBLE RD,MANSFIELD,OH,44907,(888) 491-1882,0,0,0,0,0,0,0,0,0,0
394,LIMA OH,SOCIAL SECURITY,"FEDERAL BLDG, STE 101",401 WEST NORTH ST,LIMA,OH,45801,(800) 223-0288,0,0,0,0,0,0,0,0,0,0
395,TOLEDO OH DT,SOCIAL SECURITY,SUITE 1000,433 N SUMMIT ST,TOLEDO,OH,43604,(866) 331-2196,0,0,0,0,0,0,0,0,0,0
396,ZANESVILLE OH,SOCIAL SECURITY,,3823 JAMES COURT,ZANESVILLE,OH,43701,(855) 884-3408,0,0,0,0,0,0,0,0,0,0
397,YOUNGSTOWN OH,SOCIAL SECURITY,,354 E FEDERAL ST,YOUNGSTOWN,OH,44503,(877) 714-0393,0,0,0,0,0,0,0,0,0,0
398,SPRINGFIELD OH,SOCIAL SECURITY,,1610 N LIMESTONE ST,SPRINGFIELD,OH,45503,(877) 405-1451,0,0,0,0,0,0,0,0,0,0
399,HAMILTON OH,SOCIAL SECURITY,,6553 WINFORD AVENUE,HAMILTON,OH,45011,(888) 862-3585,0,0,0,0,0,0,0,0,0,0
400,CANTON OH,SOCIAL SECURITY,SUITE 100,301 MCKINLEY AVE SW,CANTON,OH,44702,(877) 255-1509,0,0,0,0,0,0,0,0,0,0
401,PORTSMOUTH OH,SOCIAL SECURITY,,921 FOURTH STREET,PORTSMOUTH,OH,45662,(866) 613-3961,0,0,0,0,0,0,0,0,0,0
402,DAYTON OH,SOCIAL SECURITY,FEDERAL BLDG,200 W 2ND STREET,DAYTON,OH,45402,(888) 329-5724,0,0,0,0,0,0,0,0,0,0
403,WARREN OH,SOCIAL SECURITY,1ST FLOOR,258 E MARKET STREET,WARREN,OH,44481,(866) 964-7339,0,0,0,0,0,0,0,0,0,0
404,MARION OH,SOCIAL SECURITY,,1363 WELLNESS DR,MARION,OH,43302,(888) 475-0296,0,0,0,0,0,0,0,0,0,0
405,ATHENS OH,SOCIAL SECURITY,,743A EAST STATE STREET,ATHENS,OH,45701,(877) 840-7683,0,0,0,0,0,0,0,0,0,0
406,CLEVELAND EAST OH,SOCIAL SECURITY,,3591 PARK EAST DR,BEACHWOOD,OH,44122,(877) 402-0823,0,0,0,0,0,0,0,0,0,0
407,CLEVELAND WEST OH,SOCIAL SECURITY,,17513 DETROIT AVE,LAKEWOOD,OH,44107,(866) 964-4389,0,0,0,0,0,0,0,0,0,0
408,STEUBENVILLE OH,SOCIAL SECURITY,UNIT E5,100 MALL DRIVE,STEUBENVILLE,OH,43952,(866) 253-6889,0,0,0,0,0,0,0,0,0,0
409,SANDUSKY OH,SOCIAL SECURITY,,252 WAYNE STREET,SANDUSKY,OH,44870,(866) 588-7397,0,0,0,0,0,0,0,0,0,0
410,CHILLICOTHE OH,SOCIAL SECURITY,,44 STONERIDGE DRIVE,CHILLICOTHE,OH,45601,(877) 452-6971,0,0,0,0,0,0,0,0,0,0
411,CINCINNATI NORTH,SOCIAL SECURITY,,10205 READING RD,CINCINNATI,OH,45241,(877) 833-2704,0,0,0,0,0,0,0,0,0,0
412,DEFIANCE OH,SOCIAL SECURITY,,273 STADIUM DR,DEFIANCE,OH,43512,(877) 600-2860,0,0,0,0,0,0,0,0,0,0
413,FINDLAY OH,SOCIAL SECURITY,,1720 E MELROSE AVE,FINDLAY,OH,45840,(877) 628-6548,0,0,0,0,0,0,0,0,0,0
414,MARIETTA OH,SOCIAL SECURITY,,1301 GREENE STREET,MARIETTA,OH,45750,(855) 433-5872,0,0,0,0,0,0,0,0,0,0
415,NEWARK OH,SOCIAL SECURITY,,125 DERBY DOWNS RD,NEWARK,OH,43055,(866) 737-3514,0,0,0,0,0,0,0,0,0,0
416,NEW PHILADELPHIA OH,SOCIAL SECURITY,SUITE 1C,1260 MONROE ST NW,NEW PHILADELPHIA,OH,44663,(866) 731-4236,0,0,0,0,0,0,0,0,0,0
417,EAST LIVERPOOL OH,SOCIAL SECURITY,,120 EAST FOURTH STREET,EAST LIVERPOOL,OH,43920,(855) 269-9178,0,0,0,0,0,0,0,0,0,0
418,PIQUA OH,SOCIAL SECURITY,,277 S LOONEY RD,PIQUA,OH,45356,(866) 931-2520,0,0,0,0,0,0,0,0,0,0
419,LANCASTER OH,SOCIAL SECURITY,,252 VENTURE PLACE,LANCASTER,OH,43130,(877) 841-5712,0,0,0,0,0,0,0,0,0,0
420,WOOSTER OH,SOCIAL SECURITY,,2345 GATEWAY DR STE B,WOOSTER,OH,44691,(877) 319-0729,0,0,0,0,0,0,0,0,0,0
421,IRONTON OH,SOCIAL SECURITY,,611 VERNON STREET,IRONTON,OH,45638,(866) 789-1073,0,0,0,0,0,0,0,0,0,0
422,AKRON-WEST OH,SOCIAL SECURITY,,2166 ROMIG RD,AKRON,OH,44320,(866) 837-5359,0,0,0,0,0,0,0,0,0,0
423,CLEVELAND NE OH,SOCIAL SECURITY,,15250 S. WATERLOO RD,CLEVELAND,OH,44110,(866) 592-1802,0,0,0,0,0,0,0,0,0,0
424,CLEVELAND SE OH,SOCIAL SECURITY,,18711 MILES AVE,WARRENSVILLE HTS,OH,44128,(877) 405-0474,0,0,0,0,0,0,0,0,0,0
426,DAYTON-WEST OH,SOCIAL SECURITY,,4375 HOOVER AVE,DAYTON,OH,45417,(877) 895-0038,0,0,0,0,0,0,0,0,0,0
427,CLEVE BUCKEYE SHAKER,SOCIAL SECURITY,,11601 SHAKER BLVD,CLEVELAND,OH,44120,(877) 635-3546,0,0,0,0,0,0,0,0,0,0
428,MAYSVILLE KY,SOCIAL SECURITY,,509 MARKETPLACE DR,MAYSVILLE,KY,41056,(855) 807-8802,0,0,0,0,0,0,0,0,0,0
431,CLEVELAND NW OH,SOCIAL SECURITY,,7517 LORAIN AVE,CLEVELAND,OH,44102,(877) 876-3172,0,0,0,0,0,0,0,0,0,0
432,CLEVELAND SW OH,SOCIAL SECURITY,SUITE 101,7344 PEARL RD,MIDDLEBURG HTS,OH,44130,(866) 931-9176,0,0,0,0,0,0,0,0,0,0
434,COMPTON CA,SOCIAL SECURITY,,171 E COMPTON BLVD,COMPTON,CA,90220,(888) 472-6122,0,0,0,0,0,0,0,0,0,0
435,NATIONAL CITY CA,SOCIAL SECURITY,GROUND FLOOR,"700 E 24TH ST, STE A",NATIONAL CITY,CA,91950,(866) 331-2203,0,0,0,0,0,0,0,0,0,0
436,CHULA VISTA CA,SOCIAL SECURITY,SUITE 1,626 L STREET,CHULA VISTA,CA,91911,(888) 487-9907,0,0,0,0,0,0,0,0,0,0
437,LOUISVILLE KY,SOCIAL SECURITY,ROOM 101,601 W BROADWAY,LOUISVILLE,KY,40202,(866) 716-9671,0,0,0,0,0,0,0,0,0,0
438,ASHLAND KY,SOCIAL SECURITY,ROOM 132,1405 GREENUP AVENUE,ASHLAND,KY,41101,(866) 269-3993,0,0,0,0,0,0,0,0,0,0
439,LEXINGTON KY,SOCIAL SECURITY,SUITE 110,2241 BUENA VISTA RD.,LEXINGTON,KY,40505,(866) 530-7754,0,0,0,0,0,0,0,0,0,0
440,PADUCAH KY,SOCIAL SECURITY,,125 BRETT CHASE,PADUCAH,KY,42003,(866) 614-7905,0,0,0,0,0,0,0,0,0,0
441,FRANKFORT KY,SOCIAL SECURITY,,140 FLYNN AVE,FRANKFORT,KY,40601,(866) 964-1724,0,0,0,0,0,0,0,0,0,0
442,FLORENCE KY,SOCIAL SECURITY,,7 YOUELL STREET,FLORENCE,KY,41042,(866) 504-4224,0,0,0,0,0,0,0,0,0,0
443,BOWLING GREEN KY,SOCIAL SECURITY,,2724 CHANDLER DRIVE,BOWLING GREEN,KY,42104,(877) 801-0817,0,0,0,0,0,0,0,0,0,0
444,OWENSBORO KY,SOCIAL SECURITY,,4532 LUCKY STRIKE LOOP,OWENSBORO,KY,42303,(866) 836-5834,0,0,0,0,0,0,0,0,0,0
445,CORBIN KY,SOCIAL SECURITY,,159 FUTURE DR,CORBIN,KY,40701,(877) 405-0470,0,0,0,0,0,0,0,0,0,0
446,HAZARD KY,SOCIAL SECURITY,,122 REYNOLDS LANE,HAZARD,KY,41701,(877) 405-0491,0,0,0,0,0,0,0,0,0,0
447,HOPKINSVILLE KY,SOCIAL SECURITY,,1650 MARIE DRIVE,HOPKINSVILLE,KY,42240,(877) 405-7656,0,0,0,0,0,0,0,0,0,0
448,PIKEVILLE KY,SOCIAL SECURITY,,333 HAMBLEY BLVD,PIKEVILLE,KY,41501,(888) 676-2942,0,0,0,0,0,0,0,0,0,0
449,ELIZABETHTOWN KY,SOCIAL SECURITY,,591 WESTPORT ROAD,ELIZABETHTOWN,KY,42701,(866) 596-7123,0,0,0,0,0,0,0,0,0,0
450,CAMPBELLSVILLE KY,SOCIAL SECURITY,,101 HIESTAND FARM RD,CAMPBELLSVILLE,KY,42718,(877) 828-1695,0,0,0,0,0,0,0,0,0,0
451,MIDDLESBORO KY,SOCIAL SECURITY,,10 TECH PARK DRIVE,MIDDLESBORO,KY,40965,(877) 619-2853,0,0,0,0,0,0,0,0,0,0
452,DANVILLE KY,SOCIAL SECURITY,,103 BELINDA BLVD,DANVILLE,KY,40422,(877) 512-3850,0,0,0,0,0,0,0,0,0,0
453,MADISONVILLE KY,SOCIAL SECURITY,,4431 HANSON RD,MADISONVILLE,KY,42431,(877) 626-9912,0,0,0,0,0,0,0,0,0,0
454,SOMERSET KY,SOCIAL SECURITY,,3975 S HIGHWAY 27,SOMERSET,KY,42501,(877) 714-0375,0,0,0,0,0,0,0,0,0,0
455,INDIANAPOLIS IN,SOCIAL SECURITY,RM 685,575 N PENNSYLVANIA ST,INDIANAPOLIS,IN,46204,(866) 592-2812,0,0,0,0,0,0,0,0,0,0
456,SOUTH BEND IN,SOCIAL SECURITY,602 SOUTH MICHIGAN,STREET,SOUTH BEND,IN,46601,(877) 274-5415,0,0,0,0,0,0,0,0,0,0
457,EVANSVILLE IN,SOCIAL SECURITY,,2300 N GREEN RIVER RD,EVANSVILLE,IN,47715,(877) 768-5679,0,0,0,0,0,0,0,0,0,0
458,TERRE HAUTE IN,SOCIAL SECURITY,,222 CHERRY ST,TERRE HAUTE,IN,47807,(866) 635-0282,0,0,0,0,0,0,0,0,0,0
459,FORT WAYNE IN,SOCIAL SECURITY,,2122 LINCOLNWAY CT,FORT WAYNE,IN,46819,(877) 223-6061,0,0,0,0,0,0,0,0,0,0
460,RICHMOND IN,SOCIAL SECURITY,,500 NORTH A STREET,RICHMOND,IN,47374,(866) 446-6190,0,0,0,0,0,0,0,0,0,0
461,LAFAYETTE IN,SOCIAL SECURITY,,10 S. 2ND ST,LAFAYETTE,IN,47901,(888) 884-0522,0,0,0,0,0,0,0,0,0,0
462,KOKOMO IN,SOCIAL SECURITY,,353 W. ALTO RD,KOKOMO,IN,46902,(866) 365-3036,0,0,0,0,0,0,0,0,0,0
463,MUNCIE IN,SOCIAL SECURITY,,600 NORTH WALNUT ST,MUNCIE,IN,47305,(866) 964-7586,0,0,0,0,0,0,0,0,0,0
464,GARY IN,SOCIAL SECURITY,,808 SOUTH LAKE STREET,GARY,IN,46403,(866) 593-2911,0,0,0,0,0,0,0,0,0,0
465,NEW ALBANY IN,SOCIAL SECURITY,,3700 BLACKISTON BLVD,NEW ALBANY,IN,47150,(866) 331-9073,0,0,0,0,0,0,0,0,0,0
466,BLOOMINGTON IN,SOCIAL SECURITY,,515 W PATTERSON DRIVE,BLOOMINGTON,IN,47403,(877) 819-2594,0,0,0,0,0,0,0,0,0,0
467,ELKHART IN,SOCIAL SECURITY,,231 WATERFALL DRIVE,ELKHART,IN,46516,(866) 426-0532,0,0,0,0,0,0,0,0,0,0
468,ANDERSON IN,SOCIAL SECURITY,,117 S SCATTERFIELD RD,ANDERSON,IN,46012,(866) 875-0394,0,0,0,0,0,0,0,0,0,0
469,HAMMOND IN,SOCIAL SECURITY,,418 E DOUGLAS STREET,HAMMOND,IN,46320,(877) 512-3859,0,0,0,0,0,0,0,0,0,0
470,MICHIGAN CITY IN,SOCIAL SECURITY,,636 PINE STREET,MICHIGAN CITY,IN,46360,(866) 248-2393,0,0,0,0,0,0,0,0,0,0
471,MARION IN,SOCIAL SECURITY,,844 N MILLER AVENUE,MARION,IN,46952,(888) 397-9795,0,0,0,0,0,0,0,0,0,0
472,VINCENNES IN,SOCIAL SECURITY,,606 VETERANS DR,VINCENNES,IN,47591,(888) 456-9531,0,0,0,0,0,0,0,0,0,0
473,COLUMBUS IN,SOCIAL SECURITY,,2535 ARNOLD STREET,COLUMBUS,IN,47203,(866) 755-0990,0,0,0,0,0,0,0,0,0,0
474,MADISON IN,SOCIAL SECURITY,,150 DEMAREE DRIVE,MADISON,IN,47250,(877) 692-3144,0,0,0,0,0,0,0,0,0,0
475,VALPARAISO IN,SOCIAL SECURITY,,3810 CALUMET AVE,VALPARAISO,IN,46383,(888) 472-6120,0,0,0,0,0,0,0,0,0,0
476,ONTARIO CA,SOCIAL SECURITY,,1100 E HOLT BLVD,ONTARIO,CA,91761,(866) 331-2216,0,0,0,0,0,0,0,0,0,0
478,PORTAGE WI,SOCIAL SECURITY,SUITE 100,2875 VILLAGE RD,PORTAGE,WI,53901,(888) 875-1681,0,0,0,0,0,0,0,0,0,0
480,SONORA CA,SOCIAL SECURITY,,745 MORNING STAR DRIVE,SONORA,CA,95370,(888) 397-4125,0,0,0,0,0,0,0,0,0,0
481,ALBEMARLE NC,SOCIAL SECURITY,BROOKWOOD EXECUTIVE PK,202 CHARTER ST,ALBEMARLE,NC,28001,(866) 319-8268,0,0,0,0,0,0,0,0,0,0
482,FRANKLIN NC,SOCIAL SECURITY,,2123 LAKESIDE DR,FRANKLIN,NC,28734,(866) 562-0738,0,0,0,0,0,0,0,0,0,0
483,HENDERSONVILLE NC,SOCIAL SECURITY,,205 S GROVE STREET,HENDERSONVILLE,NC,28792,(866) 964-5053,0,0,0,0,0,0,0,0,0,0
484,SMITHFIELD NC,SOCIAL SECURITY,,633 VENTURE DR,SMITHFIELD,NC,27577,(888) 527-9331,0,0,0,0,0,0,0,0,0,0
485,CHICAGO LOOP IL,SOCIAL SECURITY,,605 W WASHINGTON BLVD,CHICAGO,IL,60661,(866) 563-3899,0,0,0,0,0,0,0,0,0,0
486,EAST ST LOUIS IL,SOCIAL SECURITY,ROOM 104 FEDERAL BLDG,650 MISSOURI AVE,EAST ST LOUIS,IL,62201,(877) 700-4849,0,0,0,0,0,0,0,0,0,0
487,PEORIA IL,SOCIAL SECURITY,,815 W PIONEER PARKWAY,PEORIA,IL,61615,(877) 319-6039,0,0,0,0,0,0,0,0,0,0
488,SPRINGFIELD IL,SOCIAL SECURITY,,3112 CONSTITUTION DR,SPRINGFIELD,IL,62704,(877) 279-9504,0,0,0,0,0,0,0,0,0,0
489,ROCK ISLAND IL,SOCIAL SECURITY,,2350 4TH AVE,ROCK ISLAND,IL,61201,(866) 414-9166,0,0,0,0,0,0,0,0,0,0
490,QUINCY IL,SOCIAL SECURITY,,2401 LIND STREET,QUINCY,IL,62301,(888) 279-5999,0,0,0,0,0,0,0,0,0,0
491,WAUKEGAN IL,SOCIAL SECURITY,,1930 N  LEWIS AVE,WAUKEGAN,IL,60087,(888) 320-0960,0,0,0,0,0,0,0,0,0,0
492,MT VERNON IL,SOCIAL SECURITY,FEDERAL BUILDING,105 S 6TH STREET,MOUNT VERNON,IL,62864,(866) 931-2549,0,0,0,0,0,0,0,0,0,0
493,DANVILLE IL,SOCIAL SECURITY,,400 N. VERMILION ST.,DANVILLE,IL,61832,(866) 331-5394,0,0,0,0,0,0,0,0,0,0
494,JOLIET IL,SOCIAL SECURITY,,552 HOUBOLT RD,JOLIET,IL,60431,(866) 783-7302,0,0,0,0,0,0,0,0,0,0
495,HARRISBURG IL,SOCIAL SECURITY,,18 VETERANS DRIVE,HARRISBURG,IL,62946,(866) 366-3980,0,0,0,0,0,0,0,0,0,0
496,ROCKFORD IL,SOCIAL SECURITY,,502 E JEFFERSON ST,ROCKFORD,IL,61107,(877) 628-6570,0,0,0,0,0,0,0,0,0,0
497,CHICAGO-EAST IL,SOCIAL SECURITY,,6338 S COTTAGE GROVE,CHICAGO,IL,60637,(877) 402-0824,0,0,0,0,0,0,0,0,0,0
498,CHICAGO-WEST IL,SOCIAL SECURITY,,5130 WEST NORTH AVENUE,CHICAGO,IL,60639,(866) 614-4761,0,0,0,0,0,0,0,0,0,0
499,CHICAGO NORTH IL,SOCIAL SECURITY,,2127 W LAWRENCE AVE,CHICAGO,IL,60625,(877) 409-8426,0,0,0,0,0,0,0,0,0,0
500,CHICAGO SOUTH,SOCIAL SECURITY,,8658 S SACRAMENTO AVE,CHICAGO,IL,60652,(877) 409-8427,0,0,0,0,0,0,0,0,0,0
501,CHAMPAIGN IL,SOCIAL SECURITY,,101 S COUNTRY FAIR DR,CHAMPAIGN,IL,61821,(877) 819-2593,0,0,0,0,0,0,0,0,0,0
502,NORTH RIVERSIDE IL,SOCIAL SECURITY,ROOM 600,7222 W CERMAK RD,NORTH RIVERSIDE,IL,60546,(888) 518-0226,0,0,0,0,0,0,0,0,0,0
503,HILLSIDE IL,SOCIAL SECURITY,,230 NORTH MANNHEIM RD,HILLSIDE,IL,60162,(866) 964-6290,0,0,0,0,0,0,0,0,0,0
504,EVANSTON IL,SOCIAL SECURITY,,2116 GREEN BAY RD,EVANSTON,IL,60201,(888) 371-0791,0,0,0,0,0,0,0,0,0,0
505,GALESBURG IL,SOCIAL SECURITY,,2060 WINDISH DRIVE,GALESBURG,IL,61401,(877) 405-7659,0,0,0,0,0,0,0,0,0,0
506,DECATUR IL,SOCIAL SECURITY,,606 W PERSHING RD,DECATUR,IL,62526,(888) 619-4773,0,0,0,0,0,0,0,0,0,0
507,BLOOMINGTON IL,SOCIAL SECURITY,,207 N WILLIAMSBURG DR,BLOOMINGTON,IL,61704,(877) 405-4640,0,0,0,0,0,0,0,0,0,0
508,AURORA IL,SOCIAL SECURITY,,1325 N. LAKE STREET,AURORA,IL,60506,(877) 274-5412,0,0,0,0,0,0,0,0,0,0
509,CHICAGO HEIGHTS IL,SOCIAL SECURITY,,104 S HALSTED STREET,CHICAGO HEIGHTS,IL,60411,(877) 274-5413,0,0,0,0,0,0,0,0,0,0
510,CHICAGO-NR NW IL,SOCIAL SECURITY,,3260 W FULLERTON AVE,CHICAGO,IL,60647,(888) 456-9540,0,0,0,0,0,0,0,0,0,0
512,ALTON IL,SOCIAL SECURITY,ROOM 103 FEDERAL BLDG,501 BELLE ST,ALTON,IL,62002,(855) 285-6006,0,0,0,0,0,0,0,0,0,0
513,CHICAGO-NW IL,SOCIAL SECURITY,SUITE 600,4849 N MILWAUKEE AVE,CHICAGO,IL,60630,(888) 748-7667,0,0,0,0,0,0,0,0,0,0
514,CHICAGO-SE IL,SOCIAL SECURITY,,9715 S COTTAGE GROVE,CHICAGO,IL,60628,(888) 397-3107,0,0,0,0,0,0,0,0,0,0
515,ELGIN IL,SOCIAL SECURITY,SUITE 100,790 FLETCHER DR,ELGIN,IL,60123,(877) 405-0435,0,0,0,0,0,0,0,0,0,0
516,KANKAKEE IL,SOCIAL SECURITY,,630 E. OAK ST.,KANKAKEE,IL,60901,(855) 807-8801,0,0,0,0,0,0,0,0,0,0
517,CARBONDALE IL,SOCIAL SECURITY,RM 104,250 W CHERRY ST,CARBONDALE,IL,62901,(877) 714-0377,0,0,0,0,0,0,0,0,0,0
518,STERLING IL,SOCIAL SECURITY,SUITE C,3512 E LINCOLNWAY,STERLING,IL,61081,(866) 789-1093,0,0,0,0,0,0,0,0,0,0
519,PERU IL,SOCIAL SECURITY,,915 WENZEL RD,PERU,IL,61354,(855) 245-0640,0,0,0,0,0,0,0,0,0,0
520,FREEPORT IL,SOCIAL SECURITY,,4 E LINDEN ST,FREEPORT,IL,61032,(855) 628-1591,0,0,0,0,0,0,0,0,0,0
521,EFFINGHAM IL,SOCIAL SECURITY,SUITE 2,1207 NETWORK CENTRE DR,EFFINGHAM,IL,62401,(855) 213-5288,0,0,0,0,0,0,0,0,0,0
522,BLOOMINGDALE IL,SOCIAL SECURITY,,230 WEST LAKE STREET,BLOOMINGDALE,IL,60108,(877) 845-1577,0,0,0,0,0,0,0,0,0,0
523,MANTECA CA,SOCIAL SECURITY,,510 COMMERCE CT,MANTECA,CA,95336,(866) 320-2587,0,0,0,0,0,0,0,0,0,0
527,CAMP SPRINGS MD,SOCIAL SECURITY,,6110 ALLENTOWN ROAD,SUITLAND,MD,20746,(877) 512-3849,0,0,0,0,0,0,0,0,0,0
528,AGUADILLA PR,SOCIAL SECURITY,,5000 PEDRO ALBIZU CAMPOS AVE,AGUADILLA,PR,00603,(833) 882-1201,0,0,0,0,0,0,0,0,0,0
529,FREDERICK MD,SOCIAL SECURITY,SUITE N,5340 SPECTRUM DRIVE,FREDERICK,MD,21703,(866) 331-7089,0,0,0,0,0,0,0,0,0,0
530,CHARLOTTE HALL MD,SOCIAL SECURITY,,30071 BUSINESS CTR DR,CHARLOTTE HALL,MD,20622,(888) 866-5181,0,0,0,0,0,0,0,0,0,0
531,ANACOSTIA DC,SOCIAL SECURITY,SUITE 130,2041 MLK JR AVE SE,WASHINGTON,DC,20020,(866) 495-0048,0,0,0,0,0,0,0,0,0,0
532,MOUNT PROSPECT IL,SOCIAL SECURITY,,705 NORTH WHEELING RD,MOUNT PROSPECT,IL,60056,(866) 931-8350,0,0,0,0,0,0,0,0,0,0
535,MILW NORTH WI,SOCIAL SECURITY,,6300 W FOND DU LAC AVE,MILWAUKEE,WI,53218,(888) 823-4323,0,0,0,0,0,0,0,0,0,0
536,MADISON WI,SOCIAL SECURITY,,6011 ODANA RD,MADISON,WI,53719,(866) 770-2262,0,0,0,0,0,0,0,0,0,0
537,GREEN BAY WI,SOCIAL SECURITY,,1561 DOUSMAN ST.,GREEN BAY,WI,54303,(888) 862-4811,0,0,0,0,0,0,0,0,0,0
538,FOND DU LAC WI,SOCIAL SECURITY,SUITE 100,180 KNIGHTS WAY,FOND DU LAC,WI,54935,(888) 717-1526,0,0,0,0,0,0,0,0,0,0
539,EAU CLAIRE WI,SOCIAL SECURITY,,4120 OAKWOOD HILLS PKY,EAU CLAIRE,WI,54701,(866) 815-2924,0,0,0,0,0,0,0,0,0,0
540,RACINE WI,SOCIAL SECURITY,,4020 DURAND AVE,RACINE,WI,53405,(866) 270-8629,0,0,0,0,0,0,0,0,0,0
541,LA CROSSE WI,SOCIAL SECURITY,STE 100,210 7TH ST S,LA CROSSE,WI,54601,(866) 770-2345,0,0,0,0,0,0,0,0,0,0
542,WAUSAU WI,SOCIAL SECURITY,,352 GRAND AVE,WAUSAU,WI,54403,(855) 269-9186,0,0,0,0,0,0,0,0,0,0
543,SHEBOYGAN WI,SOCIAL SECURITY,,1137 N 26TH ST,SHEBOYGAN,WI,53081,(877) 635-3549,0,0,0,0,0,0,0,0,0,0
544,SUPERIOR WI,SOCIAL SECURITY,,4221 TOWER AVE,SUPERIOR,WI,54880,(877) 628-6578,0,0,0,0,0,0,0,0,0,0
545,OSHKOSH WI,SOCIAL SECURITY,,400 CITY CENTER STE B,OSHKOSH,WI,54901,(877) 445-0834,0,0,0,0,0,0,0,0,0,0
546,JANESVILLE WI,SOCIAL SECURITY,,222 N ACADEMY ST,JANESVILLE,WI,53548,(877) 850-7826,0,0,0,0,0,0,0,0,0,0
547,KENOSHA WI,SOCIAL SECURITY,,5624 6TH AVE,KENOSHA,WI,53140,(866) 334-4997,0,0,0,0,0,0,0,0,0,0
548,MILW DT WI,SOCIAL SECURITY,SUITE 260,310 W WISCONSIN AVE,MILWAUKEE,WI,53203,(866) 467-9626,0,0,0,0,0,0,0,0,0,0
549,APPLETON WI,SOCIAL SECURITY,,607 W NORTHLAND AVE,APPLETON,WI,54911,(877) 694-5495,0,0,0,0,0,0,0,0,0,0
550,WAUKESHA WI,SOCIAL SECURITY,FIRST FLOOR,707 N GRAND AVENUE,WAUKESHA,WI,53186,(866) 220-7885,0,0,0,0,0,0,0,0,0,0
551,WISCONSIN RAPIDS,SOCIAL SECURITY,,2213 8TH ST SOUTH,WISCONSIN RAPIDS,WI,54494,(855) 686-1465,0,0,0,0,0,0,0,0,0,0
552,LANCASTER WI,SOCIAL SECURITY,,175 W ALONA LN,LANCASTER,WI,53813,(877) 405-7841,0,0,0,0,0,0,0,0,0,0
553,MARINETTE WI,SOCIAL SECURITY,,2023 LAKE PARK DR,MARINETTE,WI,54143,(888) 329-5722,0,0,0,0,0,0,0,0,0,0
554,MANITOWOC WI,SOCIAL SECURITY,,1603 MIRRO DR,MANITOWOC,WI,54220,(877) 409-8430,0,0,0,0,0,0,0,0,0,0
556,MEMPHIS SOUTH TN,SOCIAL SECURITY,,3461 SOUTH THIRD ST,MEMPHIS,TN,38109,(855) 782-9155,0,0,0,0,0,0,0,0,0,0
558,GALLATIN TN,SOCIAL SECURITY,,637 COMMONS DRIVE,GALLATIN,TN,37066,(866) 964-7392,0,0,0,0,0,0,0,0,0,0
560,WEST PLAINS MO,SOCIAL SECURITY,,1612 IMPERIAL DRIVE,WEST PLAINS,MO,65775,(866) 614-2741,0,0,0,0,0,0,0,0,0,0
561,GILROY CA,SOCIAL SECURITY,,1059 FIRST STREET,GILROY,CA,95020,(877) 452-4198,0,0,0,0,0,0,0,0,0,0
562,NORWALK CA,SOCIAL SECURITY,SUITE 170,12440 E IMPERIAL HWY,NORWALK,CA,90650,(866) 331-3281,0,0,0,0,0,0,0,0,0,0
563,BKRSFLD EAST HILLS CA,SOCIAL SECURITY,,2575 HALEY STREET,BAKERSFIELD,CA,93305,(866) 366-9558,0,0,0,0,0,0,0,0,0,0
565,NASHVILLE  TN,SOCIAL SECURITY,,120 ATHENS WAY,NASHVILLE,TN,37228,(877) 808-5461,0,0,0,0,0,0,0,0,0,0
566,MEMPHIS TN,SOCIAL SECURITY,,1330 MONROE AVENUE,MEMPHIS,TN,38104,(866) 336-2212,0,0,0,0,0,0,0,0,0,0
567,KNOXVILLE TN,SOCIAL SECURITY,,9031 CROSS PARK DR,KNOXVILLE,TN,37923,(866) 331-9091,0,0,0,0,0,0,0,0,0,0
568,CHATTANOOGA TN,SOCIAL SECURITY,SUITE 140,1290 PREMIER DR,CHATTANOOGA,TN,37421,(866) 964-0029,0,0,0,0,0,0,0,0,0,0
569,COLUMBIA TN,SOCIAL SECURITY,,1885 SHADY BROOK ST,COLUMBIA,TN,38401,(877) 876-3174,0,0,0,0,0,0,0,0,0,0
570,DYERSBURG TN,SOCIAL SECURITY,,1070 VENDALL RD,DYERSBURG,TN,38024,(877) 480-5002,0,0,0,0,0,0,0,0,0,0
571,JACKSON TN,SOCIAL SECURITY,,415 CHEYENNE DR,JACKSON,TN,38305,(888) 383-1593,0,0,0,0,0,0,0,0,0,0
572,JOHNSON CITY TN,SOCIAL SECURITY,SUITE 203,818 SUNSET DRIVE,JOHNSON CITY,TN,37604,(866) 964-5059,0,0,0,0,0,0,0,0,0,0
573,COOKEVILLE TN,SOCIAL SECURITY,,1145 PERIMETER PARK DR,COOKEVILLE,TN,38501,(888) 717-1528,0,0,0,0,0,0,0,0,0,0
574,CLARKSVILLE TN,SOCIAL SECURITY,,119 CENTER POINTE DR,CLARKSVILLE,TN,37040,(877) 531-4695,0,0,0,0,0,0,0,0,0,0
575,GREENEVILLE TN,SOCIAL SECURITY,,1618 OLD TUSCULUM ROAD,GREENEVILLE,TN,37745,(877) 405-0416,0,0,0,0,0,0,0,0,0,0
576,MORRISTOWN TN,SOCIAL SECURITY,,3112 MILLERS POINT DR,MORRISTOWN,TN,37813,(866) 875-6156,0,0,0,0,0,0,0,0,0,0
577,TULLAHOMA TN,SOCIAL SECURITY,,717 KINGS LANE,TULLAHOMA,TN,37388,(866) 635-0647,0,0,0,0,0,0,0,0,0,0
578,MURFREESBORO TN,SOCIAL SECURITY,,2836 SAINT PATRICK CT,MURFREESBORO,TN,37128,(866) 593-3112,0,0,0,0,0,0,0,0,0,0
579,KINGSPORT TN,SOCIAL SECURITY,,2401 SOUTH WILCOX DR,KINGSPORT,TN,37660,(888) 487-0161,0,0,0,0,0,0,0,0,0,0
580,JACKSBORO TN,SOCIAL SECURITY,,140 SHARP PERKINS RD,JACKSBORO,TN,37757,(866) 964-7324,0,0,0,0,0,0,0,0,0,0
581,CLEVELAND TN,SOCIAL SECURITY,,529 INMAN ST W,CLEVELAND,TN,37311,(855) 207-4867,0,0,0,0,0,0,0,0,0,0
582,PARIS TN,SOCIAL SECURITY,,186 COMMERCE ST,PARIS,TN,38242,(866) 698-2507,0,0,0,0,0,0,0,0,0,0
583,COLUMBIA SC,SOCIAL SECURITY,11FL STHURMOND FED BLD,1835 ASSEMBLY ST,COLUMBIA,SC,29201,(866) 964-7594,0,0,0,0,0,0,0,0,0,0
584,SPARTANBURG SC,SOCIAL SECURITY,SPARTANBURG BUSINESS TECH CTR 3RD FL,145 N CHURCH ST,SPARTANBURG,SC,29306,(866) 701-6620,0,0,0,0,0,0,0,0,0,0
585,CHARLESTON SC,SOCIAL SECURITY,,1463 TOBIAS GADSON BLV,CHARLESTON,SC,29407,(866) 495-0111,0,0,0,0,0,0,0,0,0,0
586,GREENVILLE SC,SOCIAL SECURITY,,319 PELHAM RD,GREENVILLE,SC,29615,(877) 274-5423,0,0,0,0,0,0,0,0,0,0
587,FLORENCE SC,SOCIAL SECURITY,,181 DOZIER BLVD,FLORENCE,SC,29501,(888) 385-1173,0,0,0,0,0,0,0,0,0,0
588,ROCK HILL SC,SOCIAL SECURITY,,499 LAKESHORE PKWY,ROCK HILL,SC,29730,(877) 626-9589,0,0,0,0,0,0,0,0,0,0
589,GREENWOOD SC,SOCIAL SECURITY,STE C,115 ENTERPRISE COURT,GREENWOOD,SC,29649,(866) 739-4803,0,0,0,0,0,0,0,0,0,0
590,ANDERSON SC,SOCIAL SECURITY,,4 CIVIC CTR BLVD EXT,ANDERSON,SC,29625,(877) 505-4549,0,0,0,0,0,0,0,0,0,0
591,BENNETTSVILLE SC,SOCIAL SECURITY,,1028 CHERAW ST,BENNETTSVILLE,SC,29512,(888) 810-7617,0,0,0,0,0,0,0,0,0,0
592,MYRTLE BEACH SC,SOCIAL SECURITY,STE 301,611 BURROUGHS AND CHAPIN BLVD,MYRTLE BEACH,SC,29577,(888) 577-6601,0,0,0,0,0,0,0,0,0,0
593,GEORGETOWN SC,SOCIAL SECURITY,,413 KING ST,GEORGETOWN,SC,29440,(866) 593-1584,0,0,0,0,0,0,0,0,0,0
594,ORANGEBURG SC,SOCIAL SECURITY,,1379 SIMS ST,ORANGEBURG,SC,29115,(866) 716-8602,0,0,0,0,0,0,0,0,0,0
595,SUMTER SC,SOCIAL SECURITY,,240 BULTMAN DR,SUMTER,SC,29150,(877) 445-0840,0,0,0,0,0,0,0,0,0,0
596,AIKEN SC,SOCIAL SECURITY,,151 CORPORATE PKWY,AIKEN,SC,29803,(866) 275-8271,0,0,0,0,0,0,0,0,0,0
597,BEAUFORT SC,SOCIAL SECURITY,,646 ROBERT SMALLS PKWY,BEAUFORT,SC,29906,(866) 254-3316,0,0,0,0,0,0,0,0,0,0
599,ANSONIA CT,SOCIAL SECURITY,,475 MAIN STREET,ANSONIA,CT,06401,(866) 331-7096,0,0,0,0,0,0,0,0,0,0
600,ATLANTA-D/T GA,SOCIAL SECURITY,SUITE 2860 FLR 28,401 W PEACHTREE ST NW,ATLANTA,GA,30308,(866) 931-9946,0,0,0,0,0,0,0,0,0,0
601,SAVANNAH GA,SOCIAL SECURITY,,430 MALL BLVD,SAVANNAH,GA,31406,(866) 366-4923,0,0,0,0,0,0,0,0,0,0
602,ALBANY GA,SOCIAL SECURITY,,1522 W 3RD AVE,ALBANY,GA,31707,(877) 319-0733,0,0,0,0,0,0,0,0,0,0
603,MACON GA,SOCIAL SECURITY,,3530 RIVERSIDE DRIVE,MACON,GA,31210,(888) 759-3917,0,0,0,0,0,0,0,0,0,0
604,ATHENS GA,SOCIAL SECURITY,,1650 PRINCE AVENUE,ATHENS,GA,30606,(866) 964-3294,0,0,0,0,0,0,0,0,0,0
605,COLUMBUS GA,SOCIAL SECURITY,,7263 NORTH LAKE DR,COLUMBUS,GA,31909,(877) 784-3688,0,0,0,0,0,0,0,0,0,0
606,AUGUSTA GA,SOCIAL SECURITY,,115 ROBERT C DANIEL JR PKWY,AUGUSTA,GA,30909,(877) 616-2523,0,0,0,0,0,0,0,0,0,0
607,WAYCROSS GA,SOCIAL SECURITY,,303 ISABELLA ST,WAYCROSS,GA,31501,(877) 405-3578,0,0,0,0,0,0,0,0,0,0
608,LAGRANGE GA,SOCIAL SECURITY,SUITE A,1300 LAFAYETTE PKWY,LAGRANGE,GA,30241,(866) 836-6744,0,0,0,0,0,0,0,0,0,0
609,ROME GA,SOCIAL SECURITY,,480 RIVERSIDE PKWY NE,ROME,GA,30161,(866) 964-1006,0,0,0,0,0,0,0,0,0,0
610,MILLEDGEVILLE GA,SOCIAL SECURITY,,109 CYPRESS CORNERS,MILLEDGEVILLE,GA,31061,(866) 348-5817,0,0,0,0,0,0,0,0,0,0
611,THOMASVILLE GA,SOCIAL SECURITY,,1916 SMITH AVENUE,THOMASVILLE,GA,31792,(888) 491-1886,0,0,0,0,0,0,0,0,0,0
612,GAINESVILLE GA,SOCIAL SECURITY,SUITE 210,2565 THOMPSON BRDG RD,GAINESVILLE,GA,30501,(866) 331-2309,0,0,0,0,0,0,0,0,0,0
613,VALDOSTA GA,SOCIAL SECURITY,,3149 PERIMETER PARK LN,VALDOSTA,GA,31602,(866) 829-2617,0,0,0,0,0,0,0,0,0,0
614,BRUNSWICK GA,SOCIAL SECURITY,,134 JUNIPER CT,BRUNSWICK,GA,31520,(866) 964-6563,0,0,0,0,0,0,0,0,0,0
615,DUBLIN GA,SOCIAL SECURITY,,919 HILLCREST PKWY,DUBLIN,GA,31021,(888) 655-6438,0,0,0,0,0,0,0,0,0,0
616,GRIFFIN GA,SOCIAL SECURITY,,1548 FLYNT ST,GRIFFIN,GA,30223,(866) 964-1005,0,0,0,0,0,0,0,0,0,0
617,SOUTHLAKE GA,SOCIAL SECURITY,,6670 MERCHANTS WAY,MORROW,GA,30260,(866) 331-2215,0,0,0,0,0,0,0,0,0,0
618,DALTON GA,SOCIAL SECURITY,,301 POINT NORTH PL,DALTON,GA,30720,(866) 593-5681,0,0,0,0,0,0,0,0,0,0
619,KENNESAW GA,SOCIAL SECURITY,SUITE 250,200 CHASTAIN CENTER BLVD NW,KENNESAW,GA,30144,(866) 964-4690,0,0,0,0,0,0,0,0,0,0
620,GWINNETT GA,SOCIAL SECURITY,,4365 SHACKLEFORD RD,NORCROSS,GA,30093,(877) 803-6320,0,0,0,0,0,0,0,0,0,0
621,DECATUR GA,SOCIAL SECURITY,,3554 COVINGTON HWY,DECATUR,GA,30032,(877) 626-9909,0,0,0,0,0,0,0,0,0,0
622,BIRMINGHAM DT AL,SOCIAL SECURITY,DISTRICT OFFICE-1ST FLOOR,1200 REV ABRAHAM WOODS JR BLVD N,BIRMINGHAM,AL,35285,(866) 592-3734,0,0,0,0,0,0,0,0,0,0
623,MONTGOMERY AL,SOCIAL SECURITY,SUITE 100,4344 CARMICHAEL RD,MONTGOMERY,AL,36106,(866) 593-0914,0,0,0,0,0,0,0,0,0,0
624,MOBILE AL,SOCIAL SECURITY,SUITE 100,550 GOVERNMENT ST,MOBILE,AL,36602,(866) 593-1922,0,0,0,0,0,0,0,0,0,0
625,DECATUR AL,SOCIAL SECURITY,,717 MCGLATHERY LN SE,DECATUR,AL,35601,(888) 289-9185,0,0,0,0,0,0,0,0,0,0
626,GADSDEN AL,SOCIAL SECURITY,,204 ENTERPRISE DRIVE,GADSDEN,AL,35904,(877) 316-4418,0,0,0,0,0,0,0,0,0,0
627,ANNISTON AL,SOCIAL SECURITY,,801 QUINTARD AVENUE,ANNISTON,AL,36201,(877) 701-2139,0,0,0,0,0,0,0,0,0,0
628,DOTHAN AL,SOCIAL SECURITY,,1778 WHATLEY DRIVE,DOTHAN,AL,36303,(877) 452-4192,0,0,0,0,0,0,0,0,0,0
629,TUSCALOOSA AL,SOCIAL SECURITY,STE 1200,2005 UNIVERSITY BLVD,TUSCALOOSA,AL,35401,(877) 480-4988,0,0,0,0,0,0,0,0,0,0
630,SELMA AL,SOCIAL SECURITY,,120 EXECUTIVE PARK LN,SELMA,AL,36701,(877) 628-6541,0,0,0,0,0,0,0,0,0,0
631,FLORENCE AL,SOCIAL SECURITY,,203 SOUTH WALNUT ST,FLORENCE,AL,35630,(855) 884-3407,0,0,0,0,0,0,0,0,0,0
632,HUNTSVILLE AL,SOCIAL SECURITY,,"4970 RESEARCH DRIVE,NW",HUNTSVILLE,AL,35805,(866) 593-0665,0,0,0,0,0,0,0,0,0,0
633,AUBURN AL,SOCIAL SECURITY,,2454 E UNIVERSITY DR,AUBURN,AL,36830,(877) 512-3857,0,0,0,0,0,0,0,0,0,0
634,ANDALUSIA AL,SOCIAL SECURITY,,24467 ALABAMA HWY 55,ANDALUSIA,AL,36420,(877) 405-7657,0,0,0,0,0,0,0,0,0,0
635,TALLADEGA AL,SOCIAL SECURITY,,736 NORTH STREET EAST,TALLADEGA,AL,35160,(877) 619-2854,0,0,0,0,0,0,0,0,0,0
636,BESSEMER AL,SOCIAL SECURITY,,5475 ACADEMY WAY,BESSEMER,AL,35022,(866) 593-5647,0,0,0,0,0,0,0,0,0,0
640,VICKSBURG MS,SOCIAL SECURITY,SUITE 24,3505 PEMBERTON SQUARE BLVD,VICKSBURG,MS,39180,(866) 964-0996,0,0,0,0,0,0,0,0,0,0
641,JACKSON MS FO,SOCIAL SECURITY,STE 225 MCCOY FED BLDG,100 W CAPITOL STREET,JACKSON,MS,39269,(866) 331-8135,0,0,0,0,0,0,0,0,0,0
642,HATTIESBURG MS,SOCIAL SECURITY,,1911 BROADWAY DR,HATTIESBURG,MS,39402,(866) 331-2186,0,0,0,0,0,0,0,0,0,0
643,MERIDIAN MS,SOCIAL SECURITY,,4717 26TH AVENUE,MERIDIAN,MS,39305,(866) 403-8014,0,0,0,0,0,0,0,0,0,0
644,COLUMBUS MS,SOCIAL SECURITY,,3577 BLUECUTT RD,COLUMBUS,MS,39705,(877) 626-9914,0,0,0,0,0,0,0,0,0,0
645,GREENWOOD MS,SOCIAL SECURITY,,604 YALOBUSHA STREET,GREENWOOD,MS,38930,(866) 331-2209,0,0,0,0,0,0,0,0,0,0
646,GULFPORT MS,SOCIAL SECURITY,,9394 THREE RIVERS ROAD,GULFPORT,MS,39503,(877) 897-0609,0,0,0,0,0,0,0,0,0,0
647,GREENVILLE MS,SOCIAL SECURITY,ROOM 201,305 MAIN STREET,GREENVILLE,MS,38701,(866) 602-8776,0,0,0,0,0,0,0,0,0,0
648,TUPELO MS,SOCIAL SECURITY,,199 SADDLE CREEK DRIVE,TUPELO,MS,38801,(866) 504-4267,0,0,0,0,0,0,0,0,0,0
649,CLARKSDALE MS,SOCIAL SECURITY,,160 ANDERSON BLVD,CLARKSDALE,MS,38614,(866) 931-7670,0,0,0,0,0,0,0,0,0,0
650,MCCOMB MS,SOCIAL SECURITY,,116 BUSINESS CENTER DR,MCCOMB,MS,39648,(866) 253-5609,0,0,0,0,0,0,0,0,0,0
651,NATCHEZ MS,SOCIAL SECURITY,GROUND FLOOR,110 LOWER WOODVILLE RD,NATCHEZ,MS,39120,(877) 405-4565,0,0,0,0,0,0,0,0,0,0
652,LAUREL MS,SOCIAL SECURITY,,3210 HWY 15 N,LAUREL,MS,39440,(866) 964-4927,0,0,0,0,0,0,0,0,0,0
653,MOSS POINT MS,SOCIAL SECURITY,,6000 HWY 63,MOSS POINT,MS,39563,(866) 253-5675,0,0,0,0,0,0,0,0,0,0
655,JACKSONVILLE SOUTH FL,SOCIAL SECURITY,SUITE 1,7185 BONNEVAL ROAD,JACKSONVILLE,FL,32256,(877) 409-8424,0,0,0,0,0,0,0,0,0,0
656,TAMPA FL,SOCIAL SECURITY,,3415 E FRONTAGE ROAD,TAMPA,FL,33607,(866) 331-2317,0,0,0,0,0,0,0,0,0,0
657,ORLANDO FL,SOCIAL SECURITY,SUITE 101,5520 GATLIN AVE,ORLANDO,FL,32812,(866) 964-6146,0,0,0,0,0,0,0,0,0,0
658,LAKELAND FL,SOCIAL SECURITY,,550 COMMERCE DR,LAKELAND,FL,33813,(877) 604-9387,0,0,0,0,0,0,0,0,0,0
659,TALLAHASSEE FL,SOCIAL SECURITY,STE B-12,2002 OLD ST AUGUSTINE,TALLAHASSEE,FL,32301,(866) 248-2088,0,0,0,0,0,0,0,0,0,0
660,PENSACOLA FL,SOCIAL SECURITY,,411 W GARDEN STREET,PENSACOLA,FL,32502,(877) 505-4550,0,0,0,0,0,0,0,0,0,0
661,WEST PALM BEACH FL,SOCIAL SECURITY,SUITE 2,801 CLEMATIS STREET,WEST PALM BEACH,FL,33401,(866) 783-7339,0,0,0,0,0,0,0,0,0,0
662,ST PETERSBURG FL,SOCIAL SECURITY,,30 DR MLK ST S,ST PETERSBURG,FL,33701,(866) 613-3965,0,0,0,0,0,0,0,0,0,0
663,GAINESVILLE FL,SOCIAL SECURITY,,4562 NW 13 STREET,GAINESVILLE,FL,32609,(877) 219-8323,0,0,0,0,0,0,0,0,0,0
664,PORT ORANGE FL,SOCIAL SECURITY,,4990 S CLYDE MORRIS BLVD,PORT ORANGE,FL,32127,(866) 210-8089,0,0,0,0,0,0,0,0,0,0
665,FT LAUDERDALE EAST FL,SOCIAL SECURITY,SUITE 100,3201 W COMMERCIAL BLVD,FT LAUDERDALE,FL,33309,(877) 253-4720,0,0,0,0,0,0,0,0,0,0
667,SARASOTA FL,SOCIAL SECURITY,SUITE  301,2001 SIESTA DR,SARASOTA,FL,34239,(888) 327-1206,0,0,0,0,0,0,0,0,0,0
668,PANAMA CITY FL,SOCIAL SECURITY,,3215 HWY 77,PANAMA CITY,FL,32405,(866) 348-5833,0,0,0,0,0,0,0,0,0,0
669,MIAMI NORTH FL,SOCIAL SECURITY,,16900 NW 12 AVE,MIAMI,FL,33169,(866) 331-2231,0,0,0,0,0,0,0,0,0,0
670,FORT MYERS FL,SOCIAL SECURITY,FIRST FLOOR SUITE 101,3650 COLONIAL BLVD,FORT MYERS,FL,33966,(888) 318-9114,0,0,0,0,0,0,0,0,0,0
671,MIAMI BEACH FL,SOCIAL SECURITY,SUITE 200,1801 ALTON RD,MIAMI BEACH,FL,33139,(877) 714-0374,0,0,0,0,0,0,0,0,0,0
673,MELBOURNE FL,SOCIAL SECURITY,,1715 W NASA BLVD,MELBOURNE,FL,32901,(866) 716-7667,0,0,0,0,0,0,0,0,0,0
674,OCALA FL,SOCIAL SECURITY,,933 E SILVER SPGS BLVD,OCALA,FL,34470,(877) 626-9911,0,0,0,0,0,0,0,0,0,0
675,MINNEAPOLIS MN,SOCIAL SECURITY,SUITE 1,1811 CHICAGO AVE,MINNEAPOLIS,MN,55404,(855) 257-0982,0,0,0,0,0,0,0,0,0,0
676,DULUTH MN,SOCIAL SECURITY,STE 400/U S BANK BG,130 W SUPERIOR ST,DULUTH,MN,55802,(855) 863-3560,0,0,0,0,0,0,0,0,0,0
677,ST PAUL MN,SOCIAL SECURITY,STE N650,332 MINNESOTA ST,ST PAUL,MN,55101,(866) 667-7481,0,0,0,0,0,0,0,0,0,0
678,MANKATO MN,SOCIAL SECURITY,STE 1550 MANKATO PL,12 CIVIC CNTR PLAZA,MANKATO,MN,56001,(877) 457-1734,0,0,0,0,0,0,0,0,0,0
679,ST CLOUD MN,SOCIAL SECURITY,SUITE 100,3800 VETERANS DRIVE,SAINT CLOUD,MN,56303,(877) 405-1446,0,0,0,0,0,0,0,0,0,0
680,WINONA MN,SOCIAL SECURITY,CHOATE BLDG/STE 307,53 E THIRD ST,WINONA,MN,55987,(877) 600-2853,0,0,0,0,0,0,0,0,0,0
681,MARSHALL MN,SOCIAL SECURITY,SUITE B,507 JEWETT STREET,MARSHALL,MN,56258,(855) 210-0122,0,0,0,0,0,0,0,0,0,0
682,BEMIDJI MN,SOCIAL SECURITY,,2900 HANNAH AVE NW,BEMIDJI,MN,56601,(866) 258-6345,0,0,0,0,0,0,0,0,0,0
683,HIBBING MN,SOCIAL SECURITY,,1122 E 25TH STREET,HIBBING,MN,55746,(866) 964-4320,0,0,0,0,0,0,0,0,0,0
684,AUSTIN MN,SOCIAL SECURITY,,404 2ND STREET NW,AUSTIN,MN,55912,(866) 504-5010,0,0,0,0,0,0,0,0,0,0
685,ROCHESTER MN,SOCIAL SECURITY,SUITE 100,2443 CLARE LN NE,ROCHESTER,MN,55906,(877) 405-3631,0,0,0,0,0,0,0,0,0,0
686,FAIRMONT MN,SOCIAL SECURITY,SUITE 70,400 S. STATE ST,FAIRMONT,MN,56031,(877) 405-0414,0,0,0,0,0,0,0,0,0,0
687,BEAVERTON OR,SOCIAL SECURITY,SUITE 100,11975 SW 2ND ST,BEAVERTON,OR,97005,(866) 964-2036,0,0,0,0,0,0,0,0,0,0
689,THE DALLES OR,SOCIAL SECURITY,SUITE 110,401 E 3RD ST,THE DALLES,OR,97058,(877) 405-3526,0,0,0,0,0,0,0,0,0,0
690,DES MOINES IA,SOCIAL SECURITY,RIVERPOINT OFC COMPLEX,455 SW 5TH ST STE F,DES MOINES,IA,50309,(866) 964-7583,0,0,0,0,0,0,0,0,0,0
691,DAVENPORT IA,SOCIAL SECURITY,,4319 N BRADY STREET,DAVENPORT,IA,52806,(855) 420-8556,0,0,0,0,0,0,0,0,0,0
692,SIOUX CITY IA,SOCIAL SECURITY,,3555 SOUTHERN HILLS DR,SIOUX CITY,IA,51106,(866) 338-2859,0,0,0,0,0,0,0,0,0,0
693,WATERLOO IA,SOCIAL SECURITY,,3121 GREYHOUND DR,WATERLOO,IA,50701,(888) 456-9554,0,0,0,0,0,0,0,0,0,0
694,OTTUMWA IA,SOCIAL SECURITY,SUITE A,2429 NORTHGATE ST,OTTUMWA,IA,52501,(866) 964-7394,0,0,0,0,0,0,0,0,0,0
695,DUBUQUE IA,SOCIAL SECURITY,SUITE 101,1635 ASSOCIATES DR,DUBUQUE,IA,52002,(877) 405-3650,0,0,0,0,0,0,0,0,0,0
696,CEDAR RAPIDS IA,SOCIAL SECURITY,,"3165 WILLIAMS BLVD SW, STE 100",CEDAR RAPIDS,IA,52404,(866) 495-0088,0,0,0,0,0,0,0,0,0,0
697,FORT DODGE IA,SOCIAL SECURITY,,2315 2ND AVE NORTH,FORT DODGE,IA,50501,(866) 839-6193,0,0,0,0,0,0,0,0,0,0
698,MASON CITY IA,SOCIAL SECURITY,,625 VILLAGE GRN DR SW,MASON CITY,IA,50401,(866) 365-6708,0,0,0,0,0,0,0,0,0,0
699,BURLINGTON IA,SOCIAL SECURITY,,3920 DIVISION ST,BURLINGTON,IA,52601,(866) 338-4183,0,0,0,0,0,0,0,0,0,0
700,CRESTON IA,SOCIAL SECURITY,,906 E TAYLOR ST,CRESTON,IA,50801,(866) 613-2827,0,0,0,0,0,0,0,0,0,0
701,CARROLL IA,SOCIAL SECURITY,,818 BELLA VISTA DR,CARROLL,IA,51401,(866) 572-8381,0,0,0,0,0,0,0,0,0,0
703,CHICAGO LAWNDALE IL,SOCIAL SECURITY,,2416 S PULASKI ROAD,CHICAGO,IL,60623,(877) 531-4698,0,0,0,0,0,0,0,0,0,0
704,WEST MEMPHIS AR,SOCIAL SECURITY,,202B SHOPPING WAY BLVD,WEST MEMPHIS,AR,72301,(866) 627-6994,0,0,0,0,0,0,0,0,0,0
705,FARGO ND,SOCIAL SECURITY,RM 320 FED BLDG,657 2ND AVE N,FARGO,ND,58102,(877) 335-4114,0,0,0,0,0,0,0,0,0,0
706,MINOT ND,SOCIAL SECURITY,MINOT METRO CENTER,1414 20TH AVE SW,MINOT,ND,58701,(866) 415-3193,0,0,0,0,0,0,0,0,0,0
707,GRAND FORKS ND,SOCIAL SECURITY,STE 300,402 DEMERS AVE,GRAND FORKS,ND,58201,(888) 617-0456,0,0,0,0,0,0,0,0,0,0
708,BISMARCK ND,SOCIAL SECURITY,SUITE 100,4207 BOULDER RIDGE RD,BISMARCK,ND,58503,(877) 319-6044,0,0,0,0,0,0,0,0,0,0
709,NEW PORT RICHEY FL,SOCIAL SECURITY,SUITE 100,8661 CITIZENS DRIVE,NEW PORT RICHEY,FL,34654,(866) 593-5679,0,0,0,0,0,0,0,0,0,0
713,MINDEN LA,SOCIAL SECURITY,,103 MBL BANK DRIVE,MINDEN,LA,71055,(877) 319-5762,0,0,0,0,0,0,0,0,0,0
715,SIOUX FALLS SD,SOCIAL SECURITY,,5021 S NEVADA AVE,SIOUX FALLS,SD,57108,(877) 274-5421,0,0,0,0,0,0,0,0,0,0
716,ABERDEEN SD,SOCIAL SECURITY,ROOM 111 FEDERAL BLDG,115 4TH AVE SE,ABERDEEN,SD,57401,(855) 278-4196,0,0,0,0,0,0,0,0,0,0
717,RAPID CITY SD,SOCIAL SECURITY,STE 301,2200 NORTH MAPLE AVE,RAPID CITY,SD,57701,(866) 964-7416,0,0,0,0,0,0,0,0,0,0
718,HURON SD,SOCIAL SECURITY,ROOM 105 FEDERAL BLDG,200 4TH STREET SW,HURON,SD,57350,(866) 563-4604,0,0,0,0,0,0,0,0,0,0
720,ATLANTA WEST GA,SOCIAL SECURITY,BLDG 2400 SUITE 122,3800 CAMP CREEK PKWY,ATLANTA,GA,30331,(877) 828-1694,0,0,0,0,0,0,0,0,0,0
722,NORTH BROWARD FL,SOCIAL SECURITY,,5195 COCONUT CREEK PKY,MARGATE,FL,33063,(866) 704-4856,0,0,0,0,0,0,0,0,0,0
723,MIAMI SOUTH FL,SOCIAL SECURITY,,11401 W FLAGLER ST,MIAMI,FL,33174,(866) 331-7129,0,0,0,0,0,0,0,0,0,0
724,JASPER AL,SOCIAL SECURITY,,501 THE MALL WAY,JASPER,AL,35504,(877) 575-5199,0,0,0,0,0,0,0,0,0,0
725,OMAHA NE,SOCIAL SECURITY,OLD MILL CENTRE,604 N 109TH CT,OMAHA,NE,68154,(866) 716-8299,0,0,0,0,0,0,0,0,0,0
726,LINCOLN NE,SOCIAL SECURITY,ROOM 240,100 CENTENNIAL MALL N,LINCOLN,NE,68508,(866) 593-2880,0,0,0,0,0,0,0,0,0,0
727,NORTH PLATTE NE,SOCIAL SECURITY,RM 204,300 E. 3RD ST.,NORTH PLATTE,NE,69101,(833) 329-5527,0,0,0,0,0,0,0,0,0,0
728,GRAND ISLAND NE,SOCIAL SECURITY,STE 1,115 N WEBB RD,GRAND ISLAND,NE,68803,(877) 407-3441,0,0,0,0,0,0,0,0,0,0
729,SCOTTSBLUFF NE,SOCIAL SECURITY,,415 VALLEY VIEW DR,SCOTTSBLUFF,NE,69361,(800) 297-4291,0,0,0,0,0,0,0,0,0,0
730,NORFOLK NE,SOCIAL SECURITY,SUITE 1,605 IRON HORSE DR,NORFOLK,NE,68701,(855) 207-7082,0,0,0,0,0,0,0,0,0,0
734,ST PETERS MO,SOCIAL SECURITY,,4800 EXECUTIVE CTR PKY,ST PETERS,MO,63376,(877) 405-3570,0,0,0,0,0,0,0,0,0,0
735,ST LOUIS-DTN MO,SOCIAL SECURITY,SUITE 100,717 N 16TH STREET,ST LOUIS,MO,63103,(888) 748-2014,0,0,0,0,0,0,0,0,0,0
736,KANSAS CITY SOUTH MO,SOCIAL SECURITY,,6320 EUCLID AVE,KANSAS CITY,MO,64132,(888) 488-9417,0,0,0,0,0,0,0,0,0,0
737,ST JOSEPH MO,SOCIAL SECURITY,,1402 N WOODBINE RD,SAINT JOSEPH,MO,64506,(888) 366-6148,0,0,0,0,0,0,0,0,0,0
738,SPRINGFIELD MO,SOCIAL SECURITY,STE 100,1570 W BATTLEFIELD ST,SPRINGFIELD,MO,65807,(877) 850-7824,0,0,0,0,0,0,0,0,0,0
739,CAPE GIRARDEAU,SOCIAL SECURITY,,2445 CAPE CENTRE DR,CAPE GIRARDEAU,MO,63703,(866) 931-7077,0,0,0,0,0,0,0,0,0,0
740,JEFFERSON CITY,SOCIAL SECURITY,,129 SCOTT STATION ROAD,JEFFERSON CITY,MO,65109,(877) 405-9803,0,0,0,0,0,0,0,0,0,0
741,HANNIBAL MO,SOCIAL SECURITY,,155 FORREST DRIVE,HANNIBAL,MO,63401,(866) 331-7094,0,0,0,0,0,0,0,0,0,0
742,ST LOUIS WEST COUNTY,SOCIAL SECURITY,STE 100,1215 FERN RIDGE PKWY,CREVE COEUR,MO,63141,(855) 820-0096,0,0,0,0,0,0,0,0,0,0
743,SEDALIA MO,SOCIAL SECURITY,,3404 W 10TH,SEDALIA,MO,65301,(877) 405-5459,0,0,0,0,0,0,0,0,0,0
744,JOPLIN MO,SOCIAL SECURITY,,4102 S ARIZONA AVE,JOPLIN,MO,64804,(866) 964-7421,0,0,0,0,0,0,0,0,0,0
745,ST LOUIS-SOUTHSIDE,SOCIAL SECURITY,SUITE 100,8800 WATSON RD.,SAINT LOUIS,MO,63119,(877) 714-0372,0,0,0,0,0,0,0,0,0,0
748,INDEPENDENCE MO,SOCIAL SECURITY,,3520 S NOLAND RD STE C,INDEPENDENCE,MO,64055,(866) 864-1517,0,0,0,0,0,0,0,0,0,0
749,POPLAR BLUFF MO,SOCIAL SECURITY,,66 HIGHWAY 142,POPLAR BLUFF,MO,63901,(855) 722-3498,0,0,0,0,0,0,0,0,0,0
750,ROLLA MO,SOCIAL SECURITY,,1813 E 10TH ST,ROLLA,MO,65401,(800) 551-2056,0,0,0,0,0,0,0,0,0,0
751,COLUMBIA MO,SOCIAL SECURITY,SUITE101,3402 BUTTONWOOD DR,COLUMBIA,MO,65201,(866) 563-9108,0,0,0,0,0,0,0,0,0,0
752,KENNETT MO,SOCIAL SECURITY,,800 SOUTH BYPASS,KENNETT,MO,63857,(866) 931-4497,0,0,0,0,0,0,0,0,0,0
753,PARK HILLS MO,SOCIAL SECURITY,,507 EAST MAIN STREET,PARK HILLS,MO,63601,(877) 622-9009,0,0,0,0,0,0,0,0,0,0
755,LITTLE ROCK AR,SOCIAL SECURITY,RM 1201 FEDERAL BLDG,700 W CAPITOL STREET,LITTLE ROCK,AR,72201,(866) 593-0933,0,0,0,0,0,0,0,0,0,0
756,FORT SMITH AR,SOCIAL SECURITY,,6801 DALLAS STREET,FT SMITH,AR,72903,(866) 931-8374,0,0,0,0,0,0,0,0,0,0
757,TEXARKANA TX,SOCIAL SECURITY,,5735 SUMMERHILL RD.,TEXARKANA,TX,75503,(866) 931-7675,0,0,0,0,0,0,0,0,0,0
758,JONESBORO AR,SOCIAL SECURITY,,1809 LATOURETTE DRIVE,JONESBORO,AR,72404,(866) 842-7369,0,0,0,0,0,0,0,0,0,0
759,PINE BLUFF AR,SOCIAL SECURITY,,3511 MARKET STREET,PINE BLUFF,AR,71601,(866) 563-9693,0,0,0,0,0,0,0,0,0,0
760,HOT SPRINGS AR,SOCIAL SECURITY,,112 CORPORATE TERRACE,HOT SPRINGS,AR,71913,(855) 531-1685,0,0,0,0,0,0,0,0,0,0
761,EL DORADO AR,SOCIAL SECURITY,,2600 W HILLSBORO,EL DORADO,AR,71730,(866) 526-9254,0,0,0,0,0,0,0,0,0,0
762,BLYTHEVILLE AR,SOCIAL SECURITY,,1403 S DIVISION ST,BLYTHEVILLE,AR,72315,(866) 842-6638,0,0,0,0,0,0,0,0,0,0
763,FAYETTEVILLE AR,SOCIAL SECURITY,SUITE 101,2153 E. JOYCE BLVD.,FAYETTEVILLE,AR,72703,(877) 694-5493,0,0,0,0,0,0,0,0,0,0
765,FORREST CITY AR,SOCIAL SECURITY,SUITE A,965 HOLIDAY DR,FORREST CITY,AR,72335,(866) 964-2043,0,0,0,0,0,0,0,0,0,0
766,RUSSELLVILLE AR,SOCIAL SECURITY,,2708 E PARKWAY DRIVE,RUSSELLVILLE,AR,72802,(877) 445-0827,0,0,0,0,0,0,0,0,0,0
767,BATESVILLE AR,SOCIAL SECURITY,,151 DRY KILN RD,BATESVILLE,AR,72501,(866) 816-5651,0,0,0,0,0,0,0,0,0,0
768,TOPEKA KS,SOCIAL SECURITY,,600 SW COMMERCE PL,TOPEKA,KS,66615,(888) 327-1271,0,0,0,0,0,0,0,0,0,0
769,WICHITA KS,SOCIAL SECURITY,,3216 N CYPRESS ST,WICHITA,KS,67226,(866) 931-9173,0,0,0,0,0,0,0,0,0,0
770,SALINA KS,SOCIAL SECURITY,STE 7,1410 E IRON AVE,SALINA,KS,67401,(877) 405-3494,0,0,0,0,0,0,0,0,0,0
771,DODGE CITY KS,SOCIAL SECURITY,,2204 SUMMERLON CIR,DODGE CITY,KS,67801,(877) 694-5494,0,0,0,0,0,0,0,0,0,0
772,KANSAS CITY KS,SOCIAL SECURITY,,850 NEBRASKA AVE,KANSAS CITY,KS,66101,(866) 331-2197,0,0,0,0,0,0,0,0,0,0
774,HUTCHINSON KS,SOCIAL SECURITY,STE A,811 E 30TH AVE,HUTCHINSON,KS,67502,(877) 846-8333,0,0,0,0,0,0,0,0,0,0
775,INDEPENDENCE KS,SOCIAL SECURITY,SUITE A,2125 N PENN AVE,INDEPENDENCE,KS,67301,(877) 512-3855,0,0,0,0,0,0,0,0,0,0
776,HAYS KS,SOCIAL SECURITY,,1212 E 27TH ST,HAYS,KS,67601,(888) 552-7176,0,0,0,0,0,0,0,0,0,0
777,KANSAS CITY NORTH,SOCIAL SECURITY,,8620 N GREEN HILLS RD,KANSAS CITY,MO,64154,(877) 805-6671,0,0,0,0,0,0,0,0,0,0
778,MANHATTAN KS,SOCIAL SECURITY,STE A,1121 HUDSON AVE,MANHATTAN,KS,66503,(877) 840-5741,0,0,0,0,0,0,0,0,0,0
779,JOHNSON COUNTY,SOCIAL SECURITY,,15375 W 95TH ST,LENEXA,KS,66219,(877) 445-9978,0,0,0,0,0,0,0,0,0,0
780,SPENCER IA,SOCIAL SECURITY,,1610 12TH AVE SW,SPENCER,IA,51301,(866) 273-6050,0,0,0,0,0,0,0,0,0,0
781,SF MISSION CA,SOCIAL SECURITY,,1098 VALENCIA ST,SAN FRANCISCO,CA,94110,(866) 755-6323,0,0,0,0,0,0,0,0,0,0
783,OKLACITY OK,SOCIAL SECURITY,,12301 N. KELLEY AVE,OKLAHOMA CITY,OK,73131,(866) 331-2207,0,0,0,0,0,0,0,0,0,0
784,TULSA OK,SOCIAL SECURITY,,4750 S GARNETT RD,TULSA,OK,74146,(866) 931-7106,0,0,0,0,0,0,0,0,0,0
785,CHICKASHA OK,SOCIAL SECURITY,,506 W UTAH AVE,CHICKASHA,OK,73018,(877) 622-9096,0,0,0,0,0,0,0,0,0,0
786,ARDMORE OK,SOCIAL SECURITY,,321 HOLIDAY DRIVE,ARDMORE,OK,73401,(888) 619-4774,0,0,0,0,0,0,0,0,0,0
787,MUSKOGEE OK,SOCIAL SECURITY,,2401 W. SHAWNEE STREET,MUSKOGEE,OK,74401,(877) 575-5195,0,0,0,0,0,0,0,0,0,0
788,ENID OK,SOCIAL SECURITY,,2202 N VAN BUREN ST,ENID,OK,73703,(877) 405-0436,0,0,0,0,0,0,0,0,0,0
790,LAWTON OK,SOCIAL SECURITY,,1610 SW LEE BLVD,LAWTON,OK,73501,(866) 931-2732,0,0,0,0,0,0,0,0,0,0
791,MIAMI OK,SOCIAL SECURITY,,2108 DENVER HARNAR DR,MIAMI,OK,74354,(888) 878-0013,0,0,0,0,0,0,0,0,0,0
792,MOORE OK,SOCIAL SECURITY,,200 NE 27TH ST,MOORE,OK,73160,(866) 964-4260,0,0,0,0,0,0,0,0,0,0
793,MCALESTER OK,SOCIAL SECURITY,,902 S GEORGE NIGH,MCALESTER,OK,74501,(877) 893-4665,0,0,0,0,0,0,0,0,0,0
794,BARTLESVILLE OK,SOCIAL SECURITY,,900 LEISURE LN,BARTLESVILLE,OK,74006,(877) 836-1557,0,0,0,0,0,0,0,0,0,0
796,SHAWNEE OK,SOCIAL SECURITY,,909 E FEDERAL ST,SHAWNEE,OK,74804,(877) 897-0604,0,0,0,0,0,0,0,0,0,0
797,ADA OK,SOCIAL SECURITY,,921 LONNIE ABBOTT BLVD,ADA,OK,74820,(888) 810-1940,0,0,0,0,0,0,0,0,0,0
798,CLINTON OK,SOCIAL SECURITY,,410 OPAL AVE,CLINTON,OK,73601,(877) 405-9345,0,0,0,0,0,0,0,0,0,0
800,NEW ORLEANS DWNTWN LA,SOCIAL SECURITY,SUITE 500,400 POYDRAS STREET,NEW ORLEANS,LA,70130,(855) 257-0984,0,0,0,0,0,0,0,0,0,0
801,SHREVEPORT LA,SOCIAL SECURITY,,1240 S POINTE PKWY,SHREVEPORT,LA,71105,(877) 319-3074,0,0,0,0,0,0,0,0,0,0
802,MONROE LA,SOCIAL SECURITY,,1120 PLAZA BLVD,MONROE,LA,71201,(866) 815-8716,0,0,0,0,0,0,0,0,0,0
803,BATON ROUGE LA,SOCIAL SECURITY,,5455 BANKERS AVE,BATON ROUGE,LA,70808,(866) 613-3070,0,0,0,0,0,0,0,0,0,0
804,ALEXANDRIA LA,SOCIAL SECURITY,,3401 NORTH BLVD,ALEXANDRIA,LA,71301,(877) 876-3171,0,0,0,0,0,0,0,0,0,0
805,LAKE CHARLES LA,SOCIAL SECURITY,SUITE B,149 W 18TH ST,LAKE CHARLES,LA,70601,(877) 409-8431,0,0,0,0,0,0,0,0,0,0
806,LAFAYETTE LA,SOCIAL SECURITY,,106 CORPORATE BLVD,LAFAYETTE,LA,70508,(888) 619-4771,0,0,0,0,0,0,0,0,0,0
807,HOUMA LA,SOCIAL SECURITY,STE 100,178 CIVIC CENTER BLVD,HOUMA,LA,70360,(866) 899-5631,0,0,0,0,0,0,0,0,0,0
808,HAMMOND LA,SOCIAL SECURITY,,2100 ROBIN AVE,HAMMOND,LA,70403,(855) 848-7937,0,0,0,0,0,0,0,0,0,0
809,NATCHITOCHES LA,SOCIAL SECURITY,,950 KEYSER AVE,NATCHITOCHES,LA,71457,(855) 634-4195,0,0,0,0,0,0,0,0,0,0
810,OPELOUSAS LA,SOCIAL SECURITY,,5097 I49 S SERVICE RD,OPELOUSAS,LA,70570,(866) 698-3338,0,0,0,0,0,0,0,0,0,0
812,MORGAN CITY LA,SOCIAL SECURITY,,1279 CLOTHILDE ST,MORGAN CITY,LA,70380,(855) 433-5874,0,0,0,0,0,0,0,0,0,0
813,AUSTIN TX,SOCIAL SECURITY,,1029 CAMINO LA COSTA,AUSTIN,TX,78752,(866) 627-6991,0,0,0,0,0,0,0,0,0,0
814,DALLAS NORTH TX,SOCIAL SECURITY,,10824 N.CENTRAL EXPWY,DALLAS,TX,75231,(866) 572-2492,0,0,0,0,0,0,0,0,0,0
815,SAN ANTONIO CENTRAL,SOCIAL SECURITY,,402 ISOM RD,SAN ANTONIO,TX,78216,(866) 571-0718,0,0,0,0,0,0,0,0,0,0
816,HOUSTON SOUTHWEST TX,SOCIAL SECURITY,,10703 STANCLIFF RD,HOUSTON,TX,77099,(866) 592-1608,0,0,0,0,0,0,0,0,0,0
817,EL PASO TX,SOCIAL SECURITY,,11111 GATEWAY W BLVD,EL PASO,TX,79935,(866) 563-9310,0,0,0,0,0,0,0,0,0,0
818,BEAUMONT TX,SOCIAL SECURITY,SUITE A,8455 DISHMAN RD,BEAUMONT,TX,77713,(866) 613-2864,0,0,0,0,0,0,0,0,0,0
819,TYLER TX,SOCIAL SECURITY,,5509  DONNYBROOK AVE,TYLER,TX,75703,(877) 319-5707,0,0,0,0,0,0,0,0,0,0
820,AMARILLO TX,SOCIAL SECURITY,,4750  CANYON DR,AMARILLO,TX,79109,(877) 803-6318,0,0,0,0,0,0,0,0,0,0
821,FORTWORTH TX,SOCIAL SECURITY,RM 1-A-01 FEDERAL BLDG,819 TAYLOR ST,FORT WORTH,TX,76102,(866) 704-4858,0,0,0,0,0,0,0,0,0,0
822,SAN ANGELO TX,SOCIAL SECURITY,,2851 SOUTHWEST BLVD,SAN ANGELO,TX,76904,(877) 840-5742,0,0,0,0,0,0,0,0,0,0
823,WICHITA FALLS TX,SOCIAL SECURITY,,4314 WENDOVER ST,WICHITA FALLS,TX,76309,(866) 815-9605,0,0,0,0,0,0,0,0,0,0
824,BROWNSVILLE TX,SOCIAL SECURITY,,3115 CENTRAL BLVD,BROWNSVILLE,TX,78520,(866) 964-6486,0,0,0,0,0,0,0,0,0,0
825,CORPUS CHRISTI TX,SOCIAL SECURITY,,3801 S PORT AVE,CORPUS CHRISTI,TX,78415,(866) 613-2859,0,0,0,0,0,0,0,0,0,0
826,WACO TX,SOCIAL SECURITY,STE A,1700 LAKE AIR DR,WACO,TX,76710,(866) 964-6304,0,0,0,0,0,0,0,0,0,0
827,LUBBOCK TX,SOCIAL SECURITY,,5825 16TH STREET,LUBBOCK,TX,79416,(866) 467-0460,0,0,0,0,0,0,0,0,0,0
828,LEAGUE CITY,SOCIAL SECURITY,,2835 GULF FRWY SOUTH,LEAGUE CITY,TX,77573,(866) 299-3254,0,0,0,0,0,0,0,0,0,0
829,ABILENE TX,SOCIAL SECURITY,,1202 E SOUTH 11TH ST,ABILENE,TX,79602,(877) 607-9525,0,0,0,0,0,0,0,0,0,0
830,PORT ARTHUR TX,SOCIAL SECURITY,,8208 9TH AVE,PORT ARTHUR,TX,77642,(866) 964-1720,0,0,0,0,0,0,0,0,0,0
831,PARIS TX,SOCIAL SECURITY,,2805 PINE MILL ROAD,PARIS,TX,75460,(888) 619-4772,0,0,0,0,0,0,0,0,0,0
832,BIG SPRING TX,SOCIAL SECURITY,,2006 EAST FM 700,BIG SPRING,TX,79720,(888) 748-2018,0,0,0,0,0,0,0,0,0,0
833,LUFKIN TX,SOCIAL SECURITY,,702 EAST DENMAN,LUFKIN,TX,75901,(877) 407-3442,0,0,0,0,0,0,0,0,0,0
834,ODESSA TX,SOCIAL SECURITY,,2015 E 37TH ST,ODESSA,TX,79762,(866) 404-1866,0,0,0,0,0,0,0,0,0,0
835,LONGVIEW TX,SOCIAL SECURITY,,611 CLINIC DR,LONGVIEW,TX,75605,(888) 617-0455,0,0,0,0,0,0,0,0,0,0
836,BRYAN TX,SOCIAL SECURITY,,2120 W BRIARGATE DR,BRYAN,TX,77802,(866) 568-9428,0,0,0,0,0,0,0,0,0,0
837,SHERMAN TX,SOCIAL SECURITY,,600 EAST PEYTON,SHERMAN,TX,75090,(877) 405-3521,0,0,0,0,0,0,0,0,0,0
838,TEMPLE TX,SOCIAL SECURITY,,511 NORTH MAIN,TEMPLE,TX,76501,(866) 593-1341,0,0,0,0,0,0,0,0,0,0
839,VICTORIA TX,SOCIAL SECURITY,,8208 NE ZAC LENTZ PKWY,VICTORIA,TX,77904,(877) 229-3536,0,0,0,0,0,0,0,0,0,0
840,LAREDO TX,SOCIAL SECURITY,,215 CALLE DEL NORTE,LAREDO,TX,78041,(866) 704-4857,0,0,0,0,0,0,0,0,0,0
841,MCALLEN TX,SOCIAL SECURITY,,3004 N MCCOLL RD,MCALLEN,TX,78501,(855) 886-9628,0,0,0,0,0,0,0,0,0,0
842,BROWNWOOD TX,SOCIAL SECURITY,SPACE 28 HEARTLAND MAL,300 EARLY BLVD,EARLY,TX,76802,(877) 405-3630,0,0,0,0,0,0,0,0,0,0
843,CORSICANA TX,SOCIAL SECURITY,,221 S 45TH ST,CORSICANA,TX,75110,(888) 456-9551,0,0,0,0,0,0,0,0,0,0
844,EAGLE PASS TX,SOCIAL SECURITY,,406 SOUTH TEXAS DRIVE,EAGLE PASS,TX,78852,(888) 862-4864,0,0,0,0,0,0,0,0,0,0
845,GREENVILLE TX,SOCIAL SECURITY,,2717 TERRELL ROAD,GREENVILLE,TX,75402,(888) 306-3534,0,0,0,0,0,0,0,0,0,0
846,PALESTINE TX,SOCIAL SECURITY,,215 MEDICAL DRIVE,PALESTINE,TX,75801,(866) 495-0089,0,0,0,0,0,0,0,0,0,0
847,PAMPA TX,SOCIAL SECURITY,,2333 N HOBART ST,PAMPA,TX,79065,(877) 897-0603,0,0,0,0,0,0,0,0,0,0
850,PASADENA TX,SOCIAL SECURITY,,3300 WATTERS ROAD,PASADENA,TX,77504,(866) 563-4603,0,0,0,0,0,0,0,0,0,0
851,DALLAS FAIR PARK TX,SOCIAL SECURITY,,2530 S MALCOLM X BLVD,DALLAS,TX,75215,(888) 717-1529,0,0,0,0,0,0,0,0,0,0
852,SAN ANTONIO NW TX,SOCIAL SECURITY,,411 RICHLAND HILLS DR,SAN ANTONIO,TX,78245,(877) 697-4799,0,0,0,0,0,0,0,0,0,0
853,DALLAS OAK CLIFF TX,SOCIAL SECURITY,2475 CLIFF CREEK,CROSSING,DALLAS,TX,75237,(866) 931-4958,0,0,0,0,0,0,0,0,0,0
855,HOUSTON NORTHWEST TX,SOCIAL SECURITY,,16200 DILLARD DR,HOUSTON,TX,77040,(866) 331-3277,0,0,0,0,0,0,0,0,0,0
856,HOUSTON NORTHEAST TX,SOCIAL SECURITY,,5414 ALDINE MAIL RD,HOUSTON,TX,77039,(866) 931-2729,0,0,0,0,0,0,0,0,0,0
857,HOUSTON SOUTHEAST TX,SOCIAL SECURITY,,8989 LAKES AT 610 DR,HOUSTON,TX,77054,(866) 404-1861,0,0,0,0,0,0,0,0,0,0
858,ALBUQUERQUE NM,SOCIAL SECURITY,SUITE 100,500 LEAD AVE SW,ALBUQUERQUE,NM,87102,(866) 613-9961,0,0,0,0,0,0,0,0,0,0
859,ROSWELL NM,SOCIAL SECURITY,500 N RICHARDSON AVENUE,ROOM 122,ROSWELL,NM,88201,(866) 563-9470,0,0,0,0,0,0,0,0,0,0
860,SANTA FE NM,SOCIAL SECURITY,,1922 5TH STREET,SANTA FE,NM,87505,(866) 571-8130,0,0,0,0,0,0,0,0,0,0
861,GALLUP NM,SOCIAL SECURITY,,2070 EAST AZTEC AVENUE,GALLUP,NM,87301,(888) 810-3744,0,0,0,0,0,0,0,0,0,0
862,CLOVIS NM,SOCIAL SECURITY,ODAR,1208 ARCINEIGA DR,CLOVIS,NM,88101,(866) 931-9945,0,0,0,0,0,0,0,0,0,0
863,LAS CRUCES NM,SOCIAL SECURITY,,2141 SUMMIT COURT,LAS CRUCES,NM,88011,(866) 563-9294,0,0,0,0,0,0,0,0,0,0
864,FARMINGTON NM,SOCIAL SECURITY,,4650 N BUTLER,FARMINGTON,NM,87401,(866) 931-7656,0,0,0,0,0,0,0,0,0,0
865,HELENA MT,SOCIAL SECURITY,SUITE 1600,10 W 15TH ST,HELENA,MT,59626,(866) 563-9496,0,0,0,0,0,0,0,0,0,0
866,BUTTE MT,SOCIAL SECURITY,,2201 HARRISON,BUTTE,MT,59701,(888) 632-7068,0,0,0,0,0,0,0,0,0,0
868,BILLINGS MT,SOCIAL SECURITY,ROOM 304,2900 4TH AVE N,BILLINGS,MT,59101,(866) 895-1795,0,0,0,0,0,0,0,0,0,0
869,GREAT FALLS MT,SOCIAL SECURITY,,2008 23RD ST. S.,GREAT FALLS,MT,59405,(877) 583-4114,0,0,0,0,0,0,0,0,0,0
870,ST AUGUSTINE FL,SOCIAL SECURITY,,2428 OLD MOULTRIE ROAD,ST AUGUSTINE,FL,32086,(877) 405-5867,0,0,0,0,0,0,0,0,0,0
871,MISSOULA MT,SOCIAL SECURITY,,3701 AMERICAN WAY,MISSOULA,MT,59808,(866) 931-9029,0,0,0,0,0,0,0,0,0,0
872,KALISPELL MT,SOCIAL SECURITY,275 CORPORATE DR,SUITE D,KALISPELL,MT,59901,(888) 487-0150,0,0,0,0,0,0,0,0,0,0
873,MID CITIES TX,SOCIAL SECURITY,,2010 N STATE HWY 360,GRAND PRAIRIE,TX,75050,(855) 722-3499,0,0,0,0,0,0,0,0,0,0
874,ALICE TX,SOCIAL SECURITY,,1000 MEDICAL CTR BLVD,ALICE,TX,78332,(888) 388-8744,0,0,0,0,0,0,0,0,0,0
875,HARLINGEN TX,SOCIAL SECURITY,,2005 W JEFFERSON AVE,HARLINGEN,TX,78550,(866) 931-7075,0,0,0,0,0,0,0,0,0,0
876,CHEYENNE WY,SOCIAL SECURITY,SUITE 140,3001 E PERSHING BLVD,CHEYENNE,WY,82001,(866) 336-7580,0,0,0,0,0,0,0,0,0,0
877,CASPER WY,SOCIAL SECURITY,ROOM 1008,150 E B ST,CASPER,WY,82601,(866) 964-3972,0,0,0,0,0,0,0,0,0,0
878,RHINELANDER WI,SOCIAL SECURITY,,2023 NAVAJO ST,RHINELANDER,WI,54501,(888) 868-8185,0,0,0,0,0,0,0,0,0,0
880,SAN ANTONIO SOUTH TX,SOCIAL SECURITY,,3438 E SOUTHCROSS BLVD,SAN ANTONIO,TX,78223,(866) 964-7432,0,0,0,0,0,0,0,0,0,0
881,SAULT ST MARIE MI,SOCIAL SECURITY,STE 1,2861 ASHMUN ST,SAULT SAINTE MARIE,MI,49783,(855) 285-6007,0,0,0,0,0,0,0,0,0,0
882,DENVER CO,SOCIAL SECURITY,2ND FL SUITE 200,1500 CHAMPA ST,DENVER,CO,80202,(866) 613-9904,0,0,0,0,0,0,0,0,0,0
883,PUEBLO CO,SOCIAL SECURITY,,3769 PARKER BLVD,PUEBLO,CO,81008,(888) 737-1761,0,0,0,0,0,0,0,0,0,0
884,GRAND JUNCTION CO,SOCIAL SECURITY,,825 NORTH CREST DRIVE,GRAND JUNCTION,CO,81506,(866) 931-7120,0,0,0,0,0,0,0,0,0,0
885,GREELEY CO,SOCIAL SECURITY,SUITE A,5400 WEST 11 ST,GREELEY,CO,80634,(877) 405-9195,0,0,0,0,0,0,0,0,0,0
886,TRINIDAD CO,SOCIAL SECURITY,,111 WAVERLY AVENUE,TRINIDAD,CO,81082,(866) 755-5009,0,0,0,0,0,0,0,0,0,0
887,COLORADO SPRINGS CO,SOCIAL SECURITY,,2306 E PIKES PEAK AVE,COLORADO SPRINGS,CO,80909,(888) 880-0688,0,0,0,0,0,0,0,0,0,0
888,ALAMOSA CO,SOCIAL SECURITY,,602 DEL SOL DRIVE 1-A,ALAMOSA,CO,81101,(888) 475-0297,0,0,0,0,0,0,0,0,0,0
889,LOUISVILLE CO,SOCIAL SECURITY,,480 W DAHLIA ST,LOUISVILLE,CO,80027,(877) 405-5872,0,0,0,0,0,0,0,0,0,0
890,DURANGO CO,SOCIAL SECURITY,SUITE 120,103 SHEPPARD DRIVE,DURANGO,CO,81303,(888) 472-6115,0,0,0,0,0,0,0,0,0,0
891,FORT COLLINS CO,SOCIAL SECURITY,4TH FLOOR,301 S HOWES ST,FT COLLINS,CO,80521,(866) 336-7385,0,0,0,0,0,0,0,0,0,0
893,BOISE ID,SOCIAL SECURITY,SUITE 101,1249 S VINNELL WAY,BOISE,ID,83709,(855) 377-9316,0,0,0,0,0,0,0,0,0,0
894,POCATELLO ID,SOCIAL SECURITY,SUITE B,861 JEFFERSON AVE,POCATELLO,ID,83201,(866) 643-3407,0,0,0,0,0,0,0,0,0,0
895,LEWISTON ID,SOCIAL SECURITY,,1617 19TH AVE,LEWISTON,ID,83501,(877) 405-9796,0,0,0,0,0,0,0,0,0,0
896,TWIN FALLS ID,SOCIAL SECURITY,,1437 FILLMORE ST,TWIN FALLS,ID,83301,(866) 748-2087,0,0,0,0,0,0,0,0,0,0
897,IDAHO FALLS ID,SOCIAL SECURITY,,2196 CHANNING WAY,IDAHO FALLS,ID,83404,(866) 253-0489,0,0,0,0,0,0,0,0,0,0
898,COEUR D ALENE I,SOCIAL SECURITY,SUITE 100,7400 N MINERAL DRIVE,COEUR D'ALENE,ID,83815,(866) 931-2523,0,0,0,0,0,0,0,0,0,0
899,CALDWELL ID,SOCIAL SECURITY,,1118 SOUTH KIMBALL AVE,CALDWELL,ID,83605,(877) 836-1560,0,0,0,0,0,0,0,0,0,0
900,SALT LAKE CITY UTAH,SOCIAL SECURITY,SUITE 500,175 EAST 400 SOUTH,SALT LAKE CITY,UT,84111,(866) 851-5275,0,0,0,0,0,0,0,0,0,0
901,OGDEN UT,SOCIAL SECURITY,2ND FL FOB,324 25TH STREET,OGDEN,UT,84401,(877) 378-9081,0,0,0,0,0,0,0,0,0,0
902,PROVO UT,SOCIAL SECURITY,J. WILL ROBINSON FOB,88 WEST 100 NORTH,PROVO,UT,84601,(866) 366-9549,0,0,0,0,0,0,0,0,0,0
903,CASA GRANDE AZ,SOCIAL SECURITY,SUITE 2,1637 E MONUMENT PLZ CR,CASA GRANDE,AZ,85122,(877) 405-0403,0,0,0,0,0,0,0,0,0,0
904,BOYLE HEIGHTS CA,SOCIAL SECURITY,,215 N SOTO STREET,LOS ANGELES,CA,90033,(866) 964-1775,0,0,0,0,0,0,0,0,0,0
906,HEMET CA,SOCIAL SECURITY,,3095 W DEVONSHIRE AVE,HEMET,CA,92545,(855) 207-7083,0,0,0,0,0,0,0,0,0,0
907,PHOENIX NORTH AZ,SOCIAL SECURITY,,16241 N TATUM BLVD,PHOENIX,AZ,85032,(866) 348-7855,0,0,0,0,0,0,0,0,0,0
908,TUCSON AZ,SOCIAL SECURITY,,3808 N 1ST AVE,TUCSON,AZ,85719,(866) 331-7693,0,0,0,0,0,0,0,0,0,0
909,PRESCOTT AZ,SOCIAL SECURITY,,205 N MARINA,PRESCOTT,AZ,86301,(877) 457-1733,0,0,0,0,0,0,0,0,0,0
910,RICE LAKE WI,SOCIAL SECURITY,,1703 W KNAPP STREET,RICE LAKE,WI,54868,(888) 823-3923,0,0,0,0,0,0,0,0,0,0
911,YUMA AZ,SOCIAL SECURITY,,325 W 19TH ST SUITE 1,YUMA,AZ,85364,(866) 613-2970,0,0,0,0,0,0,0,0,0,0
912,APACHE JUNCTION AZ,SOCIAL SECURITY,,253 W SUPERSTITION BLV,APACHE JUNCTION,AZ,85120,(866) 964-7417,0,0,0,0,0,0,0,0,0,0
913,PHOENIX DOWNTOWN AZ,SOCIAL SECURITY,SUITE 100,250 N SEVENTH AVE,PHOENIX,AZ,85007,(866) 964-4852,0,0,0,0,0,0,0,0,0,0
914,GLENDALE AZ,SOCIAL SECURITY,,5907 W KINGS AVE,GLENDALE,AZ,85306,(888) 886-7213,0,0,0,0,0,0,0,0,0,0
915,SPOKANE WA,SOCIAL SECURITY,SUITE 100,714 N IRON BRIDGE WAY,SPOKANE,WA,99202,(866) 331-5532,0,0,0,0,0,0,0,0,0,0
916,SEATTLE METRO WA,SOCIAL SECURITY,SUITE 901,915 2ND AVE,SEATTLE,WA,98174,(866) 494-3135,0,0,0,0,0,0,0,0,0,0
917,TACOMA WA,SOCIAL SECURITY,SUITE A,2608 S 47TH ST,TACOMA,WA,98409,(888) 487-9229,0,0,0,0,0,0,0,0,0,0
918,OLYMPIA WA,SOCIAL SECURITY,,402 YAUGER WAY SW,OLYMPIA,WA,98502,(866) 755-6199,0,0,0,0,0,0,0,0,0,0
919,YAKIMA WA,SOCIAL SECURITY,,801 FRUITVALE BLVD,YAKIMA,WA,98902,(866) 338-8552,0,0,0,0,0,0,0,0,0,0
920,BELLINGHAM WA,SOCIAL SECURITY,,710 ALABAMA ST,BELLINGHAM,WA,98225,(866) 256-6906,0,0,0,0,0,0,0,0,0,0
921,GRAYS HARBOR WA,SOCIAL SECURITY,,820 SIMPSON AVE,HOQUIAM,WA,98550,(855) 634-4197,0,0,0,0,0,0,0,0,0,0
922,EVERETT WA,SOCIAL SECURITY,,3809 BROADWAY,EVERETT,WA,98201,(866) 563-4595,0,0,0,0,0,0,0,0,0,0
923,VANCOUVER WA,SOCIAL SECURITY,SUITE 500,805 BROADWAY ST,VANCOUVER,WA,98660,(866) 605-8967,0,0,0,0,0,0,0,0,0,0
924,WENATCHEE WA,SOCIAL SECURITY,STE 212,301 YAKIMA STREET,WENATCHEE,WA,98801,(877) 669-3125,0,0,0,0,0,0,0,0,0,0
925,WALLA WALLA WA,SOCIAL SECURITY,,880 NE ROSE ST,COLLEGE PLACE,WA,99324,(866) 366-7814,0,0,0,0,0,0,0,0,0,0
926,KITSAP WA,SOCIAL SECURITY,,9594 MICKELBERRY RD NW,SILVERDALE,WA,98383,(855) 820-0098,0,0,0,0,0,0,0,0,0,0
927,TRI-CITIES WA,SOCIAL SECURITY,SUITE A,8131 W KLAMATH CT,KENNEWICK,WA,99336,(866) 269-6671,0,0,0,0,0,0,0,0,0,0
928,LONGVIEW WA,SOCIAL SECURITY,SUITE 150,840 OCEAN BEACH HWY,LONGVIEW,WA,98632,(866) 495-0044,0,0,0,0,0,0,0,0,0,0
929,MESA AZ,SOCIAL SECURITY,,702 W JEROME AVENUE,MESA,AZ,85210,(866) 964-1716,0,0,0,0,0,0,0,0,0,0
930,SOUTH TUCSON AZ,SOCIAL SECURITY,SUITE 100,88 W 38TH ST,TUCSON,AZ,85713,(866) 220-7896,0,0,0,0,0,0,0,0,0,0
931,SAN MARCOS CA,SOCIAL SECURITY,,367 VIA VERA CRUZ,SAN MARCOS,CA,92078,(866) 614-4769,0,0,0,0,0,0,0,0,0,0
932,PORTLAND METRO OR,SOCIAL SECURITY,,1538 SW YAMHILL ST,PORTLAND,OR,97205,(888) 632-6990,0,0,0,0,0,0,0,0,0,0
933,EUGENE OR,SOCIAL SECURITY,,2504 OAKMONT WAY,EUGENE,OR,97401,(866) 563-3450,0,0,0,0,0,0,0,0,0,0
935,SALEM OR,SOCIAL SECURITY,STE 110,1750 MCGILCHRIST ST SE,SALEM,OR,97302,(866) 593-1559,0,0,0,0,0,0,0,0,0,0
936,LA GRANDE OR,SOCIAL SECURITY,,2205 COVE AVE,LA GRANDE,OR,97850,(888) 810-7611,0,0,0,0,0,0,0,0,0,0
937,MEDFORD OR,SOCIAL SECURITY,SUITE 101,3501 EXCEL DR,MEDFORD,OR,97504,(866) 931-7943,0,0,0,0,0,0,0,0,0,0
938,NORTH BEND OR,SOCIAL SECURITY,,3661 BROADWAY,NORTH BEND,OR,97459,(866) 275-9901,0,0,0,0,0,0,0,0,0,0
939,ROSEBURG OR,SOCIAL SECURITY,,1730 NW HUGHWOOD AVE,ROSEBURG,OR,97471,(866) 614-0031,0,0,0,0,0,0,0,0,0,0
940,PORTLAND-EAST O,SOCIAL SECURITY,,17925 SE DIVISION ST,PORTLAND,OR,97236,(866) 331-6402,0,0,0,0,0,0,0,0,0,0
941,OREGON CITY,SOCIAL SECURITY,,194 BEVERLY DRIVE,OREGON CITY,OR,97045,(866) 964-4264,0,0,0,0,0,0,0,0,0,0
942,DELANO CA,SOCIAL SECURITY,BUILDING C,2234 GIRARD STREET,DELANO,CA,93215,(866) 635-0287,0,0,0,0,0,0,0,0,0,0
943,WEST COVINA CA,SOCIAL SECURITY,SUITE 201,501 S VINCENT AVE,WEST COVINA,CA,91790,(866) 964-0162,0,0,0,0,0,0,0,0,0,0
944,PORTERVILLE CA,SOCIAL SECURITY,,890 W MORTON AVENUE,PORTERVILLE,CA,93257,(866) 388-8903,0,0,0,0,0,0,0,0,0,0
945,RENO NV,SOCIAL SECURITY,,1170 HARVARD WAY,RENO,NV,89502,(888) 808-5481,0,0,0,0,0,0,0,0,0,0
946,LAS VEGAS NV,SOCIAL SECURITY,SUITE 150,1250 S BUFFALO DR,LAS VEGAS,NV,89117,(866) 704-4859,0,0,0,0,0,0,0,0,0,0
947,MADERA CA,SOCIAL SECURITY,,348 E YOSEMITE AVE,MADERA,CA,93638,(877) 405-1453,0,0,0,0,0,0,0,0,0,0
948,WATSONVILLE CA,SOCIAL SECURITY,SUITE 301,180 WESTGATE DRIVE,WATSONVILLE,CA,95076,(800) 521-3385,0,0,0,0,0,0,0,0,0,0
949,CARROLLWOOD FL,SOCIAL SECURITY,SUITE 100,4010 GUNN HIGHWAY,TAMPA,FL,33618,(855) 433-5873,0,0,0,0,0,0,0,0,0,0
950,SF DOWNTOWN CA,SOCIAL SECURITY,ANNEX 1ST FL,90 7TH ST,SAN FRANCISCO,CA,94103,(866) 964-5051,0,0,0,0,0,0,0,0,0,0
951,LOS ANGELES DOWNTOWN,SOCIAL SECURITY,6TH FLOOR,611 W 6TH STREET,LOS ANGELES,CA,90017,(877) 803-6308,0,0,0,0,0,0,0,0,0,0
952,FRESNO CA,SOCIAL SECURITY,,640 W LOCUST AVENUE,FRESNO,CA,93650,(866) 931-9041,0,0,0,0,0,0,0,0,0,0
953,OAKLAND DT CA,SOCIAL SECURITY,SUITE 400,360 22ND ST,OAKLAND,CA,94612,(866) 964-7420,0,0,0,0,0,0,0,0,0,0
954,SAN DIEGO CA,SOCIAL SECURITY,,1333 FRONT STREET,SAN DIEGO,CA,92101,(855) 820-0097,0,0,0,0,0,0,0,0,0,0
955,SACRAMENTO CA,SOCIAL SECURITY,SUITE A,8581 FOLSOM BLVD,SACRAMENTO,CA,95826,(877) 274-5419,0,0,0,0,0,0,0,0,0,0
956,EUREKA CA,SOCIAL SECURITY,,3144 BROADWAY,EUREKA,CA,95501,(866) 828-1991,0,0,0,0,0,0,0,0,0,0
957,PASADENA CA,SOCIAL SECURITY,,104 N MENTOR AVENUE,PASADENA,CA,91106,(877) 255-1508,0,0,0,0,0,0,0,0,0,0
958,LONG BEACH CA,SOCIAL SECURITY,,2005 LONG BEACH BLVD,LONG BEACH,CA,90806,(888) 256-2631,0,0,0,0,0,0,0,0,0,0
959,SAN BERNARDINO CA,SOCIAL SECURITY,SUITE 101,605 N ARROWHEAD AVE,SAN BERNARDINO,CA,92401,(866) 331-7132,0,0,0,0,0,0,0,0,0,0
960,SAN JOSE CA,SOCIAL SECURITY,ROOM 244 2ND FLOOR,280 S FIRST STREET,SAN JOSE,CA,95113,(866) 331-2235,0,0,0,0,0,0,0,0,0,0
961,SANTA BARBARA CA,SOCIAL SECURITY,,122 W FIGUEROA ST,SANTA BARBARA,CA,93101,(866) 695-6285,0,0,0,0,0,0,0,0,0,0
962,STOCKTON CA,SOCIAL SECURITY,,4747 FEATHER RIVER DR,STOCKTON,CA,95219,(877) 803-6314,0,0,0,0,0,0,0,0,0,0
963,BAKERSFIELD CA,SOCIAL SECURITY,,5300 OFFICE PARK DRIVE,BAKERSFIELD,CA,93309,(866) 476-1489,0,0,0,0,0,0,0,0,0,0
964,SANTA ROSA CA,SOCIAL SECURITY,2099 RANGE AVENUE,BUILDING A,SANTA ROSA,CA,95401,(877) 870-6384,0,0,0,0,0,0,0,0,0,0
965,GLENDALE CA,SOCIAL SECURITY,SUITE 600,225 W BROADWAY,GLENDALE,CA,91204,(855) 886-9633,0,0,0,0,0,0,0,0,0,0
966,HUNTINGTON PARK CA,SOCIAL SECURITY,,6303 RUGBY AVENUE,HUNTINGTON PARK,CA,90255,(866) 931-9941,0,0,0,0,0,0,0,0,0,0
967,SAN MATEO CA,SOCIAL SECURITY,SUITE 101,800 SOUTH CLAREMONT ST,SAN MATEO,CA,94402,(866) 726-8193,0,0,0,0,0,0,0,0,0,0
968,HOLLYWOOD CA,SOCIAL SECURITY,,1122 N VINE ST,HOLLYWOOD,CA,90038,(866) 613-2861,0,0,0,0,0,0,0,0,0,0
969,REDDING CA,SOCIAL SECURITY,SUITE A,2660 PARK MARINA DR,REDDING,CA,96001,(866) 964-1236,0,0,0,0,0,0,0,0,0,0
970,L.A. WESTWOOD CA,SOCIAL SECURITY,SUITE 300,11500 W OLYMPIC BLVD,LOS ANGELES,CA,90064,(866) 964-4779,0,0,0,0,0,0,0,0,0,0
971,INGLEWOOD CA,SOCIAL SECURITY,,230 EAST SPRUCE AVENUE,INGLEWOOD,CA,90301,(866) 331-7694,0,0,0,0,0,0,0,0,0,0
972,SANTA ANA CA,SOCIAL SECURITY,FIFTH FLOOR,1851 EAST FIRST STREET,SANTA ANA,CA,92705,(888) 366-6146,0,0,0,0,0,0,0,0,0,0
973,VALLEJO CA,SOCIAL SECURITY,SUITE A,106 PLAZA DR,VALLEJO,CA,94591,(888) 808-5487,0,0,0,0,0,0,0,0,0,0
974,VENTURA CA,SOCIAL SECURITY,SUITE 1,6477 TELEPHONE ROAD,VENTURA,CA,93003,(877) 651-7118,0,0,0,0,0,0,0,0,0,0
975,PANORAMA CITY CA,SOCIAL SECURITY,14500 ROSCOE BLVD,SUITE 207,PANORAMA CITY,CA,91402,(866) 341-0785,0,0,0,0,0,0,0,0,0,0
976,BERKELEY CA,SOCIAL SECURITY,,2045 ALLSTON WAY,BERKELEY,CA,94704,(877) 531-4696,0,0,0,0,0,0,0,0,0,0
978,MODESTO CA,SOCIAL SECURITY,SUITE E1,1521 N CARPENTER RD,MODESTO,CA,95351,(888) 748-7698,0,0,0,0,0,0,0,0,0,0
979,CHICO CA,SOCIAL SECURITY,STE 150,1370 E. LASSEN AVE,CHICO,CA,95973,(866) 964-7585,0,0,0,0,0,0,0,0,0,0
980,VISALIA CA,SOCIAL SECURITY,,1901 E NOBLE AVENUE,VISALIA,CA,93292,(866) 344-8475,0,0,0,0,0,0,0,0,0,0
981,POMONA VALLEY CA,SOCIAL SECURITY,,960 W MISSION BLVD,POMONA,CA,91766,(888) 808-5486,0,0,0,0,0,0,0,0,0,0
982,WHITTIER CA,SOCIAL SECURITY,SUITE 200,7200 GREENLEAF,WHITTIER,CA,90602,(866) 336-2187,0,0,0,0,0,0,0,0,0,0
983,TORRANCE CA,SOCIAL SECURITY,SUITE 150,20000 MARINER AVE,TORRANCE,CA,90503,(877) 319-0732,0,0,0,0,0,0,0,0,0,0
984,SALINAS CA,SOCIAL SECURITY,SUITE 155,928 EAST BLANCO RD,SALINAS,CA,93901,(877) 600-2857,0,0,0,0,0,0,0,0,0,0
985,EL CENTRO CA,SOCIAL SECURITY,,3007 N IMPERIAL AVE,EL CENTRO,CA,92243,(866) 593-5680,0,0,0,0,0,0,0,0,0,0
986,SAN LUIS OBISPO CA,SOCIAL SECURITY,,3240 S HIGUERA ST,SAN LUIS OBISPO,CA,93401,(855) 207-4865,0,0,0,0,0,0,0,0,0,0
987,OCEANSIDE CA,SOCIAL SECURITY,,2160 S EL CAMINO REAL,OCEANSIDE,CA,92054,(855) 287-4793,0,0,0,0,0,0,0,0,0,0
988,SAN RAFAEL CA,SOCIAL SECURITY,SUITE 200,99 SMITH RANCH ROAD,SAN RAFAEL,CA,94903,(866) 331-7761,0,0,0,0,0,0,0,0,0,0
989,YUBA CITY CA,SOCIAL SECURITY,,355 PERCY AVENUE,YUBA CITY,CA,95991,(866) 331-5449,0,0,0,0,0,0,0,0,0,0
990,HONOLULU HI,SOCIAL SECURITY,RM 1-114 FED BLDG,300 ALA MOANA BLVD,HONOLULU,HI,96850,(855) 572-4879,0,0,0,0,0,0,0,0,0,0
991,HILO HI,SOCIAL SECURITY,SUITE 710,111 E PUAINAKO ST,HILO,HI,96720,(855) 572-4860,0,0,0,0,0,0,0,0,0,0
993,LIHUE HI,SOCIAL SECURITY,SUITE 105,4334 RICE STREET,LIHUE,HI,96766,(855) 572-4842,0,0,0,0,0,0,0,0,0,0
996,JUNEAU AK,SOCIAL SECURITY,PO BOX 21327,709 W 9TH ST. ROOM 231,JUNEAU,AK,99802,(800) 478-7124,0,0,0,0,0,0,0,0,0,0
997,ANCHORAGE AK,SOCIAL SECURITY,ROOM A11,222 W 8TH AVE,ANCHORAGE,AK,99513,(866) 772-3081,0,0,0,0,0,0,0,0,0,0
998,FAIRBANKS AK,SOCIAL SECURITY,RM 138,101 12TH AVENUE,FAIRBANKS,AK,99701,(800) 478-0391,0,0,0,0,0,0,0,0,0,0
00K,RIO RANCHO NM,SOCIAL SECURITY,,4433 JAGER DR NE,RIO RANCHO,NM,87144,(866) 530-7783,0,0,0,0,0,0,0,0,0,0
00N,SAN ANTONIO DOWNTOWN,SOCIAL SECURITY,RM 701 7TH FLOOR,727 E CESAR CHAVEZ,SAN ANTONIO,TX,78206,(877) 405-0482,0,0,0,0,0,0,0,0,0,0
00Y,AUSTIN SOUTH TX,SOCIAL SECURITY,BLDG B,5508 HWY 290 WEST,AUSTIN,TX,78735,(855) 221-3523,0,0,0,0,0,0,0,0,0,0
11A,MISSION TX,SOCIAL SECURITY,,1013 BUSINESS PARK DR,MISSION,TX,78572,(855) 245-0647,0,0,0,0,0,0,0,0,0,0
A00,HENDERSON NV,SOCIAL SECURITY,,10416 S EASTERN AVENUE,HENDERSON,NV,89052,(855) 207-7088,0,0,0,0,0,0,0,0,0,0
A01,SUSANVILLE,SOCIAL SECURITY,,2603 RIVERSIDE DR,SUSANVILLE,CA,96130,(855) 420-8563,0,0,0,0,0,0,0,0,0,0
A03,YREKA CA,SOCIAL SECURITY,,1960 S. OREGON STREET,YREKA,CA,96097,(888) 366-6145,0,0,0,0,0,0,0,0,0,0
A06,PT CHARLOTTE FL,SOCIAL SECURITY,SUITE 200,1600 TAMIAMI TRAIL,PORT CHARLOTTE,FL,33948,(877) 405-0490,0,0,0,0,0,0,0,0,0,0
A07,ST GEORGE UT,SOCIAL SECURITY,SUITE 1100,1091 NORTH BLUFF ST,SAINT GEORGE,UT,84770,(866) 446-7085,0,0,0,0,0,0,0,0,0,0
A09,THOUSAND OAKS CA,SOCIAL SECURITY,SUITE 110,322 E THOUSAND OAKS BL,THOUSAND OAKS,CA,91360,(888) 397-4807,0,0,0,0,0,0,0,0,0,0
A10,SANTA CLARITA CA,SOCIAL SECURITY,"3RD FLOOR, STE 320",27200 TOURNEY RD,VALENCIA,CA,91355,(888) 632-7072,0,0,0,0,0,0,0,0,0,0
A14,VENICE FL,SOCIAL SECURITY,114,1435 E VENICE AVE,VENICE,FL,34292,(888) 676-2944,0,0,0,0,0,0,0,0,0,0
A15,COLORADO RIVER BASIN / NEEDLES CA,SOCIAL SECURITY,,1502 BAILEY AVENUE,NEEDLES,CA,92363,(866) 596-7946,0,0,0,0,0,0,0,0,0,0
A16,KISSIMMEE FL,SOCIAL SECURITY,,1201 E OAK ST,KISSIMMEE,FL,34744,(866) 614-4754,0,0,0,0,0,0,0,0,0,0
A17,CRESCENT CITY CA,SOCIAL SECURITY,,560 E HOOVER AVE,CRESCENT CITY,CA,95531,(855) 727-3600,0,0,0,0,0,0,0,0,0,0
A20,FT WALTON BEACH FL,SOCIAL SECURITY,,111B RACETRACK RD NW,FORT WALTON BEACH,FL,32547,(866) 331-2194,0,0,0,0,0,0,0,0,0,0
A21,CULLMAN AL,SOCIAL SECURITY,,1908 COMMERCE AVE NW,CULLMAN,AL,35055,(877) 803-6323,0,0,0,0,0,0,0,0,0,0
A23,EAST HARTFORD CT,SOCIAL SECURITY,,478 BURNSIDE AVENUE,EAST HARTFORD,CT,06108,(866) 706-6759,0,0,0,0,0,0,0,0,0,0
A24,SACO ME,SOCIAL SECURITY,SUITE 1450,110 MAIN ST,SACO,ME,04072,(877) 253-4715,0,0,0,0,0,0,0,0,0,0
A25,GLASSBORO NJ,SOCIAL SECURITY,,830 DELSEA DR NORTH,GLASSBORO,NJ,08028,(866) 883-5305,0,0,0,0,0,0,0,0,0,0
A26,TOMS RIVER NJ,SOCIAL SECURITY,,190 ST CATHERINE BLVD,TOMS RIVER,NJ,08755,(877) 255-1497,0,0,0,0,0,0,0,0,0,0
A27,RIO GRANDE NJ,SOCIAL SECURITY,,1046 ROUTE 47 SOUTH,RIO GRANDE,NJ,08242,(877) 405-9194,0,0,0,0,0,0,0,0,0,0
A29,GUAYAMA PR,SOCIAL SECURITY,EDIF CFSE PISO 3,54 RD 3 ALBIZU CAMPOS,GUAYAMA,PR,00784,(866) 272-8158,0,0,0,0,0,0,0,0,0,0
A30,HUMACAO PR,SOCIAL SECURITY,SUITE 295,260 BOULEVARD DEL RIO,HUMACAO,PR,00791,(866) 604-3335,0,0,0,0,0,0,0,0,0,0
A31,CAROLINA PR,SOCIAL SECURITY,5829 65 INF AVE,STE 201,CAROLINA,PR,00987,(833) 882-1202,0,0,0,0,0,0,0,0,0,0
A32,LAKEPORT CA,SOCIAL SECURITY,STE A,991 PARALLEL DR,LAKEPORT,CA,95453,(888) 676-2666,0,0,0,0,0,0,0,0,0,0
A33,ROCKVILLE MD,SOCIAL SECURITY,,315 N WASHINGTON ST,ROCKVILLE,MD,20850,(866) 838-5341,0,0,0,0,0,0,0,0,0,0
A34,MT LEBANON PA,SOCIAL SECURITY,SUITE 120,650 WASHINGTON ROAD,PITTSBURGH,PA,15228,(888) 717-1525,0,0,0,0,0,0,0,0,0,0
A35,CARLISLE PA,SOCIAL SECURITY,,200 S SPRING GARDEN ST,CARLISLE,PA,17013,(866) 635-0507,0,0,0,0,0,0,0,0,0,0
A38,FREDERICKSBURG,SOCIAL SECURITY,,9915 JEFF DAVIS HWY,FREDERICKSBURG,VA,22407,(888) 759-3919,0,0,0,0,0,0,0,0,0,0
A39,MANASSAS VA,SOCIAL SECURITY,,9500 CENTER STREET,MANASSAS,VA,20110,(855) 210-0123,0,0,0,0,0,0,0,0,0,0
A40,MARTINSVILLE VA,SOCIAL SECURITY,,320 W COMMONWEALTH BLV,MARTINSVILLE,VA,24112,(877) 405-9780,0,0,0,0,0,0,0,0,0,0
A41,CHESTERFIELD,SOCIAL SECURITY,600 SOUTHLAKE BLVD,SUITE 100,NORTH CHESTERFIELD,VA,23236,(877) 773-7231,0,0,0,0,0,0,0,0,0,0
A43,WINTER HAVEN FL,SOCIAL SECURITY,,1395 NW HAVENDALE BLVD,WINTER HAVEN,FL,33881,(877) 457-1739,0,0,0,0,0,0,0,0,0,0
A44,STATESBORO GA,SOCIAL SECURITY,,1050 BRANNEN ST,STATESBORO,GA,30461,(866) 748-2088,0,0,0,0,0,0,0,0,0,0
A45,LOUISVILLE EAST KY,SOCIAL SECURITY,SUITE 50,10503 TIMBERWOOD CIR,LOUISVILLE,KY,40223,(888) 280-5851,0,0,0,0,0,0,0,0,0,0
A46,RICHMOND KY,SOCIAL SECURITY,,1060 GIBSON BAY DRIVE,RICHMOND,KY,40475,(866) 838-8945,0,0,0,0,0,0,0,0,0,0
A47,PHILADELPHIA MS,SOCIAL SECURITY,,100 PILOT ST,PHILADELPHIA,MS,39350,(877) 531-4681,0,0,0,0,0,0,0,0,0,0
A48,WHITEVILLE NC,SOCIAL SECURITY,,204 S LEE ST,WHITEVILLE,NC,28472,(877) 779-7257,0,0,0,0,0,0,0,0,0,0
A49,WILSON NC,SOCIAL SECURITY,,1911 WESTWOOD AVE W,WILSON,NC,27893,(866) 366-5804,0,0,0,0,0,0,0,0,0,0
A51,OAK RIDGE TN,SOCIAL SECURITY,,565 OAK RIDGE TPKE,OAK RIDGE,TN,37830,(888) 676-2954,0,0,0,0,0,0,0,0,0,0
A53,MORONGO BASIN CA,SOCIAL SECURITY,,56492 29 PALMS HWY,YUCCA VALLEY,CA,92284,(877) 325-7417,0,0,0,0,0,0,0,0,0,0
A55,WOODRIDGE IL,SOCIAL SECURITY,,7440 PROVIDENCE DR,WOODRIDGE,IL,60517,(866) 303-2724,0,0,0,0,0,0,0,0,0,0
A56,LITCHFIELD IL,SOCIAL SECURITY,,1107 W FERDON,LITCHFIELD,IL,62056,(877) 319-3077,0,0,0,0,0,0,0,0,0,0
A57,BELLE GLADE FL,SOCIAL SECURITY,,925 SE 1ST STREET,BELLE GLADE,FL,33430,(855) 257-0983,0,0,0,0,0,0,0,0,0,0
A58,CHICAGO SW SUBU,SOCIAL SECURITY,,10718 S ROBERTS RD,PALOS HILLS,IL,60465,(877) 405-4568,0,0,0,0,0,0,0,0,0,0
A59,PEKIN IL,SOCIAL SECURITY,,2801 BROADWAY,PEKIN,IL,61554,(877) 405-0499,0,0,0,0,0,0,0,0,0,0
A60,WOODSTOCK IL,SOCIAL SECURITY,,2450 LAKE SHORE DR,WOODSTOCK,IL,60098,(877) 405-7828,0,0,0,0,0,0,0,0,0,0
A61,WEST BEND WI,SOCIAL SECURITY,,1145 VERN STREET,WEST BEND,WI,53090,(888) 655-0843,0,0,0,0,0,0,0,0,0,0
A63,WYANDOTTE MI,SOCIAL SECURITY,,3450 BIDDLE AVE      .,WYANDOTTE,MI,48192,(866) 964-7407,0,0,0,0,0,0,0,0,0,0
A64,BATAVIA OH,SOCIAL SECURITY,,1050 HOSPITAL DR,BATAVIA,OH,45103,(800) 453-0494,0,0,0,0,0,0,0,0,0,0
A65,MIDDLETOWN OHIO,SOCIAL SECURITY,,3715 TOWNE BLVD,FRANKLIN,OH,45005,(877) 457-1738,0,0,0,0,0,0,0,0,0,0
A66,RAVENNA OH,SOCIAL SECURITY,,444 ENTERPRISE PARKWAY,RAVENNA,OH,44266,(855) 863-3562,0,0,0,0,0,0,0,0,0,0
A67,HARRISON AR,SOCIAL SECURITY,,131 W INDUSTRIAL PK RD,HARRISON,AR,72601,(877) 512-3851,0,0,0,0,0,0,0,0,0,0
A68,SEARCY AR,SOCIAL SECURITY,,701 AIRPORT LOOP,SEARCY,AR,72143,(855) 686-1467,0,0,0,0,0,0,0,0,0,0
A69,BOGALUSA LA,SOCIAL SECURITY,,438 AVENUE B,BOGALUSA,LA,70427,(888) 748-7678,0,0,0,0,0,0,0,0,0,0
A70,ORL WEST LA,SOCIAL SECURITY,,115 TERRY PKWY,TERRYTOWN,LA,70056,(866) 931-2524,0,0,0,0,0,0,0,0,0,0
A71,KENNER LA,SOCIAL SECURITY,,1616 JOE YENNI BLVD,KENNER,LA,70065,(888) 850-2232,0,0,0,0,0,0,0,0,0,0
A72,ANGLETON TX,SOCIAL SECURITY,,2921 N VALDERAS ST,ANGLETON,TX,77515,(866) 338-2940,0,0,0,0,0,0,0,0,0,0
A73,DENTON TX,SOCIAL SECURITY,,2201 COLORADO BLVD,DENTON,TX,76205,(888) 717-1530,0,0,0,0,0,0,0,0,0,0
A74,CONROE TX,SOCIAL SECURITY,,600 SGT ED HOLCOMB BLV,CONROE,TX,77304,(866) 614-0032,0,0,0,0,0,0,0,0,0,0
A75,KERRVILLE TX,SOCIAL SECURITY,,1060 GUADALUPE ST,KERRVILLE,TX,78028,(877) 895-0043,0,0,0,0,0,0,0,0,0,0
A76,MCKINNEY TX,SOCIAL SECURITY,,3250 CRAIG DR,MCKINNEY,TX,75070,(866) 931-2731,0,0,0,0,0,0,0,0,0,0
A78,FOUNTAIN VALLEY CA,SOCIAL SECURITY,SUITE B,17075 NEWHOPE STREET,FOUNTAIN VALLEY,CA,92708,(877) 304-1566,0,0,0,0,0,0,0,0,0,0
A79,NAPA CA,SOCIAL SECURITY,SUITE 102,1850 SOSCOL AVE,NAPA,CA,94559,(877) 836-1559,0,0,0,0,0,0,0,0,0,0
A80,BURBANK CA,SOCIAL SECURITY,,1420 W OLIVE AVE,BURBANK,CA,91506,(888) 748-7699,0,0,0,0,0,0,0,0,0,0
A81,CRAWFORDSVILLE,SOCIAL SECURITY,,1515 S GRANT AVE,CRAWFORDSVILLE,IN,47933,(888) 577-1498,0,0,0,0,0,0,0,0,0,0
A83,MOUNTAIN VIEW CA,SOCIAL SECURITY,701 N. SHORELINE BLVD.,1ST FLOOR,MOUNTAIN VIEW,CA,94043,(877) 319-0161,0,0,0,0,0,0,0,0,0,0
A85,UKIAH CA,SOCIAL SECURITY,,521 S ORCHARD AVE,UKIAH,CA,95482,(888) 590-2706,0,0,0,0,0,0,0,0,0,0
A87,VICTORVILLE CA,SOCIAL SECURITY,,13955 PARK AVE,VICTORVILLE,CA,92392,(877) 405-1435,0,0,0,0,0,0,0,0,0,0
A88,DALY CITY CA,SOCIAL SECURITY,SUITE 201,355 GELLERT BLVD,DALY CITY,CA,94015,(888) 748-7702,0,0,0,0,0,0,0,0,0,0
A89,NEWPORT RI,SOCIAL SECURITY,1ST FLR,130 BELLEVUE AVE,NEWPORT,RI,02840,(866) 253-5607,0,0,0,0,0,0,0,0,0,0
A92,CULPEPER VA,SOCIAL SECURITY,,1014 S MAIN ST,CULPEPER,VA,22701,(877) 531-4694,0,0,0,0,0,0,0,0,0,0
A94,LEWISTOWN PA,SOCIAL SECURITY,,208 WEST 3RD STREET,LEWISTOWN,PA,17044,(888) 306-4336,0,0,0,0,0,0,0,0,0,0
A96,WESTMINSTER MD,SOCIAL SECURITY,UNIT 10,125 AIRPORT DR,WESTMINSTER,MD,21157,(877) 694-5496,0,0,0,0,0,0,0,0,0,0
A97,EAST STROUDSBURG PA,SOCIAL SECURITY,,9090 FRANKLIN HILL RD STE 101,EAST STROUDSBURG,PA,18301,(888) 835-6169,0,0,0,0,0,0,0,0,0,0
A98,DADE CITY FL,SOCIAL SECURITY,,36630 ADAIR ROAD,DADE CITY,FL,33525,(866) 562-1325,0,0,0,0,0,0,0,0,0,0
A99,CLEVELAND MS,SOCIAL SECURITY,,407 INDUSTRIAL PARKWAY,CLEVELAND,MS,38732,(877) 405-4638,0,0,0,0,0,0,0,0,0,0
B00,HATO TEJAS PR,SOCIAL SECURITY,METRO MEDICAL CENTER,"7 FL, ROAD 2 KM 12.3",BAYAMON,PR,00959,(855) 748-7638,0,0,0,0,0,0,0,0,0,0
B01,SHELBY NC,SOCIAL SECURITY,,707 SCHENCK ST,SHELBY,NC,28150,(877) 405-3576,0,0,0,0,0,0,0,0,0,0
B02,CORINTH MS,SOCIAL SECURITY,,1050 S. HARPER RD,CORINTH,MS,38834,(866) 366-4921,0,0,0,0,0,0,0,0,0,0
B03,UNION CITY TN,SOCIAL SECURITY,,1800 OLD TROY RD,UNION CITY,TN,38261,(877) 401-5904,0,0,0,0,0,0,0,0,0,0
B05,SANFORD NC,SOCIAL SECURITY,,401 TIFFANY DR,SANFORD,NC,27330,(877) 319-5774,0,0,0,0,0,0,0,0,0,0
B06,ALBERTVILLE AL,SOCIAL SECURITY,,406 MARTLING ROAD,ALBERTVILLE,AL,35951,(800) 521-0073,0,0,0,0,0,0,0,0,0,0
B07,BRAINERD LAKES AREA MN,SOCIAL SECURITY,,8331 BRANDON ROAD,BAXTER,MN,56425,(866) 331-9087,0,0,0,0,0,0,0,0,0,0
B08,LAWRENCEBURG TN,SOCIAL SECURITY,,109 E TAYLOR STREET,LAWRENCEBURG,TN,38464,(877) 405-5866,0,0,0,0,0,0,0,0,0,0
B09,BROOKHAVEN MS,SOCIAL SECURITY,,1392 JOHNNY JOHNSON DR,BROOKHAVEN,MS,39601,(877) 405-3568,0,0,0,0,0,0,0,0,0,0
B10,HENDERSON NC,SOCIAL SECURITY,,858 S BECKFORD DR,HENDERSON,NC,27536,(877) 628-6584,0,0,0,0,0,0,0,0,0,0
B11,REIDSVILLE NC,SOCIAL SECURITY,,2402 FREEWAY DR,REIDSVILLE,NC,27320,(866) 748-2091,0,0,0,0,0,0,0,0,0,0
B13,SEBRING FL,SOCIAL SECURITY,,3700 COMMERCIAL DRIVE,SEBRING,FL,33870,(877) 405-0415,0,0,0,0,0,0,0,0,0,0
B14,GRENADA MS,SOCIAL SECURITY,,2383 SUNSET DRIVE,GRENADA,MS,38901,(866) 593-8523,0,0,0,0,0,0,0,0,0,0
B15,KOSCIUSKO MS,SOCIAL SECURITY,,80 VETERANS MEMORIAL DR,KOSCIUSKO,MS,39090,(866) 875-5995,0,0,0,0,0,0,0,0,0,0
B16,MT AIRY NC,SOCIAL SECURITY,1187 NORTH ANDY,GRIFFITH PARKWAY,MOUNT AIRY,NC,27030,(866) 587-4418,0,0,0,0,0,0,0,0,0,0
B17,WASHINGTON NC,SOCIAL SECURITY,,1633 JOHN SMALL AVE,WASHINGTON,NC,27889,(866) 574-2589,0,0,0,0,0,0,0,0,0,0
B19,MCMINNVILLE TN,SOCIAL SECURITY,,900 SPARTA ST,MCMINNVILLE,TN,37110,(877) 616-2515,0,0,0,0,0,0,0,0,0,0
B20,HENDERSON KY,SOCIAL SECURITY,BUILDING 3,2000 N ELM ST,HENDERSON,KY,42420,(855) 628-1593,0,0,0,0,0,0,0,0,0,0
B21,VERO BEACH FL,SOCIAL SECURITY,,724 20TH ST,VERO BEACH,FL,32960,(866) 964-7414,0,0,0,0,0,0,0,0,0,0
B23,TOCCOA GA,SOCIAL SECURITY,,155 BIG A RD,TOCCOA,GA,30577,(877) 405-7655,0,0,0,0,0,0,0,0,0,0
B24,PRESTONSBURG KY,SOCIAL SECURITY,,1897 KY RT 321,PRESTONSBURG,KY,41653,(888) 450-4538,0,0,0,0,0,0,0,0,0,0
B25,VILLA RICA GA,SOCIAL SECURITY,,908 S CARROLL RD,VILLA RICA,GA,30180,(866) 331-2318,0,0,0,0,0,0,0,0,0,0
B27,MAYFIELD KY,SOCIAL SECURITY,,1526 CUBA ROAD,MAYFIELD,KY,42066,(866) 931-8366,0,0,0,0,0,0,0,0,0,0
B28,HOLLAND MI,SOCIAL SECURITY,,657 HASTINGS AVE,HOLLAND,MI,49423,(877) 223-6062,0,0,0,0,0,0,0,0,0,0
B29,XENIA OH,SOCIAL SECURITY,,80 N PROGRESS DR,XENIA,OH,45385,(866) 755-5372,0,0,0,0,0,0,0,0,0,0
B30,MEDINA OH,SOCIAL SECURITY,,4035 N JEFFERSON ST,MEDINA,OH,44256,(866) 613-2774,0,0,0,0,0,0,0,0,0,0
B31,ADRIAN MI,SOCIAL SECURITY,SUITE 2401,1040 S WINTER ST,ADRIAN,MI,49221,(877) 512-5943,0,0,0,0,0,0,0,0,0,0
B32,BOWLING GREEN OH,SOCIAL SECURITY,,745 INNOVATION DRIVE,BOWLING GREEN,OH,43402,(866) 931-7674,0,0,0,0,0,0,0,0,0,0
B33,OWOSSO MI,SOCIAL SECURITY,,306 NORTH GOULD STREET,OWOSSO,MI,48867,(855) 628-1592,0,0,0,0,0,0,0,0,0,0
B34,CORALVILLE IA,SOCIAL SECURITY,SUITE 100,1100 6TH STREET,CORALVILLE,IA,52241,(866) 964-2039,0,0,0,0,0,0,0,0,0,0
B35,NEVADA MO,SOCIAL SECURITY,,120 S COMMERCE DR,NEVADA,MO,64772,(888) 808-5441,0,0,0,0,0,0,0,0,0,0
B36,MARSHALLTOWN IA,SOCIAL SECURITY,,2502 SOUTH 2ND STREET,MARSHALLTOWN,IA,50158,(877) 819-2595,0,0,0,0,0,0,0,0,0,0
B37,AMES IA,SOCIAL SECURITY,,2615 UNIVERSITY BLVD,AMES,IA,50010,(866) 899-1928,0,0,0,0,0,0,0,0,0,0
B38,UNION MO,SOCIAL SECURITY,SUITE 5,43 PRAIRIE DELL PLZ,UNION,MO,63084,(866) 837-1063,0,0,0,0,0,0,0,0,0,0
B41,KIRKSVILLE MO,SOCIAL SECURITY,,1305 CROWN DRIVE,KIRKSVILLE,MO,63501,(888) 386-2705,0,0,0,0,0,0,0,0,0,0
B43,RUSTON LA,SOCIAL SECURITY,,2017 BULAR ST,RUSTON,LA,71270,(877) 405-7823,0,0,0,0,0,0,0,0,0,0
B46,STILLWATER OK,SOCIAL SECURITY,,406 E HALL OF FAME AVE,STILLWATER,OK,74075,(888) 366-6143,0,0,0,0,0,0,0,0,0,0
B47,CLEBURNE TX,SOCIAL SECURITY,,1711 W. HENDERSON,CLEBURNE,TX,76033,(866) 227-1616,0,0,0,0,0,0,0,0,0,0
B48,BRENHAM TX,SOCIAL SECURITY,,2901 VICTORY LN,BRENHAM,TX,77833,(855) 287-4792,0,0,0,0,0,0,0,0,0,0
B49,CONWAY AR,SOCIAL SECURITY,,2475 CHRISTINA LN,CONWAY,AR,72034,(855) 727-3599,0,0,0,0,0,0,0,0,0,0
B50,MARSHALL TX,SOCIAL SECURITY,,1509 SEDBERRY ST,MARSHALL,TX,75670,(800) 467-5313,0,0,0,0,0,0,0,0,0,0
B51,SEGUIN TX,SOCIAL SECURITY,,927 S ST HWY 123 BYP,SEGUIN,TX,78155,(877) 445-0831,0,0,0,0,0,0,0,0,0,0
B52,NEW IBERIA LA,SOCIAL SECURITY,,417 SPANISH TOWN BLVD,NEW IBERIA,LA,70560,(866) 592-1496,0,0,0,0,0,0,0,0,0,0
B53,HOBBS NM,SOCIAL SECURITY,,501 E BENDER BLVD,HOBBS,NM,88240,(866) 254-2611,0,0,0,0,0,0,0,0,0,0
B55,LAS VEGAS NM,SOCIAL SECURITY,,2520 RIDGE RUNNER RD,LAS VEGAS,NM,87701,(866) 635-0856,0,0,0,0,0,0,0,0,0,0
B56,VIRGINIA BEACH,SOCIAL SECURITY,SUITE 100,2875 SABRE ST,VIRGINIA BEACH,VA,23452,(888) 377-5237,0,0,0,0,0,0,0,0,0,0
B57,FLAGSTAFF AZ,SOCIAL SECURITY,,2715 S WOODLANDS VLG B,FLAGSTAFF,AZ,86001,(877) 319-0735,0,0,0,0,0,0,0,0,0,0
B58,MISSION VIEJO CA,SOCIAL SECURITY,,26051 ACERO ROAD,MISSION VIEJO,CA,92691,(888) 306-9878,0,0,0,0,0,0,0,0,0,0
B59,LAKEWOOD CA,SOCIAL SECURITY,,4957 PARAMOUNT BLVD,LAKEWOOD,CA,90712,(866) 964-6484,0,0,0,0,0,0,0,0,0,0
B60,FREMONT CA,SOCIAL SECURITY,SUITE 100,3100 MOWRY AVE,FREMONT,CA,94538,(888) 632-7073,0,0,0,0,0,0,0,0,0,0
B62,DOUGLAS AZ,SOCIAL SECURITY,,600 E 15TH ST,DOUGLAS,AZ,85607,(877) 480-4858,0,0,0,0,0,0,0,0,0,0
B63,ANTIOCH CA,SOCIAL SECURITY,,2508 VERNE ROBERTS CIR,ANTIOCH,CA,94509,(866) 331-2324,0,0,0,0,0,0,0,0,0,0
B65,HANFORD CA,SOCIAL SECURITY,SUITE 101,330 NORTH HARRIS ST,HANFORD,CA,93230,(855) 207-4866,0,0,0,0,0,0,0,0,0,0
B67,OXNARD CA,SOCIAL SECURITY,SUITE 250,2000 OUTLET CENTER DR,OXNARD,CA,93036,(866) 931-8352,0,0,0,0,0,0,0,0,0,0
B68,ACCOMAC VA,SOCIAL SECURITY,ACCAWMACKE OFFICE PK,22581 CENTER PKWY,ACCOMAC,VA,23301,(866) 964-1019,0,0,0,0,0,0,0,0,0,0
B69,FONTANA CA,SOCIAL SECURITY,,10668 SIERRA AVE,FONTANA,CA,92337,(866) 726-7865,0,0,0,0,0,0,0,0,0,0
B73,MORENO VALLEY CA,SOCIAL SECURITY,22815 CALLE SAN JUAN,DE LOS LAGOS,MORENO VALLEY,CA,92553,(888) 590-2705,0,0,0,0,0,0,0,0,0,0
B74,LODI CA,SOCIAL SECURITY,STE 3,1110 W KETTLEMAN LANE,LODI,CA,95240,(888) 257-2641,0,0,0,0,0,0,0,0,0,0
B75,NOGALES AZ,SOCIAL SECURITY,,1760 N MASTICK WAY,NOGALES,AZ,85621,(877) 405-5472,0,0,0,0,0,0,0,0,0,0
B76,ALBANY OR,SOCIAL SECURITY,SUITE 110,1390 WAVERLY DRIVE SE,ALBANY,OR,97322,(877) 405-9196,0,0,0,0,0,0,0,0,0,0
B77,ONTARIO OR,SOCIAL SECURITY,,908 SE 5TH AVENUE,ONTARIO,OR,97914,(866) 403-8016,0,0,0,0,0,0,0,0,0,0
B78,PENDLETON OR,SOCIAL SECURITY,SUITE 100,1229 SE 3RD STREET,PENDLETON,OR,97801,(877) 405-0480,0,0,0,0,0,0,0,0,0,0
B80,LA MESA CA,SOCIAL SECURITY,,7961 UNIVERSITY AVE,LA MESA,CA,91942,(877) 405-1445,0,0,0,0,0,0,0,0,0,0
B87,HANOVER MA,SOCIAL SECURITY,STE 1,198 COLUMBIA RD,HANOVER,MA,02339,(877) 444-6898,0,0,0,0,0,0,0,0,0,0
B88,FALMOUTH MA,SOCIAL SECURITY,TECHNOLOGY PARK,48 RESEARCH RD,EAST FALMOUTH,MA,02536,(855) 881-0212,0,0,0,0,0,0,0,0,0,0
B89,MANATI PR,SOCIAL SECURITY,"SUITE 6, CARR #2",ESQ EXPRESO TO CIALES,MANATI,PR,00674,(866) 256-2681,0,0,0,0,0,0,0,0,0,0
B93,PEEKSKILL NY,SOCIAL SECURITY,3RD FL,ONE PARK PLACE,PEEKSKILL,NY,10566,(877) 840-5778,0,0,0,0,0,0,0,0,0,0
B95,EAST VILLAGE,SOCIAL SECURITY,,650 EAST 12TH ST,NEW YORK,NY,10009,(877) 405-1447,0,0,0,0,0,0,0,0,0,0
B96,RIDGE ROAD NY,SOCIAL SECURITY,SUITE 120,1900 RIDGE RD,WEST SENECA,NY,14224,(800) 647-9195,0,0,0,0,0,0,0,0,0,0
B97,WEST BABYLON NY,SOCIAL SECURITY,,510 PARK AVENUE,WEST BABYLON,NY,11704,(866) 964-7375,0,0,0,0,0,0,0,0,0,0
B99,BRIDGEWATER NJ,SOCIAL SECURITY,245 HIGHWAY 22,SUITE 207,BRIDGEWATER,NJ,08807,(866) 446-6198,0,0,0,0,0,0,0,0,0,0
C01,LONG ISLAND CITY,SOCIAL SECURITY,GROUND FLOOR,31-08 37TH AVENUE,LONG ISLAND CITY,NY,11101,(866) 837-1096,0,0,0,0,0,0,0,0,0,0
C04,HOBOKEN NJ,SOCIAL SECURITY,6TH FL,79 HUDSON ST,HOBOKEN,NJ,07030,(877) 505-4547,0,0,0,0,0,0,0,0,0,0
C07,GREENBELT MD,SOCIAL SECURITY,7401 FORBES BLVD,SUITE C,SEABROOK,MD,20706,(866) 338-4115,0,0,0,0,0,0,0,0,0,0
C10,BETHLEHEM PA,SOCIAL SECURITY,,555 MAIN ST,BETHLEHEM,PA,18018,(866) 783-7458,0,0,0,0,0,0,0,0,0,0
C11,MONROEVILLE PA,SOCIAL SECURITY,SUITE 210,400 OXFORD DRIVE,MONROEVILLE,PA,15146,(888) 527-9339,0,0,0,0,0,0,0,0,0,0
C14,POTTSTOWN PA,SOCIAL SECURITY,,80 ROBINSON ST,POTTSTOWN,PA,19464,(866) 964-7415,0,0,0,0,0,0,0,0,0,0
C15,ST ALBANS WV,SOCIAL SECURITY,,49 OLDE MAIN PLAZA,ST ALBANS,WV,25177,(866) 316-8153,0,0,0,0,0,0,0,0,0,0
C16,CLINTON SC,SOCIAL SECURITY,,292 PROFESSIONAL PARK RD,CLINTON,SC,29325,(866) 526-9854,0,0,0,0,0,0,0,0,0,0
C17,BIRMINGHAM EAST AL,SOCIAL SECURITY,TRUSSVILLE EXEC. PARK,1972 GADSDEN HWY.,BIRMINGHAM,AL,35235,(866) 613-2743,0,0,0,0,0,0,0,0,0,0
C18,NAPLES FL,SOCIAL SECURITY,SUITE 1114,"2659 PROFESSIONAL CIR,",NAPLES,FL,34119,(888) 294-0161,0,0,0,0,0,0,0,0,0,0
C19,FT LAUDERDALE W,SOCIAL SECURITY,SUITE 100,8501 W SUNRISE BLVD,PLANTATION,FL,33322,(866) 331-9093,0,0,0,0,0,0,0,0,0,0
C21,OLIVE BRANCH MS,SOCIAL SECURITY,,8760 MID SOUTH DR,OLIVE BRANCH,MS,38654,(866) 739-4771,0,0,0,0,0,0,0,0,0,0
C22,MARIANNA FL,SOCIAL SECURITY,,4125 JIREH COURT,MARIANNA,FL,32448,(888) 397-4815,0,0,0,0,0,0,0,0,0,0
C24,LITTLE RIVER FL,SOCIAL SECURITY,,8345 BISCAYNE BLVD,MIAMI,FL,33138,(877) 405-0468,0,0,0,0,0,0,0,0,0,0
C26,SOUTH PALM BEACH FL,SOCIAL SECURITY,SUITE 400,621 NW 53 ST,BOCA RATON,FL,33487,(877) 467-1703,0,0,0,0,0,0,0,0,0,0
C27,FAIRHOPE AL,SOCIAL SECURITY,,101 COURTHOUSE DR,FAIRHOPE,AL,36532,(866) 837-5964,0,0,0,0,0,0,0,0,0,0
C28,HARLAN KY,SOCIAL SECURITY,,189 VILLAGE CENTER,HARLAN,KY,40831,(888) 590-2707,0,0,0,0,0,0,0,0,0,0
C29,LITTLE HAVANA FL,SOCIAL SECURITY,3663 SW 8TH ST.,1ST FLOOR,MIAMI,FL,33135,(877) 714-0373,0,0,0,0,0,0,0,0,0,0
C31,WINDER GA,SOCIAL SECURITY,,389 EAST BROAD ST,WINDER,GA,30680,(866) 331-9071,0,0,0,0,0,0,0,0,0,0
C32,ALEXANDER CITY AL,SOCIAL SECURITY,,63 ALIANT PARKWAY,ALEXANDER CITY,AL,35010,(877) 405-0483,0,0,0,0,0,0,0,0,0,0
C37,MADISON TN,SOCIAL SECURITY,,140 CUDE LANE,MADISON,TN,37115,(866) 964-6302,0,0,0,0,0,0,0,0,0,0
C39,BROOKLYN CENTER,SOCIAL SECURITY,BROOKLYN XNG OFC PARK,3280 NORTHWAY DRIVE,BROOKLYN CENTER,MN,55429,(866) 931-0341,0,0,0,0,0,0,0,0,0,0
C40,BLOOMINGTON,SOCIAL SECURITY,SUITE 100,6161 AMERICAN BLVD W,BLOOMINGTON,MN,55438,(866) 964-7341,0,0,0,0,0,0,0,0,0,0
C41,INDIANAPOLIS NORTHEAST,SOCIAL SECURITY,,5515 NORTH POST ROAD,INDIANAPOLIS,IN,46216,(866) 220-7899,0,0,0,0,0,0,0,0,0,0
C43,FARMINGTON MI,SOCIAL SECURITY,,27650 FARMINGTON RD,FARMINGTON HILLS,MI,48334,(866) 331-2210,0,0,0,0,0,0,0,0,0,0
C44,INKSTER MI,SOCIAL SECURITY,,28657 CHERRY HILL RD,INKSTER,MI,48141,(866) 704-4860,0,0,0,0,0,0,0,0,0,0
C45,AHOSKIE NC,SOCIAL SECURITY,,1231 1ST ST W,AHOSKIE,NC,27910,(866) 828-3810,0,0,0,0,0,0,0,0,0,0
C46,CHESTERFIELD MI,SOCIAL SECURITY,,26200 21 MILE ROAD,CHESTERFIELD,MI,48051,(866) 635-0788,0,0,0,0,0,0,0,0,0,0
C47,DETROIT-SW MI,SOCIAL SECURITY,,5715 MICHIGAN AVE,DETROIT,MI,48210,(877) 319-0730,0,0,0,0,0,0,0,0,0,0
C48,CAMBRIDGE OH,SOCIAL SECURITY,SUITE 105,1225 WOODLAWN AVE,CAMBRIDGE,OH,43725,(866) 883-5281,0,0,0,0,0,0,0,0,0,0
C49,COUNCIL BLUFFS,SOCIAL SECURITY,MID-AMERICA CENTER,20 ARENA WAY STE 1,COUNCIL BLUFFS,IA,51501,(866) 331-9094,0,0,0,0,0,0,0,0,0,0
C51,ST LOUIS SOUTHWEST,SOCIAL SECURITY,,650 GRAVOIS BLUFFS BLVD,FENTON,MO,63026,(866) 331-2307,0,0,0,0,0,0,0,0,0,0
C52,LEBANON MO,SOCIAL SECURITY,,2546 S JEFFERSON AVE,LEBANON,MO,65536,(866) 931-7104,0,0,0,0,0,0,0,0,0,0
C53,MARYVILLE MO,SOCIAL SECURITY,,518 W SOUTH HILLS DR,MARYVILLE,MO,64468,(877) 833-2731,0,0,0,0,0,0,0,0,0,0
C54,BIG RAPIDS MI,SOCIAL SECURITY,STE A,502 N STATE ST,BIG RAPIDS,MI,49307,(855) 245-0641,0,0,0,0,0,0,0,0,0,0
C58,WATERTOWN SD,SOCIAL SECURITY,,514 JENSON AVE SE,WATERTOWN,SD,57201,(888) 737-1763,0,0,0,0,0,0,0,0,0,0
C62,SEATTLE NORTH WA,SOCIAL SECURITY,SUITE B,13510 AURORA AVE N,SEATTLE,WA,98133,(866) 931-2875,0,0,0,0,0,0,0,0,0,0
C63,BURIEN WA,SOCIAL SECURITY,,151 SW 156TH ST,BURIEN,WA,98166,(866) 964-7380,0,0,0,0,0,0,0,0,0,0
C64,MIDDLETOWN CT,SOCIAL SECURITY,3RD FLOOR,425 MAIN STREET,MIDDLETOWN,CT,06457,(877) 692-3145,0,0,0,0,0,0,0,0,0,0
C65,WATERVILLE ME,SOCIAL SECURITY,,14 COLBY STREET,WATERVILLE,ME,04901,(866) 931-9169,0,0,0,0,0,0,0,0,0,0
C67,NORTH ADAMS MA,SOCIAL SECURITY,,96 MARSHALL STREET,NORTH ADAMS,MA,01247,(877) 319-5709,0,0,0,0,0,0,0,0,0,0
C68,NORWICH CT,SOCIAL SECURITY,SUITE 380,55 MAIN ST,NORWICH,CT,06360,(888) 482-3170,0,0,0,0,0,0,0,0,0,0
C69,GARDNER MA,SOCIAL SECURITY,SUITE 2,354 MAIN ST,GARDNER,MA,01440,(844) 371-8116,0,0,0,0,0,0,0,0,0,0
C71,FAJARDO PR,SOCIAL SECURITY,RD #3 KM 42.4 QUEBRADA WARD,EASTERN PLAZA SHOPPING CENTER,FAJARDO,PR,00738,(855) 856-2728,0,0,0,0,0,0,0,0,0,0
C72,DUNKIRK NY,SOCIAL SECURITY,SUITE 2,437 MAIN ST,DUNKIRK,NY,14048,(888) 862-2139,0,0,0,0,0,0,0,0,0,0
C73,MT LAUREL NJ,SOCIAL SECURITY,532 FELLOWSHIP ROAD,SUITE E,MOUNT LAUREL,NJ,08054,(866) 837-5002,0,0,0,0,0,0,0,0,0,0
C77,WEST FARMS NY,SOCIAL SECURITY,,1829 SOUTHERN BLVD,BRONX,NY,10460,(866) 964-2558,0,0,0,0,0,0,0,0,0,0
C79,NEWTON NJ,SOCIAL SECURITY,,20 EAST CLINTON STREET,NEWTON,NJ,07860,(877) 575-5189,0,0,0,0,0,0,0,0,0,0
C80,LEWES DE,SOCIAL SECURITY,SUITE 101,12001 OLD VINE BLVD,LEWES,DE,19958,(866) 864-1803,0,0,0,0,0,0,0,0,0,0
C81,HAMPTON VA,SOCIAL SECURITY,GROUND FLOOR,1521 HARDY CASH DR,HAMPTON,VA,23666,(866) 592-2669,0,0,0,0,0,0,0,0,0,0
C83,HARRISONBURG VA,SOCIAL SECURITY,,351 NORTH MASON STREET,HARRISONBURG,VA,22802,(866) 964-1718,0,0,0,0,0,0,0,0,0,0
C85,TOWANDA PA,SOCIAL SECURITY,SUITE 1,1 ELIZABETH STREET,TOWANDA,PA,18848,(888) 841-6546,0,0,0,0,0,0,0,0,0,0
C86,KITTANNING PA,SOCIAL SECURITY,HIGHLAND BUS.CTR STE 1,159 BUTLER RD,KITTANNING,PA,16201,(877) 255-1372,0,0,0,0,0,0,0,0,0,0
C89,PETERSBURG WV,SOCIAL SECURITY,SUITE 3,111 S GROVE ST,PETERSBURG,WV,26847,(877) 405-2885,0,0,0,0,0,0,0,0,0,0
C90,MEMPHIS NORTH TN,SOCIAL SECURITY,,3602 AUSTIN PEAY HWY,MEMPHIS,TN,38128,(855) 420-8557,0,0,0,0,0,0,0,0,0,0
C91,CORDELE GA,SOCIAL SECURITY,,510 E 15TH AVE,CORDELE,GA,31015,(888) 225-8869,0,0,0,0,0,0,0,0,0,0
C92,WARNER ROBINS GA,SOCIAL SECURITY,,220 CARL VINSON PKWY,WARNER ROBINS,GA,31088,(866) 931-7084,0,0,0,0,0,0,0,0,0,0
C93,WALTERBORO SC,SOCIAL SECURITY,,502 ROBERTSON BLVD,WALTERBORO,SC,29488,(866) 708-2810,0,0,0,0,0,0,0,0,0,0
C94,ATHENS TN,SOCIAL SECURITY,,921 CONGRESS PKWY N,ATHENS,TN,37303,(866) 964-7431,0,0,0,0,0,0,0,0,0,0
C95,TIFTON GA,SOCIAL SECURITY,,732 2ND ST W,TIFTON,GA,31794,(877) 635-3542,0,0,0,0,0,0,0,0,0,0
C96,COVINGTON GA,SOCIAL SECURITY,,9180 COVINGTON BY PASS RD,COVINGTON,GA,30014,(877) 873-9106,0,0,0,0,0,0,0,0,0,0
C97,FOREST MS,SOCIAL SECURITY,,558 DEER FIELD DRIVE,FOREST,MS,39074,(866) 829-2497,0,0,0,0,0,0,0,0,0,0
D00,SELMER TN,SOCIAL SECURITY,,661 MULBERRY AVE,SELMER,TN,38375,(888) 397-4814,0,0,0,0,0,0,0,0,0,0
D01,ASHEBORO NC,SOCIAL SECURITY,SUITE K,157 DUBLIN SQUARE RD,ASHEBORO,NC,27203,(888) 472-6119,0,0,0,0,0,0,0,0,0,0
D02,STARKVILLE MS,SOCIAL SECURITY,,1089C STARK RD,STARKVILLE,MS,39759,(800) 305-6919,0,0,0,0,0,0,0,0,0,0
D04,WEST FRANKFORT,SOCIAL SECURITY,,1005 FACTORY OUTLET DR,WEST FRANKFORT,IL,62896,(888) 223-8869,0,0,0,0,0,0,0,0,0,0
D05,AUBURN IN,SOCIAL SECURITY,,1240 SOUTH GRANDSTAFF DR,AUBURN,IN,46706,(866) 829-2170,0,0,0,0,0,0,0,0,0,0
D06,ALEXANDRIA MN,SOCIAL SECURITY,SUITE 701,2633 JEFFERSON ST,ALEXANDRIA,MN,56308,(888) 224-8869,0,0,0,0,0,0,0,0,0,0
D08,MILW-WEST WI,SOCIAL SECURITY,,5020 W NORTH AVE,MILWAUKEE,WI,53208,(866) 716-8594,0,0,0,0,0,0,0,0,0,0
D09,LIVONIA MI,SOCIAL SECURITY,,34010 PLYMOUTH ROAD,LIVONIA,MI,48150,(866) 964-7371,0,0,0,0,0,0,0,0,0,0
D12,GALLIPOLIS OH,SOCIAL SECURITY,,2455 STATE ROUTE 160,GALLIPOLIS,OH,45631,(888) 397-6343,0,0,0,0,0,0,0,0,0,0
D13,FREMONT OH,SOCIAL SECURITY,,2220 ENTERPRISE STREET,FREMONT,OH,43420,(866) 614-4760,0,0,0,0,0,0,0,0,0,0
D14,STERLING HEIGHTS,SOCIAL SECURITY,,7385 TRIANGLE DRIVE,STERLING HEIGHTS,MI,48314,(888) 619-4768,0,0,0,0,0,0,0,0,0,0
D15,LAWRENCE KS,SOCIAL SECURITY,STE 200,1440 WAKARUSA,LAWRENCE,KS,66049,(866) 698-2561,0,0,0,0,0,0,0,0,0,0
D18,ST TAMMANY LA,SOCIAL SECURITY,,64285 HIGHWAY 434,LACOMBE,LA,70445,(866) 887-8997,0,0,0,0,0,0,0,0,0,0
D20,WAXAHACHIE TX,SOCIAL SECURITY,,100 DEAN BOX DRIVE,WAXAHACHIE,TX,75165,(866) 563-1912,0,0,0,0,0,0,0,0,0,0
D21,DURANT OK,SOCIAL SECURITY,,121 S 12TH AVE,DURANT,OK,74701,(866) 495-0042,0,0,0,0,0,0,0,0,0,0
D22,FERGUS FALLS MN,SOCIAL SECURITY,,1023 W LINCOLN AVE,FERGUS FALLS,MN,56537,(877) 402-0827,0,0,0,0,0,0,0,0,0,0
D24,AURORA CO,SOCIAL SECURITY,SUITE 250,14280 E JEWELL AVE,AURORA,CO,80012,(866) 931-9965,0,0,0,0,0,0,0,0,0,0
D26,MONTROSE CO,SOCIAL SECURITY,,1805 PAVILION DR,MONTROSE,CO,81401,(866) 758-1317,0,0,0,0,0,0,0,0,0,0
D28,SOUTH JORDAN,SOCIAL SECURITY,,10138 S JORDAN GTWY,SOUTH JORDAN,UT,84095,(866) 690-1947,0,0,0,0,0,0,0,0,0,0
D29,CANON CITY CO,SOCIAL SECURITY,,115 N 10TH ST,CANON CITY,CO,81212,(866) 272-5728,0,0,0,0,0,0,0,0,0,0
D31,SHERIDAN WY,SOCIAL SECURITY,,2268 N MAIN ST,SHERIDAN,WY,82801,(866) 530-7798,0,0,0,0,0,0,0,0,0,0
D33,YANKTON SD,SOCIAL SECURITY,SUITE 2,1818 BROADWAY AVE,YANKTON,SD,57078,(877) 405-3522,0,0,0,0,0,0,0,0,0,0
D34,REDWOOD CITY CA,SOCIAL SECURITY,2ND FLOOR,601 ALLERTON ST,REDWOOD CITY,CA,94063,(888) 860-5582,0,0,0,0,0,0,0,0,0,0
D35,AUBURN CA,SOCIAL SECURITY,,11855 EDGEWOOD RD,AUBURN,CA,95603,(866) 931-6087,0,0,0,0,0,0,0,0,0,0
D36,GARDEN GROVE CA,SOCIAL SECURITY,,11900 GILBERT ST,GARDEN GROVE,CA,92841,(877) 669-3115,0,0,0,0,0,0,0,0,0,0
D38,CAMPBELL CA,SOCIAL SECURITY,,770 W HAMILTON AVE,CAMPBELL,CA,95008,(866) 348-5832,0,0,0,0,0,0,0,0,0,0
D39,BREA CA,SOCIAL SECURITY,SUITE 150 1ST FLOOR,3230 E IMPERIAL HWY,BREA,CA,92821,(866) 593-2757,0,0,0,0,0,0,0,0,0,0
D41,KEARNY MESA CA,SOCIAL SECURITY,,8505 AERO DR,SAN DIEGO,CA,92123,(866) 331-6397,0,0,0,0,0,0,0,0,0,0
D44,WILSHIRE CENTER,SOCIAL SECURITY,WILSHIRE CENTER,4000 WILSHIRE BLVD,LOS ANGELES,CA,90010,(866) 964-7592,0,0,0,0,0,0,0,0,0,0
D46,ALHAMBRA CA,SOCIAL SECURITY,,900 S GARFIELD AVE,ALHAMBRA,CA,91801,(866) 227-6561,0,0,0,0,0,0,0,0,0,0
D47,SUISUN CITY CA,SOCIAL SECURITY,SUITE 220,700 MAIN STREET,SUISUN CITY,CA,94585,(866) 964-5021,0,0,0,0,0,0,0,0,0,0
D48,SAN LEANDRO CA,SOCIAL SECURITY,,320 DAVIS STREET,SAN LEANDRO,CA,94577,(866) 331-2181,0,0,0,0,0,0,0,0,0,0
D49,NORTH LAS VEGAS NV,SOCIAL SECURITY,,4340 SIMMONS STREET,NORTH LAS VEGAS,NV,89032,(866) 614-9667,0,0,0,0,0,0,0,0,0,0
D50,MT VERNON WA,SOCIAL SECURITY,SUITE A,710 E COLLEGE WAY,MT VERNON,WA,98273,(866) 931-7108,0,0,0,0,0,0,0,0,0,0
D51,PUYALLUP WA,SOCIAL SECURITY,SUITE A,811 SOUTH HILL PARK DR,PUYALLUP,WA,98373,(855) 886-9627,0,0,0,0,0,0,0,0,0,0
D52,WARRENTON OR,SOCIAL SECURITY,STE 104,1479 SE DISCOVERY LN,WARRENTON,OR,97146,(877) 840-5743,0,0,0,0,0,0,0,0,0,0
D53,BEND OR,SOCIAL SECURITY,SUITE 201,250 NW FRANKLIN AVE,BEND,OR,97703,(877) 405-0302,0,0,0,0,0,0,0,0,0,0
D54,CENTRALIA WA,SOCIAL SECURITY,STE 100,1821 COOKS HILL RD,CENTRALIA,WA,98531,(855) 848-7942,0,0,0,0,0,0,0,0,0,0
D55,LYNNWOOD WA,SOCIAL SECURITY,SUITE 207,18905 33RD AVE W,LYNNWOOD,WA,98036,(877) 575-5197,0,0,0,0,0,0,0,0,0,0
D57,CANARSIE NY,SOCIAL SECURITY,,1871 ROCKAWAY PARKWAY,BROOKLYN,NY,11236,(866) 667-7342,0,0,0,0,0,0,0,0,0,0
D58,HYLAN BLVD NY,SOCIAL SECURITY,2ND FLOOR,1510 HYLAN BLVD,STATEN ISLAND,NY,10305,(877) 457-1736,0,0,0,0,0,0,0,0,0,0
D59,BELLEVILLE IL,SOCIAL SECURITY,LAKE CHRISTINE CENTER,1670 LEBANON AVE,BELLEVILLE,IL,62221,(877) 405-0471,0,0,0,0,0,0,0,0,0,0
D60,INDIANAPOLIS NORTHWEST,SOCIAL SECURITY,,6745 NETWORK PL,INDIANAPOLIS,IN,46278,(866) 218-2309,0,0,0,0,0,0,0,0,0,0
D61,MERRILLVILLE IN,SOCIAL SECURITY,,1438 E 85TH AVE,MERRILLVILLE,IN,46410,(877) 692-3142,0,0,0,0,0,0,0,0,0,0
D62,COLUMBUS EAST,SOCIAL SECURITY,,220 S HAMILTON RD,COLUMBUS,OH,43213,(866) 592-0733,0,0,0,0,0,0,0,0,0,0
D63,COLUMBUS NORTH,SOCIAL SECURITY,,1051 WORTHINGTON WOODS,WORTHINGTON,OH,43085,(866) 789-0957,0,0,0,0,0,0,0,0,0,0
D64,HOUSTON DOWNTOWN TX (AREA SUPPORT UNIT),SOCIAL SECURITY,AREA SUPPORT UNIT,8989 LAKES AT 610 DR,HOUSTON,TX,77054,(866) 593-2846,0,0,0,0,0,0,0,0,0,0
D68,JACKSON AL,SOCIAL SECURITY,,4249 N COLLEGE AVE,JACKSON,AL,36545,(877) 476-4484,0,0,0,0,0,0,0,0,0,0
D77,SIKESTON MO,SOCIAL SECURITY,,711 YORK DR,SIKESTON,MO,63801,(866) 964-4261,0,0,0,0,0,0,0,0,0,0
D79,ST CROIX VI,SOCIAL SECURITY,4094 DIAMOND RUBY,SUITE 4,CHRISTIANSTED,VI,00820,(866) 209-0446,0,0,0,0,0,0,0,0,0,0
D80,JACKSON KY,SOCIAL SECURITY,,850 HWY 15 N,JACKSON,KY,41339,(866) 366-4920,0,0,0,0,0,0,0,0,0,0
D81,LEESVILLE LA,SOCIAL SECURITY,,2100 SARTOR ST,LEESVILLE,LA,71446,(888) 577-6906,0,0,0,0,0,0,0,0,0,0
D89,WILLIAMSON WV,SOCIAL SECURITY,,146 EAST FIRST AVE,WILLIAMSON,WV,25661,(888) 759-3920,0,0,0,0,0,0,0,0,0,0
D92,BOZEMAN MT,SOCIAL SECURITY,,3205 N 27TH AVENUE,BOZEMAN,MT,59718,(877) 405-5473,0,0,0,0,0,0,0,0,0,0
E00,NORTH FLINT MI,SOCIAL SECURITY,,2021 W. CARPENTER RD,FLINT,MI,48505,(877) 748-9766,0,0,0,0,0,0,0,0,0,0
E02,SAIPAN MP,SOCIAL SECURITY,MH II BLDG SUITE 201,MARINA HEIGHTS BUSINESS PARK,SAIPAN,MP,96950,(855) 616-6449,0,0,0,0,0,0,0,0,0,0
E05,BACK OF THE YARDS,SOCIAL SECURITY,,4631 S ASHLAND AVE,CHICAGO,IL,60609,(877) 897-0608,0,0,0,0,0,0,0,0,0,0
E08,SOUTHEAST FRESNO CA,SOCIAL SECURITY,,5140 E OLIVE AVE,FRESNO,CA,93727,(866) 366-4918,0,0,0,0,0,0,0,0,0,0
E21,BRICK NJ,SOCIAL SECURITY,,2620 YORKTOWNE BLVD,BRICK,NJ,08723,(877) 405-5870,0,0,0,0,0,0,0,0,0,0
E24,EL PASO DOWNTOWN TX,SOCIAL SECURITY,,600 TEXAS AVE,EL PASO,TX,79901,(866) 964-6229,0,0,0,0,0,0,0,0,0,0
E26,GREENFIELD WI,SOCIAL SECURITY,,8455 W LAYTON AVE,GREENFIELD,WI,53228,(877) 600-2856,0,0,0,0,0,0,0,0,0,0
E27,OROVILLE CA,SOCIAL SECURITY,,115 TABLE MOUNTAIN BL,OROVILLE,CA,95965,(866) 331-7130,0,0,0,0,0,0,0,0,0,0
E28,NORTH SACRAMENTO,SOCIAL SECURITY,SUITE 200,2424 ARDEN WAY,SACRAMENTO,CA,95825,(855) 782-9153,0,0,0,0,0,0,0,0,0,0
E29,WEST SACRAMENTO CA,SOCIAL SECURITY,STE 1000,825 RIVERSIDE PARKWAY,WEST SACRAMENTO,CA,95605,(866) 726-8136,0,0,0,0,0,0,0,0,0,0
E31,GLENDORA CA,SOCIAL SECURITY,,1165 E ROUTE 66,GLENDORA,CA,91740,(866) 964-6045,0,0,0,0,0,0,0,0,0,0
E32,POTEAU OK,SOCIAL SECURITY,,1306 TARBY RD,POTEAU,OK,74953,(877) 405-7697,0,0,0,0,0,0,0,0,0,0
E35,FORT WORTH SOUTH TX,SOCIAL SECURITY,,2901 ALTAMESA BLVD,FORT WORTH,TX,76133,(866) 613-2745,0,0,0,0,0,0,0,0,0,0
E36,BATON ROUGE NORTH LA,SOCIAL SECURITY,,4332 HARDING BLVD,BATON ROUGE,LA,70807,(888) 487-0143,0,0,0,0,0,0,0,0,0,0
E37,SHERWOOD AR,SOCIAL SECURITY,,3608 EAST KIEHL AVE,SHERWOOD,AR,72120,(877) 512-3854,0,0,0,0,0,0,0,0,0,0
E39,INDIO CA,SOCIAL SECURITY,,46845 MONROE STREET,INDIO,CA,92201,(877) 319-5758,0,0,0,0,0,0,0,0,0,0
E41,SAN JOSE SOUTH,SOCIAL SECURITY,,6140 COTTLE ROAD,SAN JOSE,CA,95123,(888) 383-1180,0,0,0,0,0,0,0,0,0,0
E44,SAN MARCOS TX,SOCIAL SECURITY,SUITE 200,900 BUGG LANE,SAN MARCOS,TX,78666,(866) 388-8515,0,0,0,0,0,0,0,0,0,0
E45,GEORGETOWN TX,SOCIAL SECURITY,3010 WILLIAMS DR,SUITE 150,GEORGETOWN,TX,78628,(877) 531-4699,0,0,0,0,0,0,0,0,0,0
E63,POSTAL PLAZA DC,SOCIAL SECURITY,POSTAL PLAZA SHPG CTR,1905-B 9TH ST NE,WASHINGTON,DC,20018,(866) 737-4470,0,0,0,0,0,0,0,0,0,0
E64,DALLAS PLEASANT GROVE,SOCIAL SECURITY,,2300 DUNSON DR,BALCH SPRINGS,TX,75180,(855) 531-1683,0,0,0,0,0,0,0,0,0,0
E65,COLUMBUS WEST,SOCIAL SECURITY,,1060 GEORGESVILLE ROAD,COLUMBUS,OH,43228,(866) 656-0178,0,0,0,0,0,0,0,0,0,0
E69,VIDALIA GA,SOCIAL SECURITY,,104 W THIRD ST,VIDALIA,GA,30474,(866) 931-2518,0,0,0,0,0,0,0,0,0,0
E72,GREECE NY,SOCIAL SECURITY,2ND FLOOR,4050 W RIDGE RD,ROCHESTER,NY,14626,(866) 331-2204,0,0,0,0,0,0,0,0,0,0
E76,ST LOUIS NORTH COUNTY,SOCIAL SECURITY,,11753 W FLORISSANT AVE,FLORISSANT,MO,63033,(866) 931-2871,0,0,0,0,0,0,0,0,0,0
E77,ROSEVILLE CA,SOCIAL SECURITY,,910 CIRBY WAY,ROSEVILLE,CA,95661,(866) 348-7830,0,0,0,0,0,0,0,0,0,0
E78,PLACERVILLE CA,SOCIAL SECURITY,SUITE A,3916 MISSOURI FLAT RD,PLACERVILLE,CA,95667,(877) 545-5497,0,0,0,0,0,0,0,0,0,0
E79,SOUTH SACRAMENTO CA,SOCIAL SECURITY,,40 MASSIE CIRCLE,SACRAMENTO,CA,95823,(866) 708-3208,0,0,0,0,0,0,0,0,0,0
E98,COCOA FL,SOCIAL SECURITY,,310 CANAVERAL GROVES,COCOA,FL,32926,(866) 964-0798,0,0,0,0,0,0,0,0,0,0
I15,NEWNAN GA,SOCIAL SECURITY,SUITE B,246 BULLSBORO DR,NEWNAN,GA,30263,(855) 863-3561,0,0,0,0,0,0,0,0,0,0
I60,SHOW LOW AZ,SOCIAL SECURITY,,2500 E COOLEY  STE 407,SHOW LOW,AZ,85901,(877) 850-7831,0,0,0,0,0,0,0,0,0,0
,,,,,,,,,,,,,,,,,,
,,,,,,,,,,,,,,,,,,
,,,,,,,,,,,,,,,,,,
,,,,,,,,,,,,,,,,,,
,,,,,,,,,,,,,,,,,,
,,,,,,,,,,,,,,,,,,
,,,,,,,,,,,,,,,,,,
,,,,,,,,,,,,,,,,,,
,,,,,,,,,,,,,,,,,,
,,,,,,,,,,,,,,,,,,
,,,,,,,,,,,,,,,,,,
,,,,,,,,,,,,,,,,,,
,,,,,,,,,,,,,,,,,,
,,,,,,,,,,,,,,,,,,
,,,,,,,,,,,,,,,,,,
,,,,,,,,,,,,,,,,,,
,,,,,,,,,,,,,,,,,,
,,,,,,,,,,,,,,,,,,
,,,,,,,,,,,,,,,,,,
,,,,,,,,,,,,,,,,,,
,,,,,,,,,,,,,,,,,,
,,,,,,,,,,,,,,,,,,
,,,,,,,,,,,,,,,,,,
,,,,,,,,,,,,,,,,,,
,,,,,,,,,,,,,,,,,,
,,,,,,,,,,,,,,,,,,
,,,,,,,,,,,,,,,,,,
,,,,,,,,,,,,,,,,,,
,,,,,,,,,,,,,,,,,,
,,,,,,,,,,,,,,,,,,
,,,,,,,,,,,,,,,,,,
,,,,,,,,,,,,,,,,,,
,,,,,,,,,,,,,,,,,,
,,,,,,,,,,,,,,,,,,
,,,,,,,,,,,,,,,,,,
